<?xml version="1.0" encoding="UTF-8"?>
<kml xmlns="http://www.opengis.net/kml/2.2">
<Document>
<name>AVG_Ataturk_route_1 GA Rota Sonucu</name>

<Style id="service">
<LineStyle>
<color>ff0000ff</color>
<width>5</width>
</LineStyle>
</Style>

<Style id="travel">
<LineStyle>
<color>ffff0000</color>
<width>4</width>
</LineStyle>
</Style>

<Placemark>
<name>AVG_Ataturk_route_1 | Rota 1 | Adım 1 | Travel 0->46</name>
<styleUrl>#travel</styleUrl>
<LineString>
<tessellate>1</tessellate>
<coordinates>
27.18011,38.36644,0
27.1796535,38.367388,0
27.1793907,38.3679853,0
27.1790312,38.3688096,0
27.178865,38.3694825,0
27.1787899,38.3697643,0
27.1787416,38.3700756,0
27.1787322,38.3701381,0
27.1787054,38.3701649,0
27.1786115,38.3702573,0
</coordinates>
</LineString>
</Placemark>

<Placemark>
<name>AVG_Ataturk_route_1 | Rota 1 | Adım 1 | Travel 46->47</name>
<styleUrl>#travel</styleUrl>
<LineString>
<tessellate>1</tessellate>
<coordinates>
27.1782188,38.3727672,0
27.1782613,38.3718972,0
27.1782774,38.3716764,0
27.1783176,38.3714514,0
27.1784525,38.3708543,0
27.1785105,38.3705537,0
27.1786115,38.3702573,0
</coordinates>
</LineString>
</Placemark>

<Placemark>
<name>AVG_Ataturk_route_1 | Rota 1 | Adım 1 | Travel 47->48</name>
<styleUrl>#travel</styleUrl>
<LineString>
<tessellate>1</tessellate>
<coordinates>
27.1781992,38.3736308,0
27.1782188,38.3727672,0
</coordinates>
</LineString>
</Placemark>

<Placemark>
<name>AVG_Ataturk_route_1 | Rota 1 | Adım 1 | Travel 48->45</name>
<styleUrl>#travel</styleUrl>
<LineString>
<tessellate>1</tessellate>
<coordinates>
27.1769799,38.3762664,0
27.1773494,38.3758234,0
27.1777511,38.3754014,0
27.1780086,38.374964,0
27.1781722,38.3744257,0
27.1781992,38.3736308,0
</coordinates>
</LineString>
</Placemark>

<Placemark>
<name>AVG_Ataturk_route_1 | Rota 1 | Adım 1 | Travel 45->102</name>
<styleUrl>#travel</styleUrl>
<LineString>
<tessellate>1</tessellate>
<coordinates>
27.1769799,38.3762664,0
27.1770975,38.376307,0
27.1772097,38.3763645,0
27.1774233,38.3764836,0
27.1778346,38.3767217,0
27.177744,38.3767817,0
</coordinates>
</LineString>
</Placemark>

<Placemark>
<name>AVG_Ataturk_route_1 | Rota 1 | Adım 1 | Servis Edge 68 (102->101)</name>
<styleUrl>#service</styleUrl>
<LineString>
<tessellate>1</tessellate>
<coordinates>
27.177744,38.3767817,0
27.1774951,38.376936,0
27.1772564,38.3770596,0
27.1770781,38.3771484,0
27.1766965,38.3773692,0
27.1765325,38.3774757,0
</coordinates>
</LineString>
</Placemark>

<Placemark>
<name>AVG_Ataturk_route_1 | Rota 1 | Adım 2 | Travel 101->103</name>
<styleUrl>#travel</styleUrl>
<LineString>
<tessellate>1</tessellate>
<coordinates>
27.1765325,38.3774757,0
27.1765867,38.3774997,0
27.1766243,38.377505,0
27.1772197,38.3774587,0
27.1773149,38.3774587,0
27.1774509,38.3774726,0
</coordinates>
</LineString>
</Placemark>

<Placemark>
<name>AVG_Ataturk_route_1 | Rota 1 | Adım 2 | Travel 103->104</name>
<styleUrl>#travel</styleUrl>
<LineString>
<tessellate>1</tessellate>
<coordinates>
27.1774509,38.3774726,0
27.1780466,38.3773898,0
</coordinates>
</LineString>
</Placemark>

<Placemark>
<name>AVG_Ataturk_route_1 | Rota 1 | Adım 2 | Travel 104->106</name>
<styleUrl>#travel</styleUrl>
<LineString>
<tessellate>1</tessellate>
<coordinates>
27.1780466,38.3773898,0
27.1783037,38.3773181,0
</coordinates>
</LineString>
</Placemark>

<Placemark>
<name>AVG_Ataturk_route_1 | Rota 1 | Adım 2 | Travel 106->188</name>
<styleUrl>#travel</styleUrl>
<LineString>
<tessellate>1</tessellate>
<coordinates>
27.1783037,38.3773181,0
27.178235,38.3776895,0
27.1782522,38.3777198,0
27.1782825,38.3777388,0
27.1790125,38.3779049,0
27.179744,38.3780486,0
</coordinates>
</LineString>
</Placemark>

<Placemark>
<name>AVG_Ataturk_route_1 | Rota 1 | Adım 2 | Servis Edge 101 (188->187)</name>
<styleUrl>#service</styleUrl>
<LineString>
<tessellate>1</tessellate>
<coordinates>
27.1802529,38.378153,0
27.179744,38.3780486,0
</coordinates>
</LineString>
</Placemark>

<Placemark>
<name>AVG_Ataturk_route_1 | Rota 1 | Adım 3 | Travel 187->186</name>
<styleUrl>#travel</styleUrl>
<LineString>
<tessellate>1</tessellate>
<coordinates>
27.1801831,38.3777156,0
27.1802529,38.378153,0
</coordinates>
</LineString>
</Placemark>

<Placemark>
<name>AVG_Ataturk_route_1 | Rota 1 | Adım 3 | Travel 186->183</name>
<styleUrl>#travel</styleUrl>
<LineString>
<tessellate>1</tessellate>
<coordinates>
27.1804646,38.3775673,0
27.180294,38.3776587,0
27.1801831,38.3777156,0
</coordinates>
</LineString>
</Placemark>

<Placemark>
<name>AVG_Ataturk_route_1 | Rota 1 | Adım 3 | Travel 183->182</name>
<styleUrl>#travel</styleUrl>
<LineString>
<tessellate>1</tessellate>
<coordinates>
27.1804646,38.3775673,0
27.1809965,38.3773302,0
</coordinates>
</LineString>
</Placemark>

<Placemark>
<name>AVG_Ataturk_route_1 | Rota 1 | Adım 3 | Travel 182->180</name>
<styleUrl>#travel</styleUrl>
<LineString>
<tessellate>1</tessellate>
<coordinates>
27.1816998,38.3769268,0
27.1815874,38.377015,0
27.1815401,38.3770563,0
27.1815028,38.377086,0
27.1814468,38.3771252,0
27.1813482,38.37719,0
27.1809965,38.3773302,0
</coordinates>
</LineString>
</Placemark>

<Placemark>
<name>AVG_Ataturk_route_1 | Rota 1 | Adım 3 | Travel 180->181</name>
<styleUrl>#travel</styleUrl>
<LineString>
<tessellate>1</tessellate>
<coordinates>
27.1816998,38.3769268,0
27.1816922,38.3767725,0
</coordinates>
</LineString>
</Placemark>

<Placemark>
<name>AVG_Ataturk_route_1 | Rota 1 | Adım 3 | Servis Edge 74 (181->113)</name>
<styleUrl>#service</styleUrl>
<LineString>
<tessellate>1</tessellate>
<coordinates>
27.18184,38.3759827,0
27.1818392,38.3761313,0
27.1818281,38.3762098,0
27.1818344,38.3762936,0
27.1818222,38.376343,0
27.1817968,38.3765017,0
27.1816922,38.3767725,0
</coordinates>
</LineString>
</Placemark>

<Placemark>
<name>AVG_Ataturk_route_1 | Rota 1 | Adım 4 | Travel 113->112</name>
<styleUrl>#travel</styleUrl>
<LineString>
<tessellate>1</tessellate>
<coordinates>
27.18184,38.3759827,0
27.1813365,38.3761975,0
</coordinates>
</LineString>
</Placemark>

<Placemark>
<name>AVG_Ataturk_route_1 | Rota 1 | Adım 4 | Servis Edge 77 (112->110)</name>
<styleUrl>#service</styleUrl>
<LineString>
<tessellate>1</tessellate>
<coordinates>
27.1813365,38.3761975,0
27.1804686,38.3765792,0
</coordinates>
</LineString>
</Placemark>

<Placemark>
<name>AVG_Ataturk_route_1 | Rota 1 | Adım 5 | Travel 110->182</name>
<styleUrl>#travel</styleUrl>
<LineString>
<tessellate>1</tessellate>
<coordinates>
27.1809965,38.3773302,0
27.1804686,38.3765792,0
</coordinates>
</LineString>
</Placemark>

<Placemark>
<name>AVG_Ataturk_route_1 | Rota 1 | Adım 5 | Servis Edge 80 (182->183)</name>
<styleUrl>#service</styleUrl>
<LineString>
<tessellate>1</tessellate>
<coordinates>
27.1809965,38.3773302,0
27.1804646,38.3775673,0
</coordinates>
</LineString>
</Placemark>

<Placemark>
<name>AVG_Ataturk_route_1 | Rota 1 | Adım 6 | Servis Edge 82 (183->184)</name>
<styleUrl>#service</styleUrl>
<LineString>
<tessellate>1</tessellate>
<coordinates>
27.1804646,38.3775673,0
27.1800052,38.3773718,0
</coordinates>
</LineString>
</Placemark>

<Placemark>
<name>AVG_Ataturk_route_1 | Rota 1 | Adım 7 | Travel 184->183</name>
<styleUrl>#travel</styleUrl>
<LineString>
<tessellate>1</tessellate>
<coordinates>
27.1800052,38.3773718,0
27.1804646,38.3775673,0
</coordinates>
</LineString>
</Placemark>

<Placemark>
<name>AVG_Ataturk_route_1 | Rota 1 | Adım 7 | Travel 183->182</name>
<styleUrl>#travel</styleUrl>
<LineString>
<tessellate>1</tessellate>
<coordinates>
27.1804646,38.3775673,0
27.1809965,38.3773302,0
</coordinates>
</LineString>
</Placemark>

<Placemark>
<name>AVG_Ataturk_route_1 | Rota 1 | Adım 7 | Travel 182->61</name>
<styleUrl>#travel</styleUrl>
<LineString>
<tessellate>1</tessellate>
<coordinates>
27.1809965,38.3773302,0
27.1813362,38.3778136,0
27.1813711,38.3778557,0
27.181445,38.3779457,0
</coordinates>
</LineString>
</Placemark>

<Placemark>
<name>AVG_Ataturk_route_1 | Rota 1 | Adım 7 | Servis Edge 123 (61->189)</name>
<styleUrl>#service</styleUrl>
<LineString>
<tessellate>1</tessellate>
<coordinates>
27.180677,38.3784182,0
27.181445,38.3779457,0
</coordinates>
</LineString>
</Placemark>

<Placemark>
<name>AVG_Ataturk_route_1 | Rota 1 | Adım 8 | Travel 189->190</name>
<styleUrl>#travel</styleUrl>
<LineString>
<tessellate>1</tessellate>
<coordinates>
27.180677,38.3784182,0
27.1806476,38.3785396,0
27.1805707,38.3787837,0
</coordinates>
</LineString>
</Placemark>

<Placemark>
<name>AVG_Ataturk_route_1 | Rota 1 | Adım 8 | Travel 190->192</name>
<styleUrl>#travel</styleUrl>
<LineString>
<tessellate>1</tessellate>
<coordinates>
27.1805707,38.3787837,0
27.1804664,38.3791153,0
27.1804297,38.3793658,0
</coordinates>
</LineString>
</Placemark>

<Placemark>
<name>AVG_Ataturk_route_1 | Rota 1 | Adım 8 | Travel 192->88</name>
<styleUrl>#travel</styleUrl>
<LineString>
<tessellate>1</tessellate>
<coordinates>
27.1804297,38.3793658,0
27.1803819,38.379518,0
</coordinates>
</LineString>
</Placemark>

<Placemark>
<name>AVG_Ataturk_route_1 | Rota 1 | Adım 8 | Travel 88->87</name>
<styleUrl>#travel</styleUrl>
<LineString>
<tessellate>1</tessellate>
<coordinates>
27.1803819,38.379518,0
27.1802108,38.3795413,0
27.1800109,38.3796139,0
27.1798862,38.3796244,0
27.1798004,38.3796202,0
27.1796972,38.3796318,0
27.1796516,38.3796538,0
27.1795724,38.3796528,0
27.1794692,38.379637,0
27.1787047,38.3794967,0
</coordinates>
</LineString>
</Placemark>

<Placemark>
<name>AVG_Ataturk_route_1 | Rota 1 | Adım 8 | Travel 87->86</name>
<styleUrl>#travel</styleUrl>
<LineString>
<tessellate>1</tessellate>
<coordinates>
27.1787047,38.3794967,0
27.1786747,38.3796097,0
</coordinates>
</LineString>
</Placemark>

<Placemark>
<name>AVG_Ataturk_route_1 | Rota 1 | Adım 8 | Travel 86->85</name>
<styleUrl>#travel</styleUrl>
<LineString>
<tessellate>1</tessellate>
<coordinates>
27.1786176,38.3798411,0
27.1786747,38.3796097,0
</coordinates>
</LineString>
</Placemark>

<Placemark>
<name>AVG_Ataturk_route_1 | Rota 1 | Adım 8 | Travel 85->72</name>
<styleUrl>#travel</styleUrl>
<LineString>
<tessellate>1</tessellate>
<coordinates>
27.1786176,38.3798411,0
27.1783877,38.3798157,0
27.1779436,38.3797886,0
27.177846,38.3797904,0
27.1777431,38.3797949,0
27.1775878,38.3798296,0
27.1775356,38.3798383,0
27.1774469,38.3798347,0
</coordinates>
</LineString>
</Placemark>

<Placemark>
<name>AVG_Ataturk_route_1 | Rota 1 | Adım 8 | Servis Edge 88 (72->71)</name>
<styleUrl>#service</styleUrl>
<LineString>
<tessellate>1</tessellate>
<coordinates>
27.1774452,38.3798368,0
27.1770165,38.3789512,0
27.1768258,38.3786789,0
</coordinates>
</LineString>
</Placemark>

<Placemark>
<name>AVG_Ataturk_route_1 | Rota 1 | Adım 9 | Travel 71->72</name>
<styleUrl>#travel</styleUrl>
<LineString>
<tessellate>1</tessellate>
<coordinates>
27.1768258,38.3786789,0
27.1770165,38.3789512,0
27.1774452,38.3798368,0
</coordinates>
</LineString>
</Placemark>

<Placemark>
<name>AVG_Ataturk_route_1 | Rota 1 | Adım 9 | Servis Edge 90 (72->85)</name>
<styleUrl>#service</styleUrl>
<LineString>
<tessellate>1</tessellate>
<coordinates>
27.1774469,38.3798347,0
27.1775356,38.3798383,0
27.1775878,38.3798296,0
27.1777431,38.3797949,0
27.177846,38.3797904,0
27.1779436,38.3797886,0
27.1783877,38.3798157,0
27.1786176,38.3798411,0
</coordinates>
</LineString>
</Placemark>

<Placemark>
<name>AVG_Ataturk_route_1 | Rota 1 | Adım 10 | Travel 85->86</name>
<styleUrl>#travel</styleUrl>
<LineString>
<tessellate>1</tessellate>
<coordinates>
27.1786747,38.3796097,0
27.1786176,38.3798411,0
</coordinates>
</LineString>
</Placemark>

<Placemark>
<name>AVG_Ataturk_route_1 | Rota 1 | Adım 10 | Travel 86->87</name>
<styleUrl>#travel</styleUrl>
<LineString>
<tessellate>1</tessellate>
<coordinates>
27.1786747,38.3796097,0
27.1787047,38.3794967,0
</coordinates>
</LineString>
</Placemark>

<Placemark>
<name>AVG_Ataturk_route_1 | Rota 1 | Adım 10 | Travel 87->83</name>
<styleUrl>#travel</styleUrl>
<LineString>
<tessellate>1</tessellate>
<coordinates>
27.1787047,38.3794967,0
27.1788148,38.3790395,0
</coordinates>
</LineString>
</Placemark>

<Placemark>
<name>AVG_Ataturk_route_1 | Rota 1 | Adım 10 | Servis Edge 94 (83->82)</name>
<styleUrl>#service</styleUrl>
<LineString>
<tessellate>1</tessellate>
<coordinates>
27.1789915,38.3783436,0
27.1788371,38.3789864,0
27.1788148,38.3790395,0
</coordinates>
</LineString>
</Placemark>

<Placemark>
<name>AVG_Ataturk_route_1 | Rota 1 | Adım 11 | Servis Edge 95 (82->81)</name>
<styleUrl>#service</styleUrl>
<LineString>
<tessellate>1</tessellate>
<coordinates>
27.1776706,38.3780671,0
27.1789915,38.3783436,0
</coordinates>
</LineString>
</Placemark>

<Placemark>
<name>AVG_Ataturk_route_1 | Rota 1 | Adım 12 | Travel 81->84</name>
<styleUrl>#travel</styleUrl>
<LineString>
<tessellate>1</tessellate>
<coordinates>
27.1778398,38.3788427,0
27.1778096,38.3787268,0
27.1776706,38.3780671,0
</coordinates>
</LineString>
</Placemark>

<Placemark>
<name>AVG_Ataturk_route_1 | Rota 1 | Adım 12 | Servis Edge 96 (84->83)</name>
<styleUrl>#service</styleUrl>
<LineString>
<tessellate>1</tessellate>
<coordinates>
27.1778398,38.3788427,0
27.1788148,38.3790395,0
</coordinates>
</LineString>
</Placemark>

<Placemark>
<name>AVG_Ataturk_route_1 | Rota 1 | Adım 13 | Travel 83->87</name>
<styleUrl>#travel</styleUrl>
<LineString>
<tessellate>1</tessellate>
<coordinates>
27.1788148,38.3790395,0
27.1787047,38.3794967,0
</coordinates>
</LineString>
</Placemark>

<Placemark>
<name>AVG_Ataturk_route_1 | Rota 1 | Adım 13 | Travel 87->86</name>
<styleUrl>#travel</styleUrl>
<LineString>
<tessellate>1</tessellate>
<coordinates>
27.1787047,38.3794967,0
27.1786747,38.3796097,0
</coordinates>
</LineString>
</Placemark>

<Placemark>
<name>AVG_Ataturk_route_1 | Rota 1 | Adım 13 | Servis Edge 99 (86->84)</name>
<styleUrl>#service</styleUrl>
<LineString>
<tessellate>1</tessellate>
<coordinates>
27.1786747,38.3796097,0
27.1784011,38.3794951,0
27.1783359,38.3794567,0
27.1779632,38.3791955,0
27.1778297,38.3790756,0
27.1778398,38.3788427,0
</coordinates>
</LineString>
</Placemark>

<Placemark>
<name>AVG_Ataturk_route_1 | Rota 1 | Adım 14 | Travel 84->86</name>
<styleUrl>#travel</styleUrl>
<LineString>
<tessellate>1</tessellate>
<coordinates>
27.1778398,38.3788427,0
27.1778297,38.3790756,0
27.1779632,38.3791955,0
27.1783359,38.3794567,0
27.1784011,38.3794951,0
27.1786747,38.3796097,0
</coordinates>
</LineString>
</Placemark>

<Placemark>
<name>AVG_Ataturk_route_1 | Rota 1 | Adım 14 | Travel 86->87</name>
<styleUrl>#travel</styleUrl>
<LineString>
<tessellate>1</tessellate>
<coordinates>
27.1786747,38.3796097,0
27.1787047,38.3794967,0
</coordinates>
</LineString>
</Placemark>

<Placemark>
<name>AVG_Ataturk_route_1 | Rota 1 | Adım 14 | Travel 87->88</name>
<styleUrl>#travel</styleUrl>
<LineString>
<tessellate>1</tessellate>
<coordinates>
27.1787047,38.3794967,0
27.1794692,38.379637,0
27.1795724,38.3796528,0
27.1796516,38.3796538,0
27.1796972,38.3796318,0
27.1798004,38.3796202,0
27.1798862,38.3796244,0
27.1800109,38.3796139,0
27.1802108,38.3795413,0
27.1803819,38.379518,0
</coordinates>
</LineString>
</Placemark>

<Placemark>
<name>AVG_Ataturk_route_1 | Rota 1 | Adım 14 | Servis Edge 110 (88->192)</name>
<styleUrl>#service</styleUrl>
<LineString>
<tessellate>1</tessellate>
<coordinates>
27.1803819,38.379518,0
27.1804297,38.3793658,0
</coordinates>
</LineString>
</Placemark>

<Placemark>
<name>AVG_Ataturk_route_1 | Rota 1 | Adım 15 | Travel 192->88</name>
<styleUrl>#travel</styleUrl>
<LineString>
<tessellate>1</tessellate>
<coordinates>
27.1804297,38.3793658,0
27.1803819,38.379518,0
</coordinates>
</LineString>
</Placemark>

<Placemark>
<name>AVG_Ataturk_route_1 | Rota 1 | Adım 15 | Servis Edge 100 (88->87)</name>
<styleUrl>#service</styleUrl>
<LineString>
<tessellate>1</tessellate>
<coordinates>
27.1803819,38.379518,0
27.1802108,38.3795413,0
27.1800109,38.3796139,0
27.1798862,38.3796244,0
27.1798004,38.3796202,0
27.1796972,38.3796318,0
27.1796516,38.3796538,0
27.1795724,38.3796528,0
27.1794692,38.379637,0
27.1787047,38.3794967,0
</coordinates>
</LineString>
</Placemark>

<Placemark>
<name>AVG_Ataturk_route_1 | Rota 1 | Adım 16 | Travel 87->88</name>
<styleUrl>#travel</styleUrl>
<LineString>
<tessellate>1</tessellate>
<coordinates>
27.1787047,38.3794967,0
27.1794692,38.379637,0
27.1795724,38.3796528,0
27.1796516,38.3796538,0
27.1796972,38.3796318,0
27.1798004,38.3796202,0
27.1798862,38.3796244,0
27.1800109,38.3796139,0
27.1802108,38.3795413,0
27.1803819,38.379518,0
</coordinates>
</LineString>
</Placemark>

<Placemark>
<name>AVG_Ataturk_route_1 | Rota 1 | Adım 16 | Travel 88->192</name>
<styleUrl>#travel</styleUrl>
<LineString>
<tessellate>1</tessellate>
<coordinates>
27.1803819,38.379518,0
27.1804297,38.3793658,0
</coordinates>
</LineString>
</Placemark>

<Placemark>
<name>AVG_Ataturk_route_1 | Rota 1 | Adım 16 | Travel 192->190</name>
<styleUrl>#travel</styleUrl>
<LineString>
<tessellate>1</tessellate>
<coordinates>
27.1804297,38.3793658,0
27.1804664,38.3791153,0
27.1805707,38.3787837,0
</coordinates>
</LineString>
</Placemark>

<Placemark>
<name>AVG_Ataturk_route_1 | Rota 1 | Adım 16 | Servis Edge 109 (190->191)</name>
<styleUrl>#service</styleUrl>
<LineString>
<tessellate>1</tessellate>
<coordinates>
27.1805707,38.3787837,0
27.1811502,38.3788952,0
</coordinates>
</LineString>
</Placemark>

<Placemark>
<name>AVG_Ataturk_route_1 | Rota 1 | Adım 17 | Travel 191->190</name>
<styleUrl>#travel</styleUrl>
<LineString>
<tessellate>1</tessellate>
<coordinates>
27.1811502,38.3788952,0
27.1805707,38.3787837,0
</coordinates>
</LineString>
</Placemark>

<Placemark>
<name>AVG_Ataturk_route_1 | Rota 1 | Adım 17 | Servis Edge 111 (190->192)</name>
<styleUrl>#service</styleUrl>
<LineString>
<tessellate>1</tessellate>
<coordinates>
27.1805707,38.3787837,0
27.1804664,38.3791153,0
27.1804297,38.3793658,0
</coordinates>
</LineString>
</Placemark>

<Placemark>
<name>AVG_Ataturk_route_1 | Rota 1 | Adım 18 | Servis Edge 112 (192->193)</name>
<styleUrl>#service</styleUrl>
<LineString>
<tessellate>1</tessellate>
<coordinates>
27.1804297,38.3793658,0
27.1806806,38.3794027,0
27.1811915,38.3794521,0
27.1816242,38.3794596,0
</coordinates>
</LineString>
</Placemark>

<Placemark>
<name>AVG_Ataturk_route_1 | Rota 1 | Adım 19 | Travel 193->192</name>
<styleUrl>#travel</styleUrl>
<LineString>
<tessellate>1</tessellate>
<coordinates>
27.1816242,38.3794596,0
27.1811915,38.3794521,0
27.1806806,38.3794027,0
27.1804297,38.3793658,0
</coordinates>
</LineString>
</Placemark>

<Placemark>
<name>AVG_Ataturk_route_1 | Rota 1 | Adım 19 | Travel 192->88</name>
<styleUrl>#travel</styleUrl>
<LineString>
<tessellate>1</tessellate>
<coordinates>
27.1804297,38.3793658,0
27.1803819,38.379518,0
</coordinates>
</LineString>
</Placemark>

<Placemark>
<name>AVG_Ataturk_route_1 | Rota 1 | Adım 19 | Travel 88->196</name>
<styleUrl>#travel</styleUrl>
<LineString>
<tessellate>1</tessellate>
<coordinates>
27.1803819,38.379518,0
27.1803746,38.3795565,0
27.1803861,38.3795746,0
27.1804768,38.3797007,0
27.1805635,38.3798189,0
27.1806461,38.3799445,0
27.1807113,38.3800543,0
</coordinates>
</LineString>
</Placemark>

<Placemark>
<name>AVG_Ataturk_route_1 | Rota 1 | Adım 19 | Servis Edge 114 (196->197)</name>
<styleUrl>#service</styleUrl>
<LineString>
<tessellate>1</tessellate>
<coordinates>
27.1798941,38.3804101,0
27.1802279,38.3802521,0
27.1807113,38.3800543,0
</coordinates>
</LineString>
</Placemark>

<Placemark>
<name>AVG_Ataturk_route_1 | Rota 1 | Adım 20 | Travel 197->196</name>
<styleUrl>#travel</styleUrl>
<LineString>
<tessellate>1</tessellate>
<coordinates>
27.1807113,38.3800543,0
27.1802279,38.3802521,0
27.1798941,38.3804101,0
</coordinates>
</LineString>
</Placemark>

<Placemark>
<name>AVG_Ataturk_route_1 | Rota 1 | Adım 20 | Servis Edge 116 (196->195)</name>
<styleUrl>#service</styleUrl>
<LineString>
<tessellate>1</tessellate>
<coordinates>
27.1807113,38.3800543,0
27.1811008,38.3806495,0
27.1811356,38.3806905,0
27.1811759,38.3807263,0
27.1812373,38.3807717,0
</coordinates>
</LineString>
</Placemark>

<Placemark>
<name>AVG_Ataturk_route_1 | Rota 1 | Adım 21 | Travel 195->196</name>
<styleUrl>#travel</styleUrl>
<LineString>
<tessellate>1</tessellate>
<coordinates>
27.1812373,38.3807717,0
27.1811759,38.3807263,0
27.1811356,38.3806905,0
27.1811008,38.3806495,0
27.1807113,38.3800543,0
</coordinates>
</LineString>
</Placemark>

<Placemark>
<name>AVG_Ataturk_route_1 | Rota 1 | Adım 21 | Travel 196->197</name>
<styleUrl>#travel</styleUrl>
<LineString>
<tessellate>1</tessellate>
<coordinates>
27.1798941,38.3804101,0
27.1802279,38.3802521,0
27.1807113,38.3800543,0
</coordinates>
</LineString>
</Placemark>

<Placemark>
<name>AVG_Ataturk_route_1 | Rota 1 | Adım 21 | Travel 197->62</name>
<styleUrl>#travel</styleUrl>
<LineString>
<tessellate>1</tessellate>
<coordinates>
27.1798941,38.3804101,0
27.1796162,38.3801708,0
27.1794591,38.38007,0
</coordinates>
</LineString>
</Placemark>

<Placemark>
<name>AVG_Ataturk_route_1 | Rota 1 | Adım 21 | Servis Edge 119 (62->76)</name>
<styleUrl>#service</styleUrl>
<LineString>
<tessellate>1</tessellate>
<coordinates>
27.1794591,38.3800711,0
27.1792449,38.3801287,0
27.179028,38.3802033,0
</coordinates>
</LineString>
</Placemark>

<Placemark>
<name>AVG_Ataturk_route_1 | Rota 1 | Adım 22 | Travel 76->80</name>
<styleUrl>#travel</styleUrl>
<LineString>
<tessellate>1</tessellate>
<coordinates>
27.179028,38.3802022,0
27.1786394,38.3803222,0
27.1785149,38.3803609,0
</coordinates>
</LineString>
</Placemark>

<Placemark>
<name>AVG_Ataturk_route_1 | Rota 1 | Adım 22 | Travel 80->79</name>
<styleUrl>#travel</styleUrl>
<LineString>
<tessellate>1</tessellate>
<coordinates>
27.1785149,38.3803609,0
27.1781836,38.3804682,0
27.1779029,38.3806187,0
</coordinates>
</LineString>
</Placemark>

<Placemark>
<name>AVG_Ataturk_route_1 | Rota 1 | Adım 22 | Servis Edge 133 (79->78)</name>
<styleUrl>#service</styleUrl>
<LineString>
<tessellate>1</tessellate>
<coordinates>
27.1779029,38.3806187,0
27.1780251,38.3808883,0
27.1781204,38.3811073,0
</coordinates>
</LineString>
</Placemark>

<Placemark>
<name>AVG_Ataturk_route_1 | Rota 1 | Adım 23 | Travel 78->79</name>
<styleUrl>#travel</styleUrl>
<LineString>
<tessellate>1</tessellate>
<coordinates>
27.1781204,38.3811073,0
27.1780251,38.3808883,0
27.1779029,38.3806187,0
</coordinates>
</LineString>
</Placemark>

<Placemark>
<name>AVG_Ataturk_route_1 | Rota 1 | Adım 23 | Servis Edge 143 (79->75)</name>
<styleUrl>#service</styleUrl>
<LineString>
<tessellate>1</tessellate>
<coordinates>
27.1773231,38.3810503,0
27.1773817,38.3809972,0
27.1774662,38.3809215,0
27.1775332,38.3808615,0
27.1776351,38.3807859,0
27.1777424,38.380728,0
27.1779029,38.3806187,0
</coordinates>
</LineString>
</Placemark>

<Placemark>
<name>AVG_Ataturk_route_1 | Rota 1 | Adım 24 | Travel 75->79</name>
<styleUrl>#travel</styleUrl>
<LineString>
<tessellate>1</tessellate>
<coordinates>
27.1779029,38.3806187,0
27.1777424,38.380728,0
27.1776351,38.3807859,0
27.1775332,38.3808615,0
27.1774662,38.3809215,0
27.1773817,38.3809972,0
27.1773231,38.3810503,0
</coordinates>
</LineString>
</Placemark>

<Placemark>
<name>AVG_Ataturk_route_1 | Rota 1 | Adım 24 | Travel 79->80</name>
<styleUrl>#travel</styleUrl>
<LineString>
<tessellate>1</tessellate>
<coordinates>
27.1779029,38.3806187,0
27.1781836,38.3804682,0
27.1785149,38.3803609,0
</coordinates>
</LineString>
</Placemark>

<Placemark>
<name>AVG_Ataturk_route_1 | Rota 1 | Adım 24 | Travel 80->76</name>
<styleUrl>#travel</styleUrl>
<LineString>
<tessellate>1</tessellate>
<coordinates>
27.1785149,38.3803609,0
27.1786394,38.3803222,0
27.179028,38.3802022,0
</coordinates>
</LineString>
</Placemark>

<Placemark>
<name>AVG_Ataturk_route_1 | Rota 1 | Adım 24 | Travel 76->62</name>
<styleUrl>#travel</styleUrl>
<LineString>
<tessellate>1</tessellate>
<coordinates>
27.179028,38.3802033,0
27.1792449,38.3801287,0
27.1794591,38.3800711,0
</coordinates>
</LineString>
</Placemark>

<Placemark>
<name>AVG_Ataturk_route_1 | Rota 1 | Adım 24 | Travel 62->197</name>
<styleUrl>#travel</styleUrl>
<LineString>
<tessellate>1</tessellate>
<coordinates>
27.1794591,38.38007,0
27.1796162,38.3801708,0
27.1798941,38.3804101,0
</coordinates>
</LineString>
</Placemark>

<Placemark>
<name>AVG_Ataturk_route_1 | Rota 1 | Adım 24 | Travel 197->198</name>
<styleUrl>#travel</styleUrl>
<LineString>
<tessellate>1</tessellate>
<coordinates>
27.180563,38.3809485,0
27.1798941,38.3804101,0
</coordinates>
</LineString>
</Placemark>

<Placemark>
<name>AVG_Ataturk_route_1 | Rota 1 | Adım 24 | Travel 198->199</name>
<styleUrl>#travel</styleUrl>
<LineString>
<tessellate>1</tessellate>
<coordinates>
27.180563,38.3809485,0
27.1806801,38.3809701,0
</coordinates>
</LineString>
</Placemark>

<Placemark>
<name>AVG_Ataturk_route_1 | Rota 1 | Adım 24 | Travel 199->195</name>
<styleUrl>#travel</styleUrl>
<LineString>
<tessellate>1</tessellate>
<coordinates>
27.1812373,38.3807717,0
27.1806801,38.3809701,0
</coordinates>
</LineString>
</Placemark>

<Placemark>
<name>AVG_Ataturk_route_1 | Rota 1 | Adım 24 | Servis Edge 148 (195->194)</name>
<styleUrl>#service</styleUrl>
<LineString>
<tessellate>1</tessellate>
<coordinates>
27.1821689,38.3804459,0
27.182046,38.3804999,0
27.1816929,38.3806384,0
27.1813405,38.3807422,0
27.1813218,38.3807487,0
27.1812373,38.3807717,0
</coordinates>
</LineString>
</Placemark>

<Placemark>
<name>AVG_Ataturk_route_1 | Rota 1 | Adım 25 | Servis Edge 149 (194->99)</name>
<styleUrl>#service</styleUrl>
<LineString>
<tessellate>1</tessellate>
<coordinates>
27.1821716,38.3804459,0
27.1824743,38.3802955,0
27.1826366,38.3802408,0
27.1827935,38.3801631,0
27.182874,38.3801284,0
27.1830174,38.3800411,0
27.1832146,38.3799065,0
27.1835498,38.3796962,0
27.1840405,38.3794268,0
</coordinates>
</LineString>
</Placemark>

<Placemark>
<name>AVG_Ataturk_route_1 | Rota 1 | Adım 26 | Servis Edge 151 (99->89)</name>
<styleUrl>#service</styleUrl>
<LineString>
<tessellate>1</tessellate>
<coordinates>
27.184977,38.3782523,0
27.1846378,38.3783757,0
27.1843039,38.378516,0
27.1837407,38.3787819,0
27.1836991,38.3788203,0
27.1836736,38.378865,0
27.1836743,38.3788997,0
27.1836937,38.3789344,0
27.1840378,38.3794268,0
</coordinates>
</LineString>
</Placemark>

<Placemark>
<name>AVG_Ataturk_route_1 | Rota 1 | Adım 27 | Servis Edge 153 (89->90)</name>
<styleUrl>#service</styleUrl>
<LineString>
<tessellate>1</tessellate>
<coordinates>
27.1846412,38.3777365,0
27.184977,38.3782523,0
</coordinates>
</LineString>
</Placemark>

<Placemark>
<name>AVG_Ataturk_route_1 | Rota 1 | Adım 28 | Travel 90->176</name>
<styleUrl>#travel</styleUrl>
<LineString>
<tessellate>1</tessellate>
<coordinates>
27.1846412,38.3777365,0
27.1842617,38.3771462,0
</coordinates>
</LineString>
</Placemark>

<Placemark>
<name>AVG_Ataturk_route_1 | Rota 1 | Adım 28 | Travel 176->177</name>
<styleUrl>#travel</styleUrl>
<LineString>
<tessellate>1</tessellate>
<coordinates>
27.1842617,38.3771462,0
27.1836374,38.3774307,0
</coordinates>
</LineString>
</Placemark>

<Placemark>
<name>AVG_Ataturk_route_1 | Rota 1 | Adım 28 | Travel 177->60</name>
<styleUrl>#travel</styleUrl>
<LineString>
<tessellate>1</tessellate>
<coordinates>
27.1836459,38.3774277,0
27.1833307,38.3775865,0
27.1831376,38.3776559,0
27.1829029,38.3777305,0
27.1827205,38.3777568,0
27.1825057,38.3777754,0
27.1819476,38.3777771,0
</coordinates>
</LineString>
</Placemark>

<Placemark>
<name>AVG_Ataturk_route_1 | Rota 1 | Adım 28 | Travel 60->61</name>
<styleUrl>#travel</styleUrl>
<LineString>
<tessellate>1</tessellate>
<coordinates>
27.1819476,38.3777771,0
27.1817739,38.3777723,0
27.181445,38.3779457,0
</coordinates>
</LineString>
</Placemark>

<Placemark>
<name>AVG_Ataturk_route_1 | Rota 1 | Adım 28 | Travel 61->182</name>
<styleUrl>#travel</styleUrl>
<LineString>
<tessellate>1</tessellate>
<coordinates>
27.181445,38.3779457,0
27.1813711,38.3778557,0
27.1813362,38.3778136,0
27.1809965,38.3773302,0
</coordinates>
</LineString>
</Placemark>

<Placemark>
<name>AVG_Ataturk_route_1 | Rota 1 | Adım 28 | Travel 182->183</name>
<styleUrl>#travel</styleUrl>
<LineString>
<tessellate>1</tessellate>
<coordinates>
27.1809965,38.3773302,0
27.1804646,38.3775673,0
</coordinates>
</LineString>
</Placemark>

<Placemark>
<name>AVG_Ataturk_route_1 | Rota 1 | Adım 28 | Travel 183->184</name>
<styleUrl>#travel</styleUrl>
<LineString>
<tessellate>1</tessellate>
<coordinates>
27.1804646,38.3775673,0
27.1800052,38.3773718,0
</coordinates>
</LineString>
</Placemark>

<Placemark>
<name>AVG_Ataturk_route_1 | Rota 1 | Adım 28 | Travel 184->109</name>
<styleUrl>#travel</styleUrl>
<LineString>
<tessellate>1</tessellate>
<coordinates>
27.1800052,38.3773718,0
27.1797891,38.3772825,0
27.1796248,38.3771684,0
27.1795959,38.377151,0
27.179545,38.3770769,0
27.1794967,38.377028,0
27.1793781,38.3769545,0
</coordinates>
</LineString>
</Placemark>

<Placemark>
<name>AVG_Ataturk_route_1 | Rota 1 | Adım 28 | Travel 109->107</name>
<styleUrl>#travel</styleUrl>
<LineString>
<tessellate>1</tessellate>
<coordinates>
27.1793781,38.3769545,0
27.1792328,38.3770029,0
</coordinates>
</LineString>
</Placemark>

<Placemark>
<name>AVG_Ataturk_route_1 | Rota 1 | Adım 28 | Travel 107->106</name>
<styleUrl>#travel</styleUrl>
<LineString>
<tessellate>1</tessellate>
<coordinates>
27.1792328,38.3770029,0
27.1791614,38.377028,0
27.1790892,38.3770494,0
27.1789383,38.3770827,0
27.1786403,38.3771531,0
27.1783037,38.3773181,0
</coordinates>
</LineString>
</Placemark>

<Placemark>
<name>AVG_Ataturk_route_1 | Rota 1 | Adım 28 | Travel 106->104</name>
<styleUrl>#travel</styleUrl>
<LineString>
<tessellate>1</tessellate>
<coordinates>
27.1783037,38.3773181,0
27.1780466,38.3773898,0
</coordinates>
</LineString>
</Placemark>

<Placemark>
<name>AVG_Ataturk_route_1 | Rota 1 | Adım 28 | Servis Edge 187 (104->103)</name>
<styleUrl>#service</styleUrl>
<LineString>
<tessellate>1</tessellate>
<coordinates>
27.1780466,38.3773898,0
27.1774509,38.3774726,0
</coordinates>
</LineString>
</Placemark>

<Placemark>
<name>AVG_Ataturk_route_1 | Rota 1 | Adım 29 | Travel 103->101</name>
<styleUrl>#travel</styleUrl>
<LineString>
<tessellate>1</tessellate>
<coordinates>
27.1774509,38.3774726,0
27.1773149,38.3774587,0
27.1772197,38.3774587,0
27.1766243,38.377505,0
27.1765867,38.3774997,0
27.1765325,38.3774757,0
</coordinates>
</LineString>
</Placemark>

<Placemark>
<name>AVG_Ataturk_route_1 | Rota 1 | Adım 29 | Travel 101->100</name>
<styleUrl>#travel</styleUrl>
<LineString>
<tessellate>1</tessellate>
<coordinates>
27.1765325,38.3774757,0
27.1762161,38.3776813,0
27.1761943,38.3777201,0
</coordinates>
</LineString>
</Placemark>

<Placemark>
<name>AVG_Ataturk_route_1 | Rota 1 | Adım 29 | Travel 100->71</name>
<styleUrl>#travel</styleUrl>
<LineString>
<tessellate>1</tessellate>
<coordinates>
27.1761943,38.3777201,0
27.1762972,38.3777752,0
27.1763317,38.3778065,0
27.176375,38.3778693,0
27.1765943,38.3782851,0
27.1767121,38.3784888,0
27.1768258,38.3786789,0
</coordinates>
</LineString>
</Placemark>

<Placemark>
<name>AVG_Ataturk_route_1 | Rota 1 | Adım 29 | Travel 71->73</name>
<styleUrl>#travel</styleUrl>
<LineString>
<tessellate>1</tessellate>
<coordinates>
27.1768891,38.3800305,0
27.1768258,38.3786789,0
</coordinates>
</LineString>
</Placemark>

<Placemark>
<name>AVG_Ataturk_route_1 | Rota 1 | Adım 29 | Servis Edge 156 (73->74)</name>
<styleUrl>#service</styleUrl>
<LineString>
<tessellate>1</tessellate>
<coordinates>
27.1768755,38.3807781,0
27.1768891,38.3800305,0
</coordinates>
</LineString>
</Placemark>

<Placemark>
<name>AVG_Ataturk_route_1 | Rota 1 | Adım 30 | Travel 74->73</name>
<styleUrl>#travel</styleUrl>
<LineString>
<tessellate>1</tessellate>
<coordinates>
27.1768891,38.3800305,0
27.1768755,38.3807781,0
</coordinates>
</LineString>
</Placemark>

<Placemark>
<name>AVG_Ataturk_route_1 | Rota 1 | Adım 30 | Travel 73->71</name>
<styleUrl>#travel</styleUrl>
<LineString>
<tessellate>1</tessellate>
<coordinates>
27.1768258,38.3786789,0
27.1768891,38.3800305,0
</coordinates>
</LineString>
</Placemark>

<Placemark>
<name>AVG_Ataturk_route_1 | Rota 1 | Adım 30 | Travel 71->100</name>
<styleUrl>#travel</styleUrl>
<LineString>
<tessellate>1</tessellate>
<coordinates>
27.1768258,38.3786789,0
27.1767121,38.3784888,0
27.1765943,38.3782851,0
27.176375,38.3778693,0
27.1763317,38.3778065,0
27.1762972,38.3777752,0
27.1761943,38.3777201,0
</coordinates>
</LineString>
</Placemark>

<Placemark>
<name>AVG_Ataturk_route_1 | Rota 1 | Adım 30 | Travel 100->101</name>
<styleUrl>#travel</styleUrl>
<LineString>
<tessellate>1</tessellate>
<coordinates>
27.1761943,38.3777201,0
27.1762161,38.3776813,0
27.1765325,38.3774757,0
</coordinates>
</LineString>
</Placemark>

<Placemark>
<name>AVG_Ataturk_route_1 | Rota 1 | Adım 30 | Travel 101->102</name>
<styleUrl>#travel</styleUrl>
<LineString>
<tessellate>1</tessellate>
<coordinates>
27.1765325,38.3774757,0
27.1766965,38.3773692,0
27.1770781,38.3771484,0
27.1772564,38.3770596,0
27.1774951,38.376936,0
27.177744,38.3767817,0
</coordinates>
</LineString>
</Placemark>

<Placemark>
<name>AVG_Ataturk_route_1 | Rota 1 | Adım 30 | Travel 102->105</name>
<styleUrl>#travel</styleUrl>
<LineString>
<tessellate>1</tessellate>
<coordinates>
27.177744,38.3767817,0
27.1778614,38.3767112,0
27.1780854,38.376585,0
27.1785201,38.3763189,0
</coordinates>
</LineString>
</Placemark>

<Placemark>
<name>AVG_Ataturk_route_1 | Rota 1 | Adım 30 | Travel 105->108</name>
<styleUrl>#travel</styleUrl>
<LineString>
<tessellate>1</tessellate>
<coordinates>
27.1785201,38.3763189,0
27.1788964,38.3761689,0
</coordinates>
</LineString>
</Placemark>

<Placemark>
<name>AVG_Ataturk_route_1 | Rota 1 | Adım 30 | Travel 108->67</name>
<styleUrl>#travel</styleUrl>
<LineString>
<tessellate>1</tessellate>
<coordinates>
27.1800611,38.3759386,0
27.1796766,38.3760134,0
27.1793065,38.3760954,0
27.1788964,38.3761689,0
</coordinates>
</LineString>
</Placemark>

<Placemark>
<name>AVG_Ataturk_route_1 | Rota 1 | Adım 30 | Travel 67->114</name>
<styleUrl>#travel</styleUrl>
<LineString>
<tessellate>1</tessellate>
<coordinates>
27.1800611,38.3759386,0
27.1805038,38.3758144,0
27.1816214,38.3752626,0
</coordinates>
</LineString>
</Placemark>

<Placemark>
<name>AVG_Ataturk_route_1 | Rota 1 | Adım 30 | Travel 114->116</name>
<styleUrl>#travel</styleUrl>
<LineString>
<tessellate>1</tessellate>
<coordinates>
27.1816214,38.3752626,0
27.1817831,38.3752117,0
27.1819515,38.3751693,0
</coordinates>
</LineString>
</Placemark>

<Placemark>
<name>AVG_Ataturk_route_1 | Rota 1 | Adım 30 | Travel 116->66</name>
<styleUrl>#travel</styleUrl>
<LineString>
<tessellate>1</tessellate>
<coordinates>
27.1819515,38.3751693,0
27.182031,38.3751574,0
27.1822368,38.3751253,0
27.1824668,38.3750481,0
27.1826901,38.3749619,0
27.1829867,38.3748465,0
</coordinates>
</LineString>
</Placemark>

<Placemark>
<name>AVG_Ataturk_route_1 | Rota 1 | Adım 30 | Travel 66->64</name>
<styleUrl>#travel</styleUrl>
<LineString>
<tessellate>1</tessellate>
<coordinates>
27.1829867,38.3748465,0
27.1832791,38.3747228,0
</coordinates>
</LineString>
</Placemark>

<Placemark>
<name>AVG_Ataturk_route_1 | Rota 1 | Adım 30 | Travel 64->65</name>
<styleUrl>#travel</styleUrl>
<LineString>
<tessellate>1</tessellate>
<coordinates>
27.1832791,38.3747228,0
27.1836504,38.3745702,0
</coordinates>
</LineString>
</Placemark>

<Placemark>
<name>AVG_Ataturk_route_1 | Rota 1 | Adım 30 | Servis Edge 166 (65->131)</name>
<styleUrl>#service</styleUrl>
<LineString>
<tessellate>1</tessellate>
<coordinates>
27.1836504,38.3745702,0
27.1842692,38.3743224,0
27.1848933,38.3740515,0
</coordinates>
</LineString>
</Placemark>

<Placemark>
<name>AVG_Ataturk_route_1 | Rota 1 | Adım 31 | Travel 131->130</name>
<styleUrl>#travel</styleUrl>
<LineString>
<tessellate>1</tessellate>
<coordinates>
27.1848933,38.3740515,0
27.1850366,38.3743537,0
</coordinates>
</LineString>
</Placemark>

<Placemark>
<name>AVG_Ataturk_route_1 | Rota 1 | Adım 31 | Travel 130->129</name>
<styleUrl>#travel</styleUrl>
<LineString>
<tessellate>1</tessellate>
<coordinates>
27.1850366,38.3743537,0
27.1850767,38.3744254,0
</coordinates>
</LineString>
</Placemark>

<Placemark>
<name>AVG_Ataturk_route_1 | Rota 1 | Adım 31 | Servis Edge 169 (129->127)</name>
<styleUrl>#service</styleUrl>
<LineString>
<tessellate>1</tessellate>
<coordinates>
27.1850767,38.3744254,0
27.1852462,38.3747743,0
</coordinates>
</LineString>
</Placemark>

<Placemark>
<name>AVG_Ataturk_route_1 | Rota 1 | Adım 32 | Travel 127->125</name>
<styleUrl>#travel</styleUrl>
<LineString>
<tessellate>1</tessellate>
<coordinates>
27.1852462,38.3747743,0
27.1854135,38.3752243,0
</coordinates>
</LineString>
</Placemark>

<Placemark>
<name>AVG_Ataturk_route_1 | Rota 1 | Adım 32 | Servis Edge 171 (125->171)</name>
<styleUrl>#service</styleUrl>
<LineString>
<tessellate>1</tessellate>
<coordinates>
27.1845354,38.3755058,0
27.1848705,38.3753518,0
27.185008,38.3753137,0
27.18512,38.3752814,0
27.1854135,38.3752243,0
</coordinates>
</LineString>
</Placemark>

<Placemark>
<name>AVG_Ataturk_route_1 | Rota 1 | Adım 33 | Travel 171->124</name>
<styleUrl>#travel</styleUrl>
<LineString>
<tessellate>1</tessellate>
<coordinates>
27.1841513,38.3751339,0
27.1843117,38.3752603,0
27.1844351,38.3754064,0
27.1845354,38.3755058,0
</coordinates>
</LineString>
</Placemark>

<Placemark>
<name>AVG_Ataturk_route_1 | Rota 1 | Adım 33 | Travel 124->123</name>
<styleUrl>#travel</styleUrl>
<LineString>
<tessellate>1</tessellate>
<coordinates>
27.1841513,38.3751339,0
27.1837199,38.3753039,0
</coordinates>
</LineString>
</Placemark>

<Placemark>
<name>AVG_Ataturk_route_1 | Rota 1 | Adım 33 | Travel 123->122</name>
<styleUrl>#travel</styleUrl>
<LineString>
<tessellate>1</tessellate>
<coordinates>
27.1837199,38.3753039,0
27.1834039,38.3754458,0
</coordinates>
</LineString>
</Placemark>

<Placemark>
<name>AVG_Ataturk_route_1 | Rota 1 | Adım 33 | Servis Edge 179 (122->120)</name>
<styleUrl>#service</styleUrl>
<LineString>
<tessellate>1</tessellate>
<coordinates>
27.1834039,38.3754458,0
27.1832498,38.375529,0
</coordinates>
</LineString>
</Placemark>

<Placemark>
<name>AVG_Ataturk_route_1 | Rota 1 | Adım 34 | Travel 120->122</name>
<styleUrl>#travel</styleUrl>
<LineString>
<tessellate>1</tessellate>
<coordinates>
27.1832498,38.375529,0
27.1834039,38.3754458,0
</coordinates>
</LineString>
</Placemark>

<Placemark>
<name>AVG_Ataturk_route_1 | Rota 1 | Adım 34 | Travel 122->123</name>
<styleUrl>#travel</styleUrl>
<LineString>
<tessellate>1</tessellate>
<coordinates>
27.1834039,38.3754458,0
27.1837199,38.3753039,0
</coordinates>
</LineString>
</Placemark>

<Placemark>
<name>AVG_Ataturk_route_1 | Rota 1 | Adım 34 | Servis Edge 181 (123->124)</name>
<styleUrl>#service</styleUrl>
<LineString>
<tessellate>1</tessellate>
<coordinates>
27.1837199,38.3753039,0
27.1841513,38.3751339,0
</coordinates>
</LineString>
</Placemark>

<Placemark>
<name>AVG_Ataturk_route_1 | Rota 1 | Adım 35 | Travel 124->123</name>
<styleUrl>#travel</styleUrl>
<LineString>
<tessellate>1</tessellate>
<coordinates>
27.1841513,38.3751339,0
27.1837199,38.3753039,0
</coordinates>
</LineString>
</Placemark>

<Placemark>
<name>AVG_Ataturk_route_1 | Rota 1 | Adım 35 | Travel 123->122</name>
<styleUrl>#travel</styleUrl>
<LineString>
<tessellate>1</tessellate>
<coordinates>
27.1837199,38.3753039,0
27.1834039,38.3754458,0
</coordinates>
</LineString>
</Placemark>

<Placemark>
<name>AVG_Ataturk_route_1 | Rota 1 | Adım 35 | Travel 122->120</name>
<styleUrl>#travel</styleUrl>
<LineString>
<tessellate>1</tessellate>
<coordinates>
27.1834039,38.3754458,0
27.1832498,38.375529,0
</coordinates>
</LineString>
</Placemark>

<Placemark>
<name>AVG_Ataturk_route_1 | Rota 1 | Adım 35 | Travel 120->119</name>
<styleUrl>#travel</styleUrl>
<LineString>
<tessellate>1</tessellate>
<coordinates>
27.1832498,38.375529,0
27.1834564,38.3757996,0
</coordinates>
</LineString>
</Placemark>

<Placemark>
<name>AVG_Ataturk_route_1 | Rota 1 | Adım 35 | Servis Edge 192 (119->118)</name>
<styleUrl>#service</styleUrl>
<LineString>
<tessellate>1</tessellate>
<coordinates>
27.1834564,38.3757996,0
27.1826687,38.3761425,0
</coordinates>
</LineString>
</Placemark>

<Placemark>
<name>AVG_Ataturk_route_1 | Rota 1 | Adım 36 | Travel 118->179</name>
<styleUrl>#travel</styleUrl>
<LineString>
<tessellate>1</tessellate>
<coordinates>
27.1826687,38.3761425,0
27.1829877,38.3765396,0
</coordinates>
</LineString>
</Placemark>

<Placemark>
<name>AVG_Ataturk_route_1 | Rota 1 | Adım 36 | Travel 179->178</name>
<styleUrl>#travel</styleUrl>
<LineString>
<tessellate>1</tessellate>
<coordinates>
27.1829877,38.3765396,0
27.1831954,38.3768456,0
</coordinates>
</LineString>
</Placemark>

<Placemark>
<name>AVG_Ataturk_route_1 | Rota 1 | Adım 36 | Travel 178->177</name>
<styleUrl>#travel</styleUrl>
<LineString>
<tessellate>1</tessellate>
<coordinates>
27.1831954,38.3768456,0
27.1834092,38.377144,0
27.1836374,38.3774307,0
</coordinates>
</LineString>
</Placemark>

<Placemark>
<name>AVG_Ataturk_route_1 | Rota 1 | Adım 36 | Servis Edge 197 (177->60)</name>
<styleUrl>#service</styleUrl>
<LineString>
<tessellate>1</tessellate>
<coordinates>
27.1836459,38.3774277,0
27.1833307,38.3775865,0
27.1831376,38.3776559,0
27.1829029,38.3777305,0
27.1827205,38.3777568,0
27.1825057,38.3777754,0
27.1819476,38.3777771,0
</coordinates>
</LineString>
</Placemark>

<Placemark>
<name>AVG_Ataturk_route_1 | Rota 1 | Adım 37 | Travel 60->180</name>
<styleUrl>#travel</styleUrl>
<LineString>
<tessellate>1</tessellate>
<coordinates>
27.1819476,38.3777771,0
27.18194,38.3776121,0
27.1816998,38.3769268,0
</coordinates>
</LineString>
</Placemark>

<Placemark>
<name>AVG_Ataturk_route_1 | Rota 1 | Adım 37 | Travel 180->181</name>
<styleUrl>#travel</styleUrl>
<LineString>
<tessellate>1</tessellate>
<coordinates>
27.1816998,38.3769268,0
27.1816922,38.3767725,0
</coordinates>
</LineString>
</Placemark>

<Placemark>
<name>AVG_Ataturk_route_1 | Rota 1 | Adım 37 | Travel 181->113</name>
<styleUrl>#travel</styleUrl>
<LineString>
<tessellate>1</tessellate>
<coordinates>
27.18184,38.3759827,0
27.1818392,38.3761313,0
27.1818281,38.3762098,0
27.1818344,38.3762936,0
27.1818222,38.376343,0
27.1817968,38.3765017,0
27.1816922,38.3767725,0
</coordinates>
</LineString>
</Placemark>

<Placemark>
<name>AVG_Ataturk_route_1 | Rota 1 | Adım 37 | Travel 113->114</name>
<styleUrl>#travel</styleUrl>
<LineString>
<tessellate>1</tessellate>
<coordinates>
27.1816214,38.3752626,0
27.1818694,38.375588,0
27.1818728,38.3756804,0
27.1818641,38.3757801,0
27.18184,38.3759827,0
</coordinates>
</LineString>
</Placemark>

<Placemark>
<name>AVG_Ataturk_route_1 | Rota 1 | Adım 37 | Travel 114->116</name>
<styleUrl>#travel</styleUrl>
<LineString>
<tessellate>1</tessellate>
<coordinates>
27.1816214,38.3752626,0
27.1817831,38.3752117,0
27.1819515,38.3751693,0
</coordinates>
</LineString>
</Placemark>

<Placemark>
<name>AVG_Ataturk_route_1 | Rota 1 | Adım 37 | Travel 116->66</name>
<styleUrl>#travel</styleUrl>
<LineString>
<tessellate>1</tessellate>
<coordinates>
27.1819515,38.3751693,0
27.182031,38.3751574,0
27.1822368,38.3751253,0
27.1824668,38.3750481,0
27.1826901,38.3749619,0
27.1829867,38.3748465,0
</coordinates>
</LineString>
</Placemark>

<Placemark>
<name>AVG_Ataturk_route_1 | Rota 1 | Adım 37 | Travel 66->64</name>
<styleUrl>#travel</styleUrl>
<LineString>
<tessellate>1</tessellate>
<coordinates>
27.1829867,38.3748465,0
27.1832791,38.3747228,0
</coordinates>
</LineString>
</Placemark>

<Placemark>
<name>AVG_Ataturk_route_1 | Rota 1 | Adım 37 | Travel 64->65</name>
<styleUrl>#travel</styleUrl>
<LineString>
<tessellate>1</tessellate>
<coordinates>
27.1832791,38.3747228,0
27.1836504,38.3745702,0
</coordinates>
</LineString>
</Placemark>

<Placemark>
<name>AVG_Ataturk_route_1 | Rota 1 | Adım 37 | Travel 65->131</name>
<styleUrl>#travel</styleUrl>
<LineString>
<tessellate>1</tessellate>
<coordinates>
27.1836504,38.3745702,0
27.1842692,38.3743224,0
27.1848933,38.3740515,0
</coordinates>
</LineString>
</Placemark>

<Placemark>
<name>AVG_Ataturk_route_1 | Rota 1 | Adım 37 | Travel 131->134</name>
<styleUrl>#travel</styleUrl>
<LineString>
<tessellate>1</tessellate>
<coordinates>
27.1848933,38.3740515,0
27.1851031,38.3739326,0
27.1856992,38.3735771,0
</coordinates>
</LineString>
</Placemark>

<Placemark>
<name>AVG_Ataturk_route_1 | Rota 1 | Adım 37 | Travel 134->136</name>
<styleUrl>#travel</styleUrl>
<LineString>
<tessellate>1</tessellate>
<coordinates>
27.1856992,38.3735771,0
27.1859902,38.373429,0
27.1862993,38.3733118,0
27.1864157,38.3732754,0
</coordinates>
</LineString>
</Placemark>

<Placemark>
<name>AVG_Ataturk_route_1 | Rota 1 | Adım 37 | Travel 136->63</name>
<styleUrl>#travel</styleUrl>
<LineString>
<tessellate>1</tessellate>
<coordinates>
27.1879149,38.3727503,0
27.1871787,38.3730318,0
27.1866309,38.3732177,0
27.1864157,38.3732754,0
</coordinates>
</LineString>
</Placemark>

<Placemark>
<name>AVG_Ataturk_route_1 | Rota 1 | Adım 37 | Servis Edge 208 (63->140)</name>
<styleUrl>#service</styleUrl>
<LineString>
<tessellate>1</tessellate>
<coordinates>
27.1879149,38.3727503,0
27.18847,38.3734944,0
</coordinates>
</LineString>
</Placemark>

<Placemark>
<name>AVG_Ataturk_route_1 | Rota 1 | Adım 38 | Travel 140->155</name>
<styleUrl>#travel</styleUrl>
<LineString>
<tessellate>1</tessellate>
<coordinates>
27.1884745,38.3734992,0
27.1885891,38.3736462,0
</coordinates>
</LineString>
</Placemark>

<Placemark>
<name>AVG_Ataturk_route_1 | Rota 1 | Adım 38 | Travel 155->142</name>
<styleUrl>#travel</styleUrl>
<LineString>
<tessellate>1</tessellate>
<coordinates>
27.18876,38.37385,0
27.1887614,38.3738374,0
27.1885891,38.3736462,0
</coordinates>
</LineString>
</Placemark>

<Placemark>
<name>AVG_Ataturk_route_1 | Rota 1 | Adım 38 | Servis Edge 209 (142->143)</name>
<styleUrl>#service</styleUrl>
<LineString>
<tessellate>1</tessellate>
<coordinates>
27.1890305,38.3741321,0
27.1887679,38.3738529,0
</coordinates>
</LineString>
</Placemark>

<Placemark>
<name>AVG_Ataturk_route_1 | Rota 1 | Adım RETURN | Travel 143->142</name>
<styleUrl>#travel</styleUrl>
<LineString>
<tessellate>1</tessellate>
<coordinates>
27.18903,38.37413,0
27.1888984,38.3739874,0
27.1888312,38.373914,0
27.18876,38.37385,0
</coordinates>
</LineString>
</Placemark>

<Placemark>
<name>AVG_Ataturk_route_1 | Rota 1 | Adım RETURN | Travel 142->155</name>
<styleUrl>#travel</styleUrl>
<LineString>
<tessellate>1</tessellate>
<coordinates>
27.1885891,38.3736462,0
27.1887614,38.3738374,0
27.18876,38.37385,0
</coordinates>
</LineString>
</Placemark>

<Placemark>
<name>AVG_Ataturk_route_1 | Rota 1 | Adım RETURN | Travel 155->140</name>
<styleUrl>#travel</styleUrl>
<LineString>
<tessellate>1</tessellate>
<coordinates>
27.1885891,38.3736462,0
27.1884745,38.3734992,0
</coordinates>
</LineString>
</Placemark>

<Placemark>
<name>AVG_Ataturk_route_1 | Rota 1 | Adım RETURN | Travel 140->63</name>
<styleUrl>#travel</styleUrl>
<LineString>
<tessellate>1</tessellate>
<coordinates>
27.1884745,38.3734992,0
27.18791,38.37275,0
</coordinates>
</LineString>
</Placemark>

<Placemark>
<name>AVG_Ataturk_route_1 | Rota 1 | Adım RETURN | Travel 63->241</name>
<styleUrl>#travel</styleUrl>
<LineString>
<tessellate>1</tessellate>
<coordinates>
27.1877363,38.3723453,0
27.18791,38.37275,0
</coordinates>
</LineString>
</Placemark>

<Placemark>
<name>AVG_Ataturk_route_1 | Rota 1 | Adım RETURN | Travel 241->242</name>
<styleUrl>#travel</styleUrl>
<LineString>
<tessellate>1</tessellate>
<coordinates>
27.1876637,38.3719601,0
27.1876604,38.3720423,0
27.1877363,38.3723453,0
</coordinates>
</LineString>
</Placemark>

<Placemark>
<name>AVG_Ataturk_route_1 | Rota 1 | Adım RETURN | Travel 242->243</name>
<styleUrl>#travel</styleUrl>
<LineString>
<tessellate>1</tessellate>
<coordinates>
27.1875887,38.3716946,0
27.1876637,38.3719601,0
</coordinates>
</LineString>
</Placemark>

<Placemark>
<name>AVG_Ataturk_route_1 | Rota 1 | Adım RETURN | Travel 243->328</name>
<styleUrl>#travel</styleUrl>
<LineString>
<tessellate>1</tessellate>
<coordinates>
27.1875887,38.3716946,0
27.1879074,38.3716308,0
</coordinates>
</LineString>
</Placemark>

<Placemark>
<name>AVG_Ataturk_route_1 | Rota 1 | Adım RETURN | Travel 328->244</name>
<styleUrl>#travel</styleUrl>
<LineString>
<tessellate>1</tessellate>
<coordinates>
27.1879074,38.3716308,0
27.1876882,38.3709725,0
</coordinates>
</LineString>
</Placemark>

<Placemark>
<name>AVG_Ataturk_route_1 | Rota 1 | Adım RETURN | Travel 244->245</name>
<styleUrl>#travel</styleUrl>
<LineString>
<tessellate>1</tessellate>
<coordinates>
27.1876882,38.3709725,0
27.1880015,38.370898,0
</coordinates>
</LineString>
</Placemark>

<Placemark>
<name>AVG_Ataturk_route_1 | Rota 1 | Adım RETURN | Travel 245->246</name>
<styleUrl>#travel</styleUrl>
<LineString>
<tessellate>1</tessellate>
<coordinates>
27.1880015,38.370898,0
27.1883022,38.3708236,0
</coordinates>
</LineString>
</Placemark>

<Placemark>
<name>AVG_Ataturk_route_1 | Rota 1 | Adım RETURN | Travel 246->247</name>
<styleUrl>#travel</styleUrl>
<LineString>
<tessellate>1</tessellate>
<coordinates>
27.1880545,38.3700672,0
27.1880797,38.3702481,0
27.1883022,38.3708236,0
</coordinates>
</LineString>
</Placemark>

<Placemark>
<name>AVG_Ataturk_route_1 | Rota 1 | Adım RETURN | Travel 247->248</name>
<styleUrl>#travel</styleUrl>
<LineString>
<tessellate>1</tessellate>
<coordinates>
27.1871977,38.3701313,0
27.1880545,38.3700672,0
</coordinates>
</LineString>
</Placemark>

<Placemark>
<name>AVG_Ataturk_route_1 | Rota 1 | Adım RETURN | Travel 248->249</name>
<styleUrl>#travel</styleUrl>
<LineString>
<tessellate>1</tessellate>
<coordinates>
27.1870867,38.3701333,0
27.1871977,38.3701313,0
</coordinates>
</LineString>
</Placemark>

<Placemark>
<name>AVG_Ataturk_route_1 | Rota 1 | Adım RETURN | Travel 249->336</name>
<styleUrl>#travel</styleUrl>
<LineString>
<tessellate>1</tessellate>
<coordinates>
27.1871026,38.3700424,0
27.1870867,38.3701333,0
</coordinates>
</LineString>
</Placemark>

<Placemark>
<name>AVG_Ataturk_route_1 | Rota 1 | Adım RETURN | Travel 336->403</name>
<styleUrl>#travel</styleUrl>
<LineString>
<tessellate>1</tessellate>
<coordinates>
27.1871026,38.3700424,0
27.1871381,38.3698517,0
27.187181,38.36951,0
27.187181,38.3691714,0
27.1872028,38.3688781,0
</coordinates>
</LineString>
</Placemark>

<Placemark>
<name>AVG_Ataturk_route_1 | Rota 1 | Adım RETURN | Travel 403->405</name>
<styleUrl>#travel</styleUrl>
<LineString>
<tessellate>1</tessellate>
<coordinates>
27.1872632,38.3679373,0
27.1872728,38.3682454,0
27.1872028,38.3688781,0
</coordinates>
</LineString>
</Placemark>

<Placemark>
<name>AVG_Ataturk_route_1 | Rota 1 | Adım RETURN | Travel 405->346</name>
<styleUrl>#travel</styleUrl>
<LineString>
<tessellate>1</tessellate>
<coordinates>
27.1870712,38.3677853,0
27.1870771,38.3678188,0
27.1871083,38.3678716,0
27.1871566,38.3679068,0
27.1872632,38.3679373,0
</coordinates>
</LineString>
</Placemark>

<Placemark>
<name>AVG_Ataturk_route_1 | Rota 1 | Adım RETURN | Travel 346->344</name>
<styleUrl>#travel</styleUrl>
<LineString>
<tessellate>1</tessellate>
<coordinates>
27.1870712,38.3677853,0
27.1854527,38.3677292,0
</coordinates>
</LineString>
</Placemark>

<Placemark>
<name>AVG_Ataturk_route_1 | Rota 1 | Adım RETURN | Travel 344->345</name>
<styleUrl>#travel</styleUrl>
<LineString>
<tessellate>1</tessellate>
<coordinates>
27.1855385,38.3672189,0
27.1854527,38.3677292,0
</coordinates>
</LineString>
</Placemark>

<Placemark>
<name>AVG_Ataturk_route_1 | Rota 1 | Adım RETURN | Travel 345->255</name>
<styleUrl>#travel</styleUrl>
<LineString>
<tessellate>1</tessellate>
<coordinates>
27.1855385,38.3672189,0
27.1850599,38.367196,0
27.18462,38.3671665,0
27.184166,38.3670711,0
</coordinates>
</LineString>
</Placemark>

<Placemark>
<name>AVG_Ataturk_route_1 | Rota 1 | Adım RETURN | Travel 255->201</name>
<styleUrl>#travel</styleUrl>
<LineString>
<tessellate>1</tessellate>
<coordinates>
27.184166,38.3670711,0
27.1838011,38.3669392,0
27.1837062,38.3669194,0
27.1836009,38.3666883,0
27.1833686,38.3663916,0
</coordinates>
</LineString>
</Placemark>

<Placemark>
<name>AVG_Ataturk_route_1 | Rota 1 | Adım RETURN | Travel 201->200</name>
<styleUrl>#travel</styleUrl>
<LineString>
<tessellate>1</tessellate>
<coordinates>
27.1833686,38.3663916,0
27.1828545,38.3667282,0
</coordinates>
</LineString>
</Placemark>

<Placemark>
<name>AVG_Ataturk_route_1 | Rota 1 | Adım RETURN | Travel 200->0</name>
<styleUrl>#travel</styleUrl>
<LineString>
<tessellate>1</tessellate>
<coordinates>
27.1828545,38.3667282,0
27.1824768,38.3664713,0
27.1823374,38.3664032,0
27.1821543,38.3663532,0
27.181878,38.3663359,0
27.1812279,38.3663616,0
27.1801155,38.3664494,0
</coordinates>
</LineString>
</Placemark>

</Document>
</kml>
