<?xml version="1.0" encoding="UTF-8"?>
<kml xmlns="http://www.opengis.net/kml/2.2">
<Document>
<name>AVG_Kurucesme_route_2 GA Rota Sonucu</name>

<Style id="service">
<LineStyle>
<color>ff0000ff</color>
<width>5</width>
</LineStyle>
</Style>

<Style id="travel">
<LineStyle>
<color>ffff0000</color>
<width>4</width>
</LineStyle>
</Style>

<Placemark>
<name>AVG_Kurucesme_route_2 | Rota 2 | Adım 1 | Travel 0->200</name>
<styleUrl>#travel</styleUrl>
<LineString>
<tessellate>1</tessellate>
<coordinates>
27.1801155,38.3664494,0
27.1812279,38.3663616,0
27.181878,38.3663359,0
27.1821543,38.3663532,0
27.1823374,38.3664032,0
27.1824768,38.3664713,0
27.1828545,38.3667282,0
</coordinates>
</LineString>
</Placemark>

<Placemark>
<name>AVG_Kurucesme_route_2 | Rota 2 | Adım 1 | Travel 200->201</name>
<styleUrl>#travel</styleUrl>
<LineString>
<tessellate>1</tessellate>
<coordinates>
27.1828545,38.3667282,0
27.1833686,38.3663916,0
</coordinates>
</LineString>
</Placemark>

<Placemark>
<name>AVG_Kurucesme_route_2 | Rota 2 | Adım 1 | Travel 201->202</name>
<styleUrl>#travel</styleUrl>
<LineString>
<tessellate>1</tessellate>
<coordinates>
27.1833686,38.3663916,0
27.1838429,38.3661625,0
27.1843344,38.3659796,0
27.1848245,38.3658087,0
27.1856034,38.3656394,0
</coordinates>
</LineString>
</Placemark>

<Placemark>
<name>AVG_Kurucesme_route_2 | Rota 2 | Adım 1 | Travel 202->203</name>
<styleUrl>#travel</styleUrl>
<LineString>
<tessellate>1</tessellate>
<coordinates>
27.1856034,38.3656394,0
27.1864646,38.3655608,0
</coordinates>
</LineString>
</Placemark>

<Placemark>
<name>AVG_Kurucesme_route_2 | Rota 2 | Adım 1 | Travel 203->204</name>
<styleUrl>#travel</styleUrl>
<LineString>
<tessellate>1</tessellate>
<coordinates>
27.1864646,38.3655608,0
27.1868489,38.3654689,0
27.1869951,38.365472,0
27.1872178,38.3654952,0
27.1876761,38.3655241,0
27.188246,38.3655343,0
27.1884365,38.3655548,0
27.1892787,38.3657875,0
27.1893474,38.3658169,0
27.1893786,38.3658461,0
27.189402,38.3658964,0
27.1896153,38.3659436,0
</coordinates>
</LineString>
</Placemark>

<Placemark>
<name>AVG_Kurucesme_route_2 | Rota 2 | Adım 1 | Travel 204->266</name>
<styleUrl>#travel</styleUrl>
<LineString>
<tessellate>1</tessellate>
<coordinates>
27.1896153,38.3659436,0
27.1898484,38.3660635,0
27.1900014,38.3661464,0
</coordinates>
</LineString>
</Placemark>

<Placemark>
<name>AVG_Kurucesme_route_2 | Rota 2 | Adım 1 | Travel 266->267</name>
<styleUrl>#travel</styleUrl>
<LineString>
<tessellate>1</tessellate>
<coordinates>
27.1900014,38.3661464,0
27.1902505,38.3663297,0
</coordinates>
</LineString>
</Placemark>

<Placemark>
<name>AVG_Kurucesme_route_2 | Rota 2 | Adım 1 | Travel 267->268</name>
<styleUrl>#travel</styleUrl>
<LineString>
<tessellate>1</tessellate>
<coordinates>
27.1902505,38.3663297,0
27.1905914,38.3661132,0
</coordinates>
</LineString>
</Placemark>

<Placemark>
<name>AVG_Kurucesme_route_2 | Rota 2 | Adım 1 | Travel 268->269</name>
<styleUrl>#travel</styleUrl>
<LineString>
<tessellate>1</tessellate>
<coordinates>
27.1905914,38.3661132,0
27.1908376,38.3663476,0
</coordinates>
</LineString>
</Placemark>

<Placemark>
<name>AVG_Kurucesme_route_2 | Rota 2 | Adım 1 | Travel 269->206</name>
<styleUrl>#travel</styleUrl>
<LineString>
<tessellate>1</tessellate>
<coordinates>
27.1912309,38.3662023,0
27.1910771,38.3662412,0
27.1908376,38.3663476,0
</coordinates>
</LineString>
</Placemark>

<Placemark>
<name>AVG_Kurucesme_route_2 | Rota 2 | Adım 1 | Travel 206->207</name>
<styleUrl>#travel</styleUrl>
<LineString>
<tessellate>1</tessellate>
<coordinates>
27.1912309,38.3662023,0
27.1913975,38.3661845,0
27.1919168,38.3661209,0
27.1921507,38.3660926,0
</coordinates>
</LineString>
</Placemark>

<Placemark>
<name>AVG_Kurucesme_route_2 | Rota 2 | Adım 1 | Travel 207->208</name>
<styleUrl>#travel</styleUrl>
<LineString>
<tessellate>1</tessellate>
<coordinates>
27.1921507,38.3660926,0
27.192271,38.3660735,0
27.192697,38.3659582,0
</coordinates>
</LineString>
</Placemark>

<Placemark>
<name>AVG_Kurucesme_route_2 | Rota 2 | Adım 1 | Travel 208->274</name>
<styleUrl>#travel</styleUrl>
<LineString>
<tessellate>1</tessellate>
<coordinates>
27.1927245,38.3662968,0
27.192697,38.3659582,0
</coordinates>
</LineString>
</Placemark>

<Placemark>
<name>AVG_Kurucesme_route_2 | Rota 2 | Adım 1 | Travel 274->275</name>
<styleUrl>#travel</styleUrl>
<LineString>
<tessellate>1</tessellate>
<coordinates>
27.1927245,38.3662968,0
27.1927604,38.3662805,0
27.192802,38.3662703,0
27.1928251,38.3662676,0
27.1928727,38.3662705,0
27.1929767,38.36629,0
27.1936615,38.3663151,0
27.1938314,38.3663362,0
</coordinates>
</LineString>
</Placemark>

<Placemark>
<name>AVG_Kurucesme_route_2 | Rota 2 | Adım 1 | Travel 275->276</name>
<styleUrl>#travel</styleUrl>
<LineString>
<tessellate>1</tessellate>
<coordinates>
27.1938314,38.3663362,0
27.1944094,38.3665459,0
</coordinates>
</LineString>
</Placemark>

<Placemark>
<name>AVG_Kurucesme_route_2 | Rota 2 | Adım 1 | Travel 276->362</name>
<styleUrl>#travel</styleUrl>
<LineString>
<tessellate>1</tessellate>
<coordinates>
27.1944016,38.3667041,0
27.1944094,38.3665459,0
</coordinates>
</LineString>
</Placemark>

<Placemark>
<name>AVG_Kurucesme_route_2 | Rota 2 | Adım 1 | Travel 362->363</name>
<styleUrl>#travel</styleUrl>
<LineString>
<tessellate>1</tessellate>
<coordinates>
27.1944016,38.3667041,0
27.1947001,38.3666816,0
27.1949096,38.3666688,0
27.1949985,38.3666759,0
</coordinates>
</LineString>
</Placemark>

<Placemark>
<name>AVG_Kurucesme_route_2 | Rota 2 | Adım 1 | Travel 363->373</name>
<styleUrl>#travel</styleUrl>
<LineString>
<tessellate>1</tessellate>
<coordinates>
27.1949985,38.3666759,0
27.195299,38.3667084,0
</coordinates>
</LineString>
</Placemark>

<Placemark>
<name>AVG_Kurucesme_route_2 | Rota 2 | Adım 1 | Travel 373->372</name>
<styleUrl>#travel</styleUrl>
<LineString>
<tessellate>1</tessellate>
<coordinates>
27.1958813,38.366736,0
27.1956218,38.3667419,0
27.195299,38.3667084,0
</coordinates>
</LineString>
</Placemark>

<Placemark>
<name>AVG_Kurucesme_route_2 | Rota 2 | Adım 1 | Servis Edge 545 (372->371)</name>
<styleUrl>#service</styleUrl>
<LineString>
<tessellate>1</tessellate>
<coordinates>
27.1961103,38.3669815,0
27.1958813,38.366736,0
</coordinates>
</LineString>
</Placemark>

<Placemark>
<name>AVG_Kurucesme_route_2 | Rota 2 | Adım 2 | Travel 371->370</name>
<styleUrl>#travel</styleUrl>
<LineString>
<tessellate>1</tessellate>
<coordinates>
27.196191,38.3664682,0
27.1961103,38.3669815,0
</coordinates>
</LineString>
</Placemark>

<Placemark>
<name>AVG_Kurucesme_route_2 | Rota 2 | Adım 2 | Travel 370->368</name>
<styleUrl>#travel</styleUrl>
<LineString>
<tessellate>1</tessellate>
<coordinates>
27.1962374,38.3660967,0
27.1962284,38.3662712,0
27.196191,38.3664682,0
</coordinates>
</LineString>
</Placemark>

<Placemark>
<name>AVG_Kurucesme_route_2 | Rota 2 | Adım 2 | Travel 368->284</name>
<styleUrl>#travel</styleUrl>
<LineString>
<tessellate>1</tessellate>
<coordinates>
27.196795,38.3661638,0
27.196546,38.366127,0
27.1962917,38.3661009,0
27.1962374,38.3660967,0
</coordinates>
</LineString>
</Placemark>

<Placemark>
<name>AVG_Kurucesme_route_2 | Rota 2 | Adım 2 | Travel 284->283</name>
<styleUrl>#travel</styleUrl>
<LineString>
<tessellate>1</tessellate>
<coordinates>
27.1968758,38.3658574,0
27.196795,38.3661638,0
</coordinates>
</LineString>
</Placemark>

<Placemark>
<name>AVG_Kurucesme_route_2 | Rota 2 | Adım 2 | Travel 283->212</name>
<styleUrl>#travel</styleUrl>
<LineString>
<tessellate>1</tessellate>
<coordinates>
27.1971064,38.3657318,0
27.1968758,38.3658574,0
</coordinates>
</LineString>
</Placemark>

<Placemark>
<name>AVG_Kurucesme_route_2 | Rota 2 | Adım 2 | Travel 212->213</name>
<styleUrl>#travel</styleUrl>
<LineString>
<tessellate>1</tessellate>
<coordinates>
27.1971064,38.3657318,0
27.1972598,38.3659067,0
</coordinates>
</LineString>
</Placemark>

<Placemark>
<name>AVG_Kurucesme_route_2 | Rota 2 | Adım 2 | Servis Edge 549 (213->214)</name>
<styleUrl>#service</styleUrl>
<LineString>
<tessellate>1</tessellate>
<coordinates>
27.1972598,38.3659067,0
27.1973664,38.3660444,0
27.1974764,38.3661527,0
27.1977595,38.3663889,0
</coordinates>
</LineString>
</Placemark>

<Placemark>
<name>AVG_Kurucesme_route_2 | Rota 2 | Adım 3 | Servis Edge 550 (214->215)</name>
<styleUrl>#service</styleUrl>
<LineString>
<tessellate>1</tessellate>
<coordinates>
27.1977595,38.3663889,0
27.1978765,38.3662897,0
27.1979231,38.3662389,0
27.1980115,38.3660801,0
27.1980766,38.3659352,0
</coordinates>
</LineString>
</Placemark>

<Placemark>
<name>AVG_Kurucesme_route_2 | Rota 2 | Adım 4 | Travel 215->214</name>
<styleUrl>#travel</styleUrl>
<LineString>
<tessellate>1</tessellate>
<coordinates>
27.1980766,38.3659352,0
27.1980115,38.3660801,0
27.1979231,38.3662389,0
27.1978765,38.3662897,0
27.1977595,38.3663889,0
</coordinates>
</LineString>
</Placemark>

<Placemark>
<name>AVG_Kurucesme_route_2 | Rota 2 | Adım 4 | Travel 214->216</name>
<styleUrl>#travel</styleUrl>
<LineString>
<tessellate>1</tessellate>
<coordinates>
27.1977595,38.3663889,0
27.197831,38.3664513,0
</coordinates>
</LineString>
</Placemark>

<Placemark>
<name>AVG_Kurucesme_route_2 | Rota 2 | Adım 4 | Travel 216->285</name>
<styleUrl>#travel</styleUrl>
<LineString>
<tessellate>1</tessellate>
<coordinates>
27.1975113,38.3667139,0
27.197831,38.3664513,0
</coordinates>
</LineString>
</Placemark>

<Placemark>
<name>AVG_Kurucesme_route_2 | Rota 2 | Adım 4 | Travel 285->286</name>
<styleUrl>#travel</styleUrl>
<LineString>
<tessellate>1</tessellate>
<coordinates>
27.1973929,38.3668142,0
27.1975113,38.3667139,0
</coordinates>
</LineString>
</Placemark>

<Placemark>
<name>AVG_Kurucesme_route_2 | Rota 2 | Adım 4 | Travel 286->287</name>
<styleUrl>#travel</styleUrl>
<LineString>
<tessellate>1</tessellate>
<coordinates>
27.1967558,38.3672805,0
27.1968517,38.3672911,0
27.1973929,38.3668142,0
</coordinates>
</LineString>
</Placemark>

<Placemark>
<name>AVG_Kurucesme_route_2 | Rota 2 | Adım 4 | Travel 287->288</name>
<styleUrl>#travel</styleUrl>
<LineString>
<tessellate>1</tessellate>
<coordinates>
27.1964923,38.3674799,0
27.1967558,38.3672805,0
</coordinates>
</LineString>
</Placemark>

<Placemark>
<name>AVG_Kurucesme_route_2 | Rota 2 | Adım 4 | Travel 288->289</name>
<styleUrl>#travel</styleUrl>
<LineString>
<tessellate>1</tessellate>
<coordinates>
27.1964923,38.3674799,0
27.1964481,38.3675717,0
27.1964399,38.3680122,0
</coordinates>
</LineString>
</Placemark>

<Placemark>
<name>AVG_Kurucesme_route_2 | Rota 2 | Adım 4 | Travel 289->217</name>
<styleUrl>#travel</styleUrl>
<LineString>
<tessellate>1</tessellate>
<coordinates>
27.1968124,38.3682279,0
27.1964399,38.3680122,0
</coordinates>
</LineString>
</Placemark>

<Placemark>
<name>AVG_Kurucesme_route_2 | Rota 2 | Adım 4 | Servis Edge 552 (217->216)</name>
<styleUrl>#service</styleUrl>
<LineString>
<tessellate>1</tessellate>
<coordinates>
27.197831,38.3664513,0
27.1982906,38.3668385,0
27.1980297,38.3670403,0
27.1977341,38.3672539,0
27.1973567,38.3675989,0
27.1968124,38.3682279,0
</coordinates>
</LineString>
</Placemark>

<Placemark>
<name>AVG_Kurucesme_route_2 | Rota 2 | Adım 5 | Travel 216->214</name>
<styleUrl>#travel</styleUrl>
<LineString>
<tessellate>1</tessellate>
<coordinates>
27.197831,38.3664513,0
27.1977595,38.3663889,0
</coordinates>
</LineString>
</Placemark>

<Placemark>
<name>AVG_Kurucesme_route_2 | Rota 2 | Adım 5 | Travel 214->213</name>
<styleUrl>#travel</styleUrl>
<LineString>
<tessellate>1</tessellate>
<coordinates>
27.1977595,38.3663889,0
27.1974764,38.3661527,0
27.1973664,38.3660444,0
27.1972598,38.3659067,0
</coordinates>
</LineString>
</Placemark>

<Placemark>
<name>AVG_Kurucesme_route_2 | Rota 2 | Adım 5 | Travel 213->212</name>
<styleUrl>#travel</styleUrl>
<LineString>
<tessellate>1</tessellate>
<coordinates>
27.1972598,38.3659067,0
27.1971064,38.3657318,0
</coordinates>
</LineString>
</Placemark>

<Placemark>
<name>AVG_Kurucesme_route_2 | Rota 2 | Adım 5 | Servis Edge 553 (212->211)</name>
<styleUrl>#service</styleUrl>
<LineString>
<tessellate>1</tessellate>
<coordinates>
27.1971574,38.3650571,0
27.1973011,38.3656373,0
27.1971064,38.3657318,0
</coordinates>
</LineString>
</Placemark>

<Placemark>
<name>AVG_Kurucesme_route_2 | Rota 2 | Adım 6 | Travel 211->210</name>
<styleUrl>#travel</styleUrl>
<LineString>
<tessellate>1</tessellate>
<coordinates>
27.1971574,38.3650571,0
27.1971608,38.3649256,0
27.1971333,38.3648115,0
27.1971226,38.3647942,0
27.1971078,38.3647742,0
27.197024,38.3647237,0
27.1969281,38.3647027,0
27.1966994,38.3646969,0
27.1964158,38.36472,0
27.1961328,38.3647763,0
27.1957922,38.3648888,0
27.1953193,38.365074,0
</coordinates>
</LineString>
</Placemark>

<Placemark>
<name>AVG_Kurucesme_route_2 | Rota 2 | Adım 6 | Travel 210->209</name>
<styleUrl>#travel</styleUrl>
<LineString>
<tessellate>1</tessellate>
<coordinates>
27.1953193,38.365074,0
27.194605,38.3653438,0
27.1942859,38.3654027,0
27.1941097,38.365419,0
</coordinates>
</LineString>
</Placemark>

<Placemark>
<name>AVG_Kurucesme_route_2 | Rota 2 | Adım 6 | Travel 209->208</name>
<styleUrl>#travel</styleUrl>
<LineString>
<tessellate>1</tessellate>
<coordinates>
27.1941097,38.365419,0
27.1938512,38.3654686,0
27.1936017,38.3656715,0
27.1934435,38.3656957,0
27.1929487,38.3658248,0
27.1928321,38.3658614,0
27.1927586,38.3658956,0
27.1927238,38.365919,0
27.1927036,38.3659442,0
27.192697,38.3659582,0
</coordinates>
</LineString>
</Placemark>

<Placemark>
<name>AVG_Kurucesme_route_2 | Rota 2 | Adım 6 | Travel 208->207</name>
<styleUrl>#travel</styleUrl>
<LineString>
<tessellate>1</tessellate>
<coordinates>
27.192697,38.3659582,0
27.192271,38.3660735,0
27.1921507,38.3660926,0
</coordinates>
</LineString>
</Placemark>

<Placemark>
<name>AVG_Kurucesme_route_2 | Rota 2 | Adım 6 | Travel 207->206</name>
<styleUrl>#travel</styleUrl>
<LineString>
<tessellate>1</tessellate>
<coordinates>
27.1921507,38.3660926,0
27.1919168,38.3661209,0
27.1913975,38.3661845,0
27.1912309,38.3662023,0
</coordinates>
</LineString>
</Placemark>

<Placemark>
<name>AVG_Kurucesme_route_2 | Rota 2 | Adım 6 | Travel 206->269</name>
<styleUrl>#travel</styleUrl>
<LineString>
<tessellate>1</tessellate>
<coordinates>
27.1908376,38.3663476,0
27.1910771,38.3662412,0
27.1912309,38.3662023,0
</coordinates>
</LineString>
</Placemark>

<Placemark>
<name>AVG_Kurucesme_route_2 | Rota 2 | Adım 6 | Travel 269->270</name>
<styleUrl>#travel</styleUrl>
<LineString>
<tessellate>1</tessellate>
<coordinates>
27.1908376,38.3663476,0
27.1909953,38.366501,0
27.1912595,38.3667144,0
27.191368,38.3667887,0
</coordinates>
</LineString>
</Placemark>

<Placemark>
<name>AVG_Kurucesme_route_2 | Rota 2 | Adım 6 | Travel 270->354</name>
<styleUrl>#travel</styleUrl>
<LineString>
<tessellate>1</tessellate>
<coordinates>
27.1910387,38.3670973,0
27.191368,38.3667887,0
</coordinates>
</LineString>
</Placemark>

<Placemark>
<name>AVG_Kurucesme_route_2 | Rota 2 | Adım 6 | Servis Edge 567 (354->353)</name>
<styleUrl>#service</styleUrl>
<LineString>
<tessellate>1</tessellate>
<coordinates>
27.1910387,38.3670973,0
27.1907235,38.3667934,0
</coordinates>
</LineString>
</Placemark>

<Placemark>
<name>AVG_Kurucesme_route_2 | Rota 2 | Adım 7 | Travel 353->354</name>
<styleUrl>#travel</styleUrl>
<LineString>
<tessellate>1</tessellate>
<coordinates>
27.1907235,38.3667934,0
27.1910387,38.3670973,0
</coordinates>
</LineString>
</Placemark>

<Placemark>
<name>AVG_Kurucesme_route_2 | Rota 2 | Adım 7 | Travel 354->355</name>
<styleUrl>#travel</styleUrl>
<LineString>
<tessellate>1</tessellate>
<coordinates>
27.1910387,38.3670973,0
27.1916049,38.3674365,0
</coordinates>
</LineString>
</Placemark>

<Placemark>
<name>AVG_Kurucesme_route_2 | Rota 2 | Adım 7 | Travel 355->356</name>
<styleUrl>#travel</styleUrl>
<LineString>
<tessellate>1</tessellate>
<coordinates>
27.1916049,38.3674365,0
27.1916764,38.3674992,0
</coordinates>
</LineString>
</Placemark>

<Placemark>
<name>AVG_Kurucesme_route_2 | Rota 2 | Adım 7 | Servis Edge 570 (356->412)</name>
<styleUrl>#service</styleUrl>
<LineString>
<tessellate>1</tessellate>
<coordinates>
27.1916764,38.3674992,0
27.1917382,38.3676511,0
27.1920718,38.3681356,0
</coordinates>
</LineString>
</Placemark>

<Placemark>
<name>AVG_Kurucesme_route_2 | Rota 2 | Adım 8 | Travel 412->356</name>
<styleUrl>#travel</styleUrl>
<LineString>
<tessellate>1</tessellate>
<coordinates>
27.1920718,38.3681356,0
27.1917382,38.3676511,0
27.1916764,38.3674992,0
</coordinates>
</LineString>
</Placemark>

<Placemark>
<name>AVG_Kurucesme_route_2 | Rota 2 | Adım 8 | Travel 356->355</name>
<styleUrl>#travel</styleUrl>
<LineString>
<tessellate>1</tessellate>
<coordinates>
27.1916764,38.3674992,0
27.1916049,38.3674365,0
</coordinates>
</LineString>
</Placemark>

<Placemark>
<name>AVG_Kurucesme_route_2 | Rota 2 | Adım 8 | Servis Edge 572 (355->410)</name>
<styleUrl>#service</styleUrl>
<LineString>
<tessellate>1</tessellate>
<coordinates>
27.1907697,38.3676959,0
27.1908686,38.3676716,0
27.1910825,38.3676035,0
27.1912301,38.3675656,0
27.1916049,38.3674365,0
</coordinates>
</LineString>
</Placemark>

<Placemark>
<name>AVG_Kurucesme_route_2 | Rota 2 | Adım 9 | Travel 410->355</name>
<styleUrl>#travel</styleUrl>
<LineString>
<tessellate>1</tessellate>
<coordinates>
27.1916049,38.3674365,0
27.1912301,38.3675656,0
27.1910825,38.3676035,0
27.1908686,38.3676716,0
27.1907697,38.3676959,0
</coordinates>
</LineString>
</Placemark>

<Placemark>
<name>AVG_Kurucesme_route_2 | Rota 2 | Adım 9 | Travel 355->356</name>
<styleUrl>#travel</styleUrl>
<LineString>
<tessellate>1</tessellate>
<coordinates>
27.1916049,38.3674365,0
27.1916764,38.3674992,0
</coordinates>
</LineString>
</Placemark>

<Placemark>
<name>AVG_Kurucesme_route_2 | Rota 2 | Adım 9 | Travel 356->412</name>
<styleUrl>#travel</styleUrl>
<LineString>
<tessellate>1</tessellate>
<coordinates>
27.1916764,38.3674992,0
27.1917382,38.3676511,0
27.1920718,38.3681356,0
</coordinates>
</LineString>
</Placemark>

<Placemark>
<name>AVG_Kurucesme_route_2 | Rota 2 | Adım 9 | Travel 412->413</name>
<styleUrl>#travel</styleUrl>
<LineString>
<tessellate>1</tessellate>
<coordinates>
27.1920718,38.3681356,0
27.1921633,38.3683595,0
</coordinates>
</LineString>
</Placemark>

<Placemark>
<name>AVG_Kurucesme_route_2 | Rota 2 | Adım 9 | Travel 413->425</name>
<styleUrl>#travel</styleUrl>
<LineString>
<tessellate>1</tessellate>
<coordinates>
27.1921633,38.3683595,0
27.1924449,38.3686765,0
27.1925811,38.3688718,0
</coordinates>
</LineString>
</Placemark>

<Placemark>
<name>AVG_Kurucesme_route_2 | Rota 2 | Adım 9 | Travel 425->418</name>
<styleUrl>#travel</styleUrl>
<LineString>
<tessellate>1</tessellate>
<coordinates>
27.1926278,38.3690486,0
27.1925811,38.3688718,0
</coordinates>
</LineString>
</Placemark>

<Placemark>
<name>AVG_Kurucesme_route_2 | Rota 2 | Adım 9 | Travel 418->419</name>
<styleUrl>#travel</styleUrl>
<LineString>
<tessellate>1</tessellate>
<coordinates>
27.1926278,38.3690486,0
27.1926499,38.3691633,0
</coordinates>
</LineString>
</Placemark>

<Placemark>
<name>AVG_Kurucesme_route_2 | Rota 2 | Adım 9 | Travel 419->435</name>
<styleUrl>#travel</styleUrl>
<LineString>
<tessellate>1</tessellate>
<coordinates>
27.1926499,38.3691633,0
27.1927099,38.3693638,0
27.1927709,38.3695294,0
27.1927897,38.3695636,0
27.1928044,38.3695956,0
27.1928664,38.3698356,0
</coordinates>
</LineString>
</Placemark>

<Placemark>
<name>AVG_Kurucesme_route_2 | Rota 2 | Adım 9 | Travel 435->380</name>
<styleUrl>#travel</styleUrl>
<LineString>
<tessellate>1</tessellate>
<coordinates>
27.1928665,38.3698343,0
27.1931849,38.3698567,0
27.1932836,38.3698895,0
</coordinates>
</LineString>
</Placemark>

<Placemark>
<name>AVG_Kurucesme_route_2 | Rota 2 | Adım 9 | Travel 380->294</name>
<styleUrl>#travel</styleUrl>
<LineString>
<tessellate>1</tessellate>
<coordinates>
27.1932836,38.3698895,0
27.1934951,38.3699413,0
27.1941147,38.3700212,0
</coordinates>
</LineString>
</Placemark>

<Placemark>
<name>AVG_Kurucesme_route_2 | Rota 2 | Adım 9 | Travel 294->220</name>
<styleUrl>#travel</styleUrl>
<LineString>
<tessellate>1</tessellate>
<coordinates>
27.1941147,38.3700212,0
27.1950317,38.3702754,0
27.1953421,38.3703227,0
27.1953673,38.3703091,0
27.1953891,38.3702983,0
27.1954149,38.3702872,0
</coordinates>
</LineString>
</Placemark>

<Placemark>
<name>AVG_Kurucesme_route_2 | Rota 2 | Adım 9 | Travel 220->221</name>
<styleUrl>#travel</styleUrl>
<LineString>
<tessellate>1</tessellate>
<coordinates>
27.1954149,38.3702872,0
27.1954876,38.3702755,0
27.1955513,38.370286,0
27.1955711,38.3702923,0
27.1956036,38.3703083,0
27.1956345,38.3703338,0
27.1956687,38.3703806,0
27.1956729,38.3704439,0
27.1956615,38.3704793,0
27.19564,38.3705085,0
27.1956172,38.3705301,0
27.195564,38.3705649,0
</coordinates>
</LineString>
</Placemark>

<Placemark>
<name>AVG_Kurucesme_route_2 | Rota 2 | Adım 9 | Travel 221->222</name>
<styleUrl>#travel</styleUrl>
<LineString>
<tessellate>1</tessellate>
<coordinates>
27.195564,38.3705649,0
27.1955399,38.3705659,0
27.1955154,38.3705698,0
27.1954899,38.3705698,0
27.1954644,38.3705698,0
27.1954158,38.3705593,0
27.1953927,38.3705525,0
27.1953645,38.3705341,0
27.1953474,38.3705235,0
27.1953317,38.3705096,0
27.1953142,38.3704875,0
27.1953047,38.3704635,0
</coordinates>
</LineString>
</Placemark>

<Placemark>
<name>AVG_Kurucesme_route_2 | Rota 2 | Adım 9 | Travel 222->295</name>
<styleUrl>#travel</styleUrl>
<LineString>
<tessellate>1</tessellate>
<coordinates>
27.1940939,38.3700976,0
27.1952926,38.3704221,0
27.1953047,38.3704635,0
</coordinates>
</LineString>
</Placemark>

<Placemark>
<name>AVG_Kurucesme_route_2 | Rota 2 | Adım 9 | Travel 295->296</name>
<styleUrl>#travel</styleUrl>
<LineString>
<tessellate>1</tessellate>
<coordinates>
27.1940191,38.3703876,0
27.1940939,38.3700976,0
</coordinates>
</LineString>
</Placemark>

<Placemark>
<name>AVG_Kurucesme_route_2 | Rota 2 | Adım 9 | Travel 296->297</name>
<styleUrl>#travel</styleUrl>
<LineString>
<tessellate>1</tessellate>
<coordinates>
27.1937698,38.3708804,0
27.1940191,38.3703876,0
</coordinates>
</LineString>
</Placemark>

<Placemark>
<name>AVG_Kurucesme_route_2 | Rota 2 | Adım 9 | Travel 297->433</name>
<styleUrl>#travel</styleUrl>
<LineString>
<tessellate>1</tessellate>
<coordinates>
27.1935796,38.3713,0
27.1937698,38.3708804,0
</coordinates>
</LineString>
</Placemark>

<Placemark>
<name>AVG_Kurucesme_route_2 | Rota 2 | Adım 9 | Travel 433->432</name>
<styleUrl>#travel</styleUrl>
<LineString>
<tessellate>1</tessellate>
<coordinates>
27.1935796,38.3713,0
27.1934038,38.3712677,0
</coordinates>
</LineString>
</Placemark>

<Placemark>
<name>AVG_Kurucesme_route_2 | Rota 2 | Adım 9 | Travel 432->431</name>
<styleUrl>#travel</styleUrl>
<LineString>
<tessellate>1</tessellate>
<coordinates>
27.1934038,38.3712677,0
27.1932693,38.3714909,0
</coordinates>
</LineString>
</Placemark>

<Placemark>
<name>AVG_Kurucesme_route_2 | Rota 2 | Adım 9 | Travel 431->387</name>
<styleUrl>#travel</styleUrl>
<LineString>
<tessellate>1</tessellate>
<coordinates>
27.1932693,38.3714909,0
27.1931707,38.3716679,0
27.1931398,38.3717015,0
27.1930406,38.3717709,0
27.1929382,38.3718764,0
</coordinates>
</LineString>
</Placemark>

<Placemark>
<name>AVG_Kurucesme_route_2 | Rota 2 | Adım 9 | Travel 387->388</name>
<styleUrl>#travel</styleUrl>
<LineString>
<tessellate>1</tessellate>
<coordinates>
27.1917686,38.3716146,0
27.1919534,38.3716625,0
27.1922833,38.3717303,0
27.192569,38.3718191,0
27.1929382,38.3718764,0
</coordinates>
</LineString>
</Placemark>

<Placemark>
<name>AVG_Kurucesme_route_2 | Rota 2 | Adım 9 | Travel 388->389</name>
<styleUrl>#travel</styleUrl>
<LineString>
<tessellate>1</tessellate>
<coordinates>
27.1916525,38.3716274,0
27.1917686,38.3716146,0
</coordinates>
</LineString>
</Placemark>

<Placemark>
<name>AVG_Kurucesme_route_2 | Rota 2 | Adım 9 | Travel 389->396</name>
<styleUrl>#travel</styleUrl>
<LineString>
<tessellate>1</tessellate>
<coordinates>
27.1905215,38.3717006,0
27.1912415,38.3716695,0
27.1916525,38.3716274,0
</coordinates>
</LineString>
</Placemark>

<Placemark>
<name>AVG_Kurucesme_route_2 | Rota 2 | Adım 9 | Servis Edge 595 (396->322)</name>
<styleUrl>#service</styleUrl>
<LineString>
<tessellate>1</tessellate>
<coordinates>
27.1905215,38.3717006,0
27.190119,38.3717152,0
</coordinates>
</LineString>
</Placemark>

<Placemark>
<name>AVG_Kurucesme_route_2 | Rota 2 | Adım 10 | Travel 322->321</name>
<styleUrl>#travel</styleUrl>
<LineString>
<tessellate>1</tessellate>
<coordinates>
27.1901273,38.371978,0
27.190119,38.3717152,0
</coordinates>
</LineString>
</Placemark>

<Placemark>
<name>AVG_Kurucesme_route_2 | Rota 2 | Adım 10 | Servis Edge 597 (321->240)</name>
<styleUrl>#service</styleUrl>
<LineString>
<tessellate>1</tessellate>
<coordinates>
27.1901273,38.371978,0
27.1888286,38.3721456,0
27.1885311,38.3721526,0
</coordinates>
</LineString>
</Placemark>

<Placemark>
<name>AVG_Kurucesme_route_2 | Rota 2 | Adım 11 | Travel 240->239</name>
<styleUrl>#travel</styleUrl>
<LineString>
<tessellate>1</tessellate>
<coordinates>
27.1885311,38.3721526,0
27.1886211,38.3726431,0
</coordinates>
</LineString>
</Placemark>

<Placemark>
<name>AVG_Kurucesme_route_2 | Rota 2 | Adım 11 | Servis Edge 603 (239->319)</name>
<styleUrl>#service</styleUrl>
<LineString>
<tessellate>1</tessellate>
<coordinates>
27.1886211,38.3726431,0
27.1894308,38.3725928,0
27.1898988,38.3725508,0
27.1901952,38.3725082,0
27.1904724,38.3724412,0
</coordinates>
</LineString>
</Placemark>

<Placemark>
<name>AVG_Kurucesme_route_2 | Rota 2 | Adım 12 | Travel 319->318</name>
<styleUrl>#travel</styleUrl>
<LineString>
<tessellate>1</tessellate>
<coordinates>
27.1907788,38.3723874,0
27.1904724,38.3724412,0
</coordinates>
</LineString>
</Placemark>

<Placemark>
<name>AVG_Kurucesme_route_2 | Rota 2 | Adım 12 | Travel 318->392</name>
<styleUrl>#travel</styleUrl>
<LineString>
<tessellate>1</tessellate>
<coordinates>
27.1907788,38.3723874,0
27.1911572,38.3722752,0
</coordinates>
</LineString>
</Placemark>

<Placemark>
<name>AVG_Kurucesme_route_2 | Rota 2 | Adım 12 | Travel 392->391</name>
<styleUrl>#travel</styleUrl>
<LineString>
<tessellate>1</tessellate>
<coordinates>
27.1916028,38.3721771,0
27.1911572,38.3722752,0
</coordinates>
</LineString>
</Placemark>

<Placemark>
<name>AVG_Kurucesme_route_2 | Rota 2 | Adım 12 | Travel 391->390</name>
<styleUrl>#travel</styleUrl>
<LineString>
<tessellate>1</tessellate>
<coordinates>
27.1916209,38.371862,0
27.1916028,38.3721771,0
</coordinates>
</LineString>
</Placemark>

<Placemark>
<name>AVG_Kurucesme_route_2 | Rota 2 | Adım 12 | Travel 390->389</name>
<styleUrl>#travel</styleUrl>
<LineString>
<tessellate>1</tessellate>
<coordinates>
27.1916525,38.3716274,0
27.1916209,38.371862,0
</coordinates>
</LineString>
</Placemark>

<Placemark>
<name>AVG_Kurucesme_route_2 | Rota 2 | Adım 12 | Travel 389->388</name>
<styleUrl>#travel</styleUrl>
<LineString>
<tessellate>1</tessellate>
<coordinates>
27.1917686,38.3716146,0
27.1916525,38.3716274,0
</coordinates>
</LineString>
</Placemark>

<Placemark>
<name>AVG_Kurucesme_route_2 | Rota 2 | Adım 12 | Servis Edge 608 (388->387)</name>
<styleUrl>#service</styleUrl>
<LineString>
<tessellate>1</tessellate>
<coordinates>
27.1929382,38.3718764,0
27.192569,38.3718191,0
27.1922833,38.3717303,0
27.1919534,38.3716625,0
27.1917686,38.3716146,0
</coordinates>
</LineString>
</Placemark>

<Placemark>
<name>AVG_Kurucesme_route_2 | Rota 2 | Adım 13 | Travel 387->304</name>
<styleUrl>#travel</styleUrl>
<LineString>
<tessellate>1</tessellate>
<coordinates>
27.1930836,38.3722019,0
27.1929382,38.3718764,0
</coordinates>
</LineString>
</Placemark>

<Placemark>
<name>AVG_Kurucesme_route_2 | Rota 2 | Adım 13 | Travel 304->305</name>
<styleUrl>#travel</styleUrl>
<LineString>
<tessellate>1</tessellate>
<coordinates>
27.1923723,38.3721617,0
27.1930836,38.3722019,0
</coordinates>
</LineString>
</Placemark>

<Placemark>
<name>AVG_Kurucesme_route_2 | Rota 2 | Adım 13 | Travel 305->306</name>
<styleUrl>#travel</styleUrl>
<LineString>
<tessellate>1</tessellate>
<coordinates>
27.1923756,38.3728102,0
27.1924172,38.3727639,0
27.1924119,38.3726451,0
27.1924132,38.3725851,0
27.1923723,38.3721617,0
</coordinates>
</LineString>
</Placemark>

<Placemark>
<name>AVG_Kurucesme_route_2 | Rota 2 | Adım 13 | Travel 306->307</name>
<styleUrl>#travel</styleUrl>
<LineString>
<tessellate>1</tessellate>
<coordinates>
27.1921549,38.3730764,0
27.1922973,38.3729572,0
27.1923756,38.3728102,0
</coordinates>
</LineString>
</Placemark>

<Placemark>
<name>AVG_Kurucesme_route_2 | Rota 2 | Adım 13 | Travel 307->308</name>
<styleUrl>#travel</styleUrl>
<LineString>
<tessellate>1</tessellate>
<coordinates>
27.191646,38.373526,0
27.1919763,38.3735224,0
27.1920025,38.3735145,0
27.19203,38.3734961,0
27.1920488,38.3734645,0
27.1920501,38.3733113,0
27.1920528,38.3732879,0
27.192086,38.3732014,0
27.1921549,38.3730764,0
</coordinates>
</LineString>
</Placemark>

<Placemark>
<name>AVG_Kurucesme_route_2 | Rota 2 | Adım 13 | Travel 308->309</name>
<styleUrl>#travel</styleUrl>
<LineString>
<tessellate>1</tessellate>
<coordinates>
27.1916225,38.3742708,0
27.1916079,38.3741863,0
27.1916039,38.3740565,0
27.191646,38.373526,0
</coordinates>
</LineString>
</Placemark>

<Placemark>
<name>AVG_Kurucesme_route_2 | Rota 2 | Adım 13 | Travel 309->395</name>
<styleUrl>#travel</styleUrl>
<LineString>
<tessellate>1</tessellate>
<coordinates>
27.1916225,38.3742708,0
27.1910047,38.3743078,0
</coordinates>
</LineString>
</Placemark>

<Placemark>
<name>AVG_Kurucesme_route_2 | Rota 2 | Adım 13 | Travel 395->231</name>
<styleUrl>#travel</styleUrl>
<LineString>
<tessellate>1</tessellate>
<coordinates>
27.1919134,38.3754144,0
27.1917791,38.3752975,0
27.1913885,38.3749264,0
27.1912372,38.3747316,0
27.1910755,38.3744784,0
27.1910047,38.3743078,0
</coordinates>
</LineString>
</Placemark>

<Placemark>
<name>AVG_Kurucesme_route_2 | Rota 2 | Adım 13 | Servis Edge 611 (231->230)</name>
<styleUrl>#service</styleUrl>
<LineString>
<tessellate>1</tessellate>
<coordinates>
27.1919134,38.3754144,0
27.1921118,38.3751886,0
</coordinates>
</LineString>
</Placemark>

<Placemark>
<name>AVG_Kurucesme_route_2 | Rota 2 | Adım 14 | Travel 230->229</name>
<styleUrl>#travel</styleUrl>
<LineString>
<tessellate>1</tessellate>
<coordinates>
27.1921118,38.3751886,0
27.1924182,38.3748001,0
</coordinates>
</LineString>
</Placemark>

<Placemark>
<name>AVG_Kurucesme_route_2 | Rota 2 | Adım 14 | Servis Edge 613 (229->228)</name>
<styleUrl>#service</styleUrl>
<LineString>
<tessellate>1</tessellate>
<coordinates>
27.1924182,38.3748001,0
27.1926993,38.3744204,0
</coordinates>
</LineString>
</Placemark>

<Placemark>
<name>AVG_Kurucesme_route_2 | Rota 2 | Adım 15 | Travel 228->309</name>
<styleUrl>#travel</styleUrl>
<LineString>
<tessellate>1</tessellate>
<coordinates>
27.1916225,38.3742708,0
27.1920201,38.3743167,0
27.1926993,38.3744204,0
</coordinates>
</LineString>
</Placemark>

<Placemark>
<name>AVG_Kurucesme_route_2 | Rota 2 | Adım 15 | Travel 309->308</name>
<styleUrl>#travel</styleUrl>
<LineString>
<tessellate>1</tessellate>
<coordinates>
27.191646,38.373526,0
27.1916039,38.3740565,0
27.1916079,38.3741863,0
27.1916225,38.3742708,0
</coordinates>
</LineString>
</Placemark>

<Placemark>
<name>AVG_Kurucesme_route_2 | Rota 2 | Adım 15 | Servis Edge 615 (308->307)</name>
<styleUrl>#service</styleUrl>
<LineString>
<tessellate>1</tessellate>
<coordinates>
27.1921549,38.3730764,0
27.192086,38.3732014,0
27.1920528,38.3732879,0
27.1920501,38.3733113,0
27.1920488,38.3734645,0
27.19203,38.3734961,0
27.1920025,38.3735145,0
27.1919763,38.3735224,0
27.191646,38.373526,0
</coordinates>
</LineString>
</Placemark>

<Placemark>
<name>AVG_Kurucesme_route_2 | Rota 2 | Adım 16 | Travel 307->308</name>
<styleUrl>#travel</styleUrl>
<LineString>
<tessellate>1</tessellate>
<coordinates>
27.191646,38.373526,0
27.1919763,38.3735224,0
27.1920025,38.3735145,0
27.19203,38.3734961,0
27.1920488,38.3734645,0
27.1920501,38.3733113,0
27.1920528,38.3732879,0
27.192086,38.3732014,0
27.1921549,38.3730764,0
</coordinates>
</LineString>
</Placemark>

<Placemark>
<name>AVG_Kurucesme_route_2 | Rota 2 | Adım 16 | Travel 308->309</name>
<styleUrl>#travel</styleUrl>
<LineString>
<tessellate>1</tessellate>
<coordinates>
27.1916225,38.3742708,0
27.1916079,38.3741863,0
27.1916039,38.3740565,0
27.191646,38.373526,0
</coordinates>
</LineString>
</Placemark>

<Placemark>
<name>AVG_Kurucesme_route_2 | Rota 2 | Adım 16 | Travel 309->228</name>
<styleUrl>#travel</styleUrl>
<LineString>
<tessellate>1</tessellate>
<coordinates>
27.1926993,38.3744204,0
27.1920201,38.3743167,0
27.1916225,38.3742708,0
</coordinates>
</LineString>
</Placemark>

<Placemark>
<name>AVG_Kurucesme_route_2 | Rota 2 | Adım 16 | Servis Edge 616 (228->227)</name>
<styleUrl>#service</styleUrl>
<LineString>
<tessellate>1</tessellate>
<coordinates>
27.1927222,38.3744048,0
27.1934267,38.3734856,0
27.194115,38.3726168,0
</coordinates>
</LineString>
</Placemark>

<Placemark>
<name>AVG_Kurucesme_route_2 | Rota 2 | Adım 17 | Travel 227->226</name>
<styleUrl>#travel</styleUrl>
<LineString>
<tessellate>1</tessellate>
<coordinates>
27.194115,38.3726168,0
27.1943937,38.3722698,0
</coordinates>
</LineString>
</Placemark>

<Placemark>
<name>AVG_Kurucesme_route_2 | Rota 2 | Adım 17 | Servis Edge 732 (226->225)</name>
<styleUrl>#service</styleUrl>
<LineString>
<tessellate>1</tessellate>
<coordinates>
27.1943937,38.3722698,0
27.1945362,38.3721028,0
27.1946309,38.3719761,0
27.1947172,38.3718257,0
</coordinates>
</LineString>
</Placemark>

<Placemark>
<name>AVG_Kurucesme_route_2 | Rota 2 | Adım 18 | Travel 225->224</name>
<styleUrl>#travel</styleUrl>
<LineString>
<tessellate>1</tessellate>
<coordinates>
27.1947172,38.3718257,0
27.1948508,38.3715678,0
27.1950147,38.3711632,0
</coordinates>
</LineString>
</Placemark>

<Placemark>
<name>AVG_Kurucesme_route_2 | Rota 2 | Adım 18 | Travel 224->223</name>
<styleUrl>#travel</styleUrl>
<LineString>
<tessellate>1</tessellate>
<coordinates>
27.1950147,38.3711632,0
27.1951875,38.3706995,0
</coordinates>
</LineString>
</Placemark>

<Placemark>
<name>AVG_Kurucesme_route_2 | Rota 2 | Adım 18 | Travel 223->222</name>
<styleUrl>#travel</styleUrl>
<LineString>
<tessellate>1</tessellate>
<coordinates>
27.1951875,38.3706995,0
27.1952345,38.3705726,0
27.1953047,38.3704635,0
</coordinates>
</LineString>
</Placemark>

<Placemark>
<name>AVG_Kurucesme_route_2 | Rota 2 | Adım 18 | Travel 222->220</name>
<styleUrl>#travel</styleUrl>
<LineString>
<tessellate>1</tessellate>
<coordinates>
27.1953047,38.3704635,0
27.1953004,38.3704453,0
27.1952974,38.3704335,0
27.1953024,38.3703917,0
27.1953088,38.3703749,0
27.1953222,38.370351,0
27.1953416,38.3703292,0
27.1953681,38.370311,0
27.1953999,38.3702952,0
27.1954149,38.3702872,0
</coordinates>
</LineString>
</Placemark>

<Placemark>
<name>AVG_Kurucesme_route_2 | Rota 2 | Adım 18 | Travel 220->219</name>
<styleUrl>#travel</styleUrl>
<LineString>
<tessellate>1</tessellate>
<coordinates>
27.1954149,38.3702872,0
27.1954911,38.3701157,0
27.1956915,38.3698179,0
27.1958565,38.3694769,0
</coordinates>
</LineString>
</Placemark>

<Placemark>
<name>AVG_Kurucesme_route_2 | Rota 2 | Adım 18 | Travel 219->292</name>
<styleUrl>#travel</styleUrl>
<LineString>
<tessellate>1</tessellate>
<coordinates>
27.1958565,38.3694769,0
27.1946872,38.3692405,0
</coordinates>
</LineString>
</Placemark>

<Placemark>
<name>AVG_Kurucesme_route_2 | Rota 2 | Adım 18 | Travel 292->293</name>
<styleUrl>#travel</styleUrl>
<LineString>
<tessellate>1</tessellate>
<coordinates>
27.194522,38.3692078,0
27.1946872,38.3692405,0
</coordinates>
</LineString>
</Placemark>

<Placemark>
<name>AVG_Kurucesme_route_2 | Rota 2 | Adım 18 | Travel 293->378</name>
<styleUrl>#travel</styleUrl>
<LineString>
<tessellate>1</tessellate>
<coordinates>
27.1941069,38.3690691,0
27.194522,38.3692078,0
</coordinates>
</LineString>
</Placemark>

<Placemark>
<name>AVG_Kurucesme_route_2 | Rota 2 | Adım 18 | Travel 378->377</name>
<styleUrl>#travel</styleUrl>
<LineString>
<tessellate>1</tessellate>
<coordinates>
27.1941069,38.3690691,0
27.1935779,38.3689644,0
</coordinates>
</LineString>
</Placemark>

<Placemark>
<name>AVG_Kurucesme_route_2 | Rota 2 | Adım 18 | Travel 377->417</name>
<styleUrl>#travel</styleUrl>
<LineString>
<tessellate>1</tessellate>
<coordinates>
27.1934631,38.3689645,0
27.1935779,38.3689644,0
</coordinates>
</LineString>
</Placemark>

<Placemark>
<name>AVG_Kurucesme_route_2 | Rota 2 | Adım 18 | Travel 417->416</name>
<styleUrl>#travel</styleUrl>
<LineString>
<tessellate>1</tessellate>
<coordinates>
27.1934631,38.3689645,0
27.1934391,38.3689081,0
</coordinates>
</LineString>
</Placemark>

<Placemark>
<name>AVG_Kurucesme_route_2 | Rota 2 | Adım 18 | Travel 416->418</name>
<styleUrl>#travel</styleUrl>
<LineString>
<tessellate>1</tessellate>
<coordinates>
27.1926278,38.3690486,0
27.1934391,38.3689081,0
</coordinates>
</LineString>
</Placemark>

<Placemark>
<name>AVG_Kurucesme_route_2 | Rota 2 | Adım 18 | Travel 418->425</name>
<styleUrl>#travel</styleUrl>
<LineString>
<tessellate>1</tessellate>
<coordinates>
27.1925811,38.3688718,0
27.1926278,38.3690486,0
</coordinates>
</LineString>
</Placemark>

<Placemark>
<name>AVG_Kurucesme_route_2 | Rota 2 | Adım 18 | Travel 425->424</name>
<styleUrl>#travel</styleUrl>
<LineString>
<tessellate>1</tessellate>
<coordinates>
27.1925811,38.3688718,0
27.1919922,38.3689603,0
27.1917682,38.3689834,0
27.1914494,38.3690218,0
27.1907592,38.3690815,0
</coordinates>
</LineString>
</Placemark>

<Placemark>
<name>AVG_Kurucesme_route_2 | Rota 2 | Adım 18 | Travel 424->423</name>
<styleUrl>#travel</styleUrl>
<LineString>
<tessellate>1</tessellate>
<coordinates>
27.1907592,38.3690815,0
27.1907015,38.3691075,0
</coordinates>
</LineString>
</Placemark>

<Placemark>
<name>AVG_Kurucesme_route_2 | Rota 2 | Adım 18 | Travel 423->421</name>
<styleUrl>#travel</styleUrl>
<LineString>
<tessellate>1</tessellate>
<coordinates>
27.1907015,38.3691075,0
27.1905834,38.3691305,0
27.1898779,38.3692055,0
</coordinates>
</LineString>
</Placemark>

<Placemark>
<name>AVG_Kurucesme_route_2 | Rota 2 | Adım 18 | Travel 421->438</name>
<styleUrl>#travel</styleUrl>
<LineString>
<tessellate>1</tessellate>
<coordinates>
27.1898779,38.3692055,0
27.1897909,38.3687934,0
</coordinates>
</LineString>
</Placemark>

<Placemark>
<name>AVG_Kurucesme_route_2 | Rota 2 | Adım 18 | Travel 438->407</name>
<styleUrl>#travel</styleUrl>
<LineString>
<tessellate>1</tessellate>
<coordinates>
27.1897909,38.3687934,0
27.1881757,38.368877,0
</coordinates>
</LineString>
</Placemark>

<Placemark>
<name>AVG_Kurucesme_route_2 | Rota 2 | Adım 18 | Servis Edge 652 (407->350)</name>
<styleUrl>#service</styleUrl>
<LineString>
<tessellate>1</tessellate>
<coordinates>
27.1882209,38.3678127,0
27.1881757,38.368877,0
</coordinates>
</LineString>
</Placemark>

<Placemark>
<name>AVG_Kurucesme_route_2 | Rota 2 | Adım 19 | Travel 350->407</name>
<styleUrl>#travel</styleUrl>
<LineString>
<tessellate>1</tessellate>
<coordinates>
27.1881757,38.368877,0
27.1882209,38.3678127,0
</coordinates>
</LineString>
</Placemark>

<Placemark>
<name>AVG_Kurucesme_route_2 | Rota 2 | Adım 19 | Travel 407->438</name>
<styleUrl>#travel</styleUrl>
<LineString>
<tessellate>1</tessellate>
<coordinates>
27.1881757,38.368877,0
27.1897909,38.3687934,0
</coordinates>
</LineString>
</Placemark>

<Placemark>
<name>AVG_Kurucesme_route_2 | Rota 2 | Adım 19 | Servis Edge 654 (438->421)</name>
<styleUrl>#service</styleUrl>
<LineString>
<tessellate>1</tessellate>
<coordinates>
27.1897909,38.3687934,0
27.1898779,38.3692055,0
</coordinates>
</LineString>
</Placemark>

<Placemark>
<name>AVG_Kurucesme_route_2 | Rota 2 | Adım 20 | Travel 421->438</name>
<styleUrl>#travel</styleUrl>
<LineString>
<tessellate>1</tessellate>
<coordinates>
27.1898779,38.3692055,0
27.1897909,38.3687934,0
</coordinates>
</LineString>
</Placemark>

<Placemark>
<name>AVG_Kurucesme_route_2 | Rota 2 | Adım 20 | Travel 438->408</name>
<styleUrl>#travel</styleUrl>
<LineString>
<tessellate>1</tessellate>
<coordinates>
27.1897909,38.3687934,0
27.1896651,38.3680462,0
</coordinates>
</LineString>
</Placemark>

<Placemark>
<name>AVG_Kurucesme_route_2 | Rota 2 | Adım 20 | Servis Edge 655 (408->351)</name>
<styleUrl>#service</styleUrl>
<LineString>
<tessellate>1</tessellate>
<coordinates>
27.1896651,38.3680462,0
27.189235,38.3675666,0
</coordinates>
</LineString>
</Placemark>

<Placemark>
<name>AVG_Kurucesme_route_2 | Rota 2 | Adım 21 | Travel 351->350</name>
<styleUrl>#travel</styleUrl>
<LineString>
<tessellate>1</tessellate>
<coordinates>
27.189235,38.3675666,0
27.188723,38.367791,0
27.1886362,38.3678126,0
27.1882209,38.3678127,0
</coordinates>
</LineString>
</Placemark>

<Placemark>
<name>AVG_Kurucesme_route_2 | Rota 2 | Adım 21 | Travel 350->407</name>
<styleUrl>#travel</styleUrl>
<LineString>
<tessellate>1</tessellate>
<coordinates>
27.1881757,38.368877,0
27.1882209,38.3678127,0
</coordinates>
</LineString>
</Placemark>

<Placemark>
<name>AVG_Kurucesme_route_2 | Rota 2 | Adım 21 | Servis Edge 650 (407->334)</name>
<styleUrl>#service</styleUrl>
<LineString>
<tessellate>1</tessellate>
<coordinates>
27.1881345,38.3699727,0
27.1881757,38.368877,0
</coordinates>
</LineString>
</Placemark>

<Placemark>
<name>AVG_Kurucesme_route_2 | Rota 2 | Adım 22 | Travel 334->407</name>
<styleUrl>#travel</styleUrl>
<LineString>
<tessellate>1</tessellate>
<coordinates>
27.1881757,38.368877,0
27.1881345,38.3699727,0
</coordinates>
</LineString>
</Placemark>

<Placemark>
<name>AVG_Kurucesme_route_2 | Rota 2 | Adım 22 | Travel 407->350</name>
<styleUrl>#travel</styleUrl>
<LineString>
<tessellate>1</tessellate>
<coordinates>
27.1882209,38.3678127,0
27.1881757,38.368877,0
</coordinates>
</LineString>
</Placemark>

<Placemark>
<name>AVG_Kurucesme_route_2 | Rota 2 | Adım 22 | Travel 350->351</name>
<styleUrl>#travel</styleUrl>
<LineString>
<tessellate>1</tessellate>
<coordinates>
27.1882209,38.3678127,0
27.1886362,38.3678126,0
27.188723,38.367791,0
27.189235,38.3675666,0
</coordinates>
</LineString>
</Placemark>

<Placemark>
<name>AVG_Kurucesme_route_2 | Rota 2 | Adım 22 | Travel 351->352</name>
<styleUrl>#travel</styleUrl>
<LineString>
<tessellate>1</tessellate>
<coordinates>
27.189235,38.3675666,0
27.1897004,38.3673415,0
27.1901568,38.3670807,0
</coordinates>
</LineString>
</Placemark>

<Placemark>
<name>AVG_Kurucesme_route_2 | Rota 2 | Adım 22 | Travel 352->353</name>
<styleUrl>#travel</styleUrl>
<LineString>
<tessellate>1</tessellate>
<coordinates>
27.1901568,38.3670807,0
27.1907235,38.3667934,0
</coordinates>
</LineString>
</Placemark>

<Placemark>
<name>AVG_Kurucesme_route_2 | Rota 2 | Adım 22 | Travel 353->267</name>
<styleUrl>#travel</styleUrl>
<LineString>
<tessellate>1</tessellate>
<coordinates>
27.1907235,38.3667934,0
27.1902505,38.3663297,0
</coordinates>
</LineString>
</Placemark>

<Placemark>
<name>AVG_Kurucesme_route_2 | Rota 2 | Adım 22 | Travel 267->266</name>
<styleUrl>#travel</styleUrl>
<LineString>
<tessellate>1</tessellate>
<coordinates>
27.1902505,38.3663297,0
27.1900014,38.3661464,0
</coordinates>
</LineString>
</Placemark>

<Placemark>
<name>AVG_Kurucesme_route_2 | Rota 2 | Adım 22 | Servis Edge 658 (266->204)</name>
<styleUrl>#service</styleUrl>
<LineString>
<tessellate>1</tessellate>
<coordinates>
27.1900014,38.3661464,0
27.1898484,38.3660635,0
27.1896153,38.3659436,0
</coordinates>
</LineString>
</Placemark>

<Placemark>
<name>AVG_Kurucesme_route_2 | Rota 2 | Adım 23 | Travel 204->203</name>
<styleUrl>#travel</styleUrl>
<LineString>
<tessellate>1</tessellate>
<coordinates>
27.1896153,38.3659436,0
27.189402,38.3658964,0
27.1893786,38.3658461,0
27.1893474,38.3658169,0
27.1892787,38.3657875,0
27.1884365,38.3655548,0
27.188246,38.3655343,0
27.1876761,38.3655241,0
27.1872178,38.3654952,0
27.1869951,38.365472,0
27.1868489,38.3654689,0
27.1864646,38.3655608,0
</coordinates>
</LineString>
</Placemark>

<Placemark>
<name>AVG_Kurucesme_route_2 | Rota 2 | Adım 23 | Travel 203->258</name>
<styleUrl>#travel</styleUrl>
<LineString>
<tessellate>1</tessellate>
<coordinates>
27.1864646,38.3655608,0
27.18641,38.3660389,0
</coordinates>
</LineString>
</Placemark>

<Placemark>
<name>AVG_Kurucesme_route_2 | Rota 2 | Adım 23 | Travel 258->259</name>
<styleUrl>#travel</styleUrl>
<LineString>
<tessellate>1</tessellate>
<coordinates>
27.18641,38.3660389,0
27.1865377,38.3660828,0
27.1865977,38.3660978,0
27.186648,38.3661049,0
27.1866889,38.3661051,0
27.1867728,38.3660996,0
27.1869055,38.3660618,0
27.1873193,38.3659808,0
</coordinates>
</LineString>
</Placemark>

<Placemark>
<name>AVG_Kurucesme_route_2 | Rota 2 | Adım 23 | Servis Edge 663 (259->260)</name>
<styleUrl>#service</styleUrl>
<LineString>
<tessellate>1</tessellate>
<coordinates>
27.1873193,38.3659808,0
27.1879672,38.3658789,0
</coordinates>
</LineString>
</Placemark>

<Placemark>
<name>AVG_Kurucesme_route_2 | Rota 2 | Adım 24 | Travel 260->259</name>
<styleUrl>#travel</styleUrl>
<LineString>
<tessellate>1</tessellate>
<coordinates>
27.1879672,38.3658789,0
27.1873193,38.3659808,0
</coordinates>
</LineString>
</Placemark>

<Placemark>
<name>AVG_Kurucesme_route_2 | Rota 2 | Adım 24 | Travel 259->261</name>
<styleUrl>#travel</styleUrl>
<LineString>
<tessellate>1</tessellate>
<coordinates>
27.1873193,38.3659808,0
27.1873456,38.3660987,0
27.1873489,38.3661447,0
</coordinates>
</LineString>
</Placemark>

<Placemark>
<name>AVG_Kurucesme_route_2 | Rota 2 | Adım 24 | Travel 261->263</name>
<styleUrl>#travel</styleUrl>
<LineString>
<tessellate>1</tessellate>
<coordinates>
27.1873489,38.3661447,0
27.1873726,38.3662118,0
27.187386,38.3662807,0
27.187351,38.3667212,0
</coordinates>
</LineString>
</Placemark>

<Placemark>
<name>AVG_Kurucesme_route_2 | Rota 2 | Adım 24 | Travel 263->264</name>
<styleUrl>#travel</styleUrl>
<LineString>
<tessellate>1</tessellate>
<coordinates>
27.187351,38.3667212,0
27.187416,38.3667315,0
27.1880315,38.3667652,0
27.1882086,38.3668188,0
27.1884095,38.3669195,0
</coordinates>
</LineString>
</Placemark>

<Placemark>
<name>AVG_Kurucesme_route_2 | Rota 2 | Adım 24 | Servis Edge 667 (264->351)</name>
<styleUrl>#service</styleUrl>
<LineString>
<tessellate>1</tessellate>
<coordinates>
27.1884095,38.3669195,0
27.189235,38.3675666,0
</coordinates>
</LineString>
</Placemark>

<Placemark>
<name>AVG_Kurucesme_route_2 | Rota 2 | Adım 25 | Travel 351->264</name>
<styleUrl>#travel</styleUrl>
<LineString>
<tessellate>1</tessellate>
<coordinates>
27.189235,38.3675666,0
27.1884095,38.3669195,0
</coordinates>
</LineString>
</Placemark>

<Placemark>
<name>AVG_Kurucesme_route_2 | Rota 2 | Adım 25 | Servis Edge 672 (264->263)</name>
<styleUrl>#service</styleUrl>
<LineString>
<tessellate>1</tessellate>
<coordinates>
27.1884095,38.3669195,0
27.1882086,38.3668188,0
27.1880315,38.3667652,0
27.187416,38.3667315,0
27.187351,38.3667212,0
</coordinates>
</LineString>
</Placemark>

<Placemark>
<name>AVG_Kurucesme_route_2 | Rota 2 | Adım 26 | Travel 263->262</name>
<styleUrl>#travel</styleUrl>
<LineString>
<tessellate>1</tessellate>
<coordinates>
27.1872888,38.3667195,0
27.187351,38.3667212,0
</coordinates>
</LineString>
</Placemark>

<Placemark>
<name>AVG_Kurucesme_route_2 | Rota 2 | Adım 26 | Travel 262->257</name>
<styleUrl>#travel</styleUrl>
<LineString>
<tessellate>1</tessellate>
<coordinates>
27.1872888,38.3667195,0
27.1872225,38.3667221,0
27.1864022,38.3666741,0
</coordinates>
</LineString>
</Placemark>

<Placemark>
<name>AVG_Kurucesme_route_2 | Rota 2 | Adım 26 | Travel 257->256</name>
<styleUrl>#travel</styleUrl>
<LineString>
<tessellate>1</tessellate>
<coordinates>
27.1864022,38.3666741,0
27.1862187,38.3666771,0
27.1855824,38.3666638,0
</coordinates>
</LineString>
</Placemark>

<Placemark>
<name>AVG_Kurucesme_route_2 | Rota 2 | Adım 26 | Travel 256->255</name>
<styleUrl>#travel</styleUrl>
<LineString>
<tessellate>1</tessellate>
<coordinates>
27.1855824,38.3666638,0
27.1854256,38.3666539,0
27.1848365,38.3666534,0
27.1846424,38.3666926,0
27.1843337,38.366891,0
27.184166,38.3670711,0
</coordinates>
</LineString>
</Placemark>

<Placemark>
<name>AVG_Kurucesme_route_2 | Rota 2 | Adım 26 | Travel 255->201</name>
<styleUrl>#travel</styleUrl>
<LineString>
<tessellate>1</tessellate>
<coordinates>
27.184166,38.3670711,0
27.1838011,38.3669392,0
27.1837062,38.3669194,0
27.1836009,38.3666883,0
27.1833686,38.3663916,0
</coordinates>
</LineString>
</Placemark>

<Placemark>
<name>AVG_Kurucesme_route_2 | Rota 2 | Adım 26 | Servis Edge 673 (201->200)</name>
<styleUrl>#service</styleUrl>
<LineString>
<tessellate>1</tessellate>
<coordinates>
27.1833686,38.3663916,0
27.1828545,38.3667282,0
</coordinates>
</LineString>
</Placemark>

<Placemark>
<name>AVG_Kurucesme_route_2 | Rota 2 | Adım 27 | Travel 200->201</name>
<styleUrl>#travel</styleUrl>
<LineString>
<tessellate>1</tessellate>
<coordinates>
27.1828545,38.3667282,0
27.1833686,38.3663916,0
</coordinates>
</LineString>
</Placemark>

<Placemark>
<name>AVG_Kurucesme_route_2 | Rota 2 | Adım 27 | Servis Edge 674 (201->202)</name>
<styleUrl>#service</styleUrl>
<LineString>
<tessellate>1</tessellate>
<coordinates>
27.1833686,38.3663916,0
27.1838429,38.3661625,0
27.1843344,38.3659796,0
27.1848245,38.3658087,0
27.1856034,38.3656394,0
</coordinates>
</LineString>
</Placemark>

<Placemark>
<name>AVG_Kurucesme_route_2 | Rota 2 | Adım 28 | Travel 202->203</name>
<styleUrl>#travel</styleUrl>
<LineString>
<tessellate>1</tessellate>
<coordinates>
27.1856034,38.3656394,0
27.1864646,38.3655608,0
</coordinates>
</LineString>
</Placemark>

<Placemark>
<name>AVG_Kurucesme_route_2 | Rota 2 | Adım 28 | Travel 203->204</name>
<styleUrl>#travel</styleUrl>
<LineString>
<tessellate>1</tessellate>
<coordinates>
27.1864646,38.3655608,0
27.1868489,38.3654689,0
27.1869951,38.365472,0
27.1872178,38.3654952,0
27.1876761,38.3655241,0
27.188246,38.3655343,0
27.1884365,38.3655548,0
27.1892787,38.3657875,0
27.1893474,38.3658169,0
27.1893786,38.3658461,0
27.189402,38.3658964,0
27.1896153,38.3659436,0
</coordinates>
</LineString>
</Placemark>

<Placemark>
<name>AVG_Kurucesme_route_2 | Rota 2 | Adım 28 | Travel 204->266</name>
<styleUrl>#travel</styleUrl>
<LineString>
<tessellate>1</tessellate>
<coordinates>
27.1896153,38.3659436,0
27.1898484,38.3660635,0
27.1900014,38.3661464,0
</coordinates>
</LineString>
</Placemark>

<Placemark>
<name>AVG_Kurucesme_route_2 | Rota 2 | Adım 28 | Travel 266->267</name>
<styleUrl>#travel</styleUrl>
<LineString>
<tessellate>1</tessellate>
<coordinates>
27.1900014,38.3661464,0
27.1902505,38.3663297,0
</coordinates>
</LineString>
</Placemark>

<Placemark>
<name>AVG_Kurucesme_route_2 | Rota 2 | Adım 28 | Travel 267->353</name>
<styleUrl>#travel</styleUrl>
<LineString>
<tessellate>1</tessellate>
<coordinates>
27.1902505,38.3663297,0
27.1907235,38.3667934,0
</coordinates>
</LineString>
</Placemark>

<Placemark>
<name>AVG_Kurucesme_route_2 | Rota 2 | Adım 28 | Travel 353->354</name>
<styleUrl>#travel</styleUrl>
<LineString>
<tessellate>1</tessellate>
<coordinates>
27.1907235,38.3667934,0
27.1910387,38.3670973,0
</coordinates>
</LineString>
</Placemark>

<Placemark>
<name>AVG_Kurucesme_route_2 | Rota 2 | Adım 28 | Travel 354->355</name>
<styleUrl>#travel</styleUrl>
<LineString>
<tessellate>1</tessellate>
<coordinates>
27.1910387,38.3670973,0
27.1916049,38.3674365,0
</coordinates>
</LineString>
</Placemark>

<Placemark>
<name>AVG_Kurucesme_route_2 | Rota 2 | Adım 28 | Travel 355->356</name>
<styleUrl>#travel</styleUrl>
<LineString>
<tessellate>1</tessellate>
<coordinates>
27.1916049,38.3674365,0
27.1916764,38.3674992,0
</coordinates>
</LineString>
</Placemark>

<Placemark>
<name>AVG_Kurucesme_route_2 | Rota 2 | Adım 28 | Travel 356->412</name>
<styleUrl>#travel</styleUrl>
<LineString>
<tessellate>1</tessellate>
<coordinates>
27.1916764,38.3674992,0
27.1917382,38.3676511,0
27.1920718,38.3681356,0
</coordinates>
</LineString>
</Placemark>

<Placemark>
<name>AVG_Kurucesme_route_2 | Rota 2 | Adım 28 | Travel 412->413</name>
<styleUrl>#travel</styleUrl>
<LineString>
<tessellate>1</tessellate>
<coordinates>
27.1920718,38.3681356,0
27.1921633,38.3683595,0
</coordinates>
</LineString>
</Placemark>

<Placemark>
<name>AVG_Kurucesme_route_2 | Rota 2 | Adım 28 | Travel 413->425</name>
<styleUrl>#travel</styleUrl>
<LineString>
<tessellate>1</tessellate>
<coordinates>
27.1921633,38.3683595,0
27.1924449,38.3686765,0
27.1925811,38.3688718,0
</coordinates>
</LineString>
</Placemark>

<Placemark>
<name>AVG_Kurucesme_route_2 | Rota 2 | Adım 28 | Travel 425->418</name>
<styleUrl>#travel</styleUrl>
<LineString>
<tessellate>1</tessellate>
<coordinates>
27.1926278,38.3690486,0
27.1925811,38.3688718,0
</coordinates>
</LineString>
</Placemark>

<Placemark>
<name>AVG_Kurucesme_route_2 | Rota 2 | Adım 28 | Travel 418->419</name>
<styleUrl>#travel</styleUrl>
<LineString>
<tessellate>1</tessellate>
<coordinates>
27.1926278,38.3690486,0
27.1926499,38.3691633,0
</coordinates>
</LineString>
</Placemark>

<Placemark>
<name>AVG_Kurucesme_route_2 | Rota 2 | Adım 28 | Servis Edge 512 (419->435)</name>
<styleUrl>#service</styleUrl>
<LineString>
<tessellate>1</tessellate>
<coordinates>
27.1926499,38.3691633,0
27.1927099,38.3693638,0
27.1927709,38.3695294,0
27.1927897,38.3695636,0
27.1928044,38.3695956,0
27.1928664,38.3698356,0
</coordinates>
</LineString>
</Placemark>

<Placemark>
<name>AVG_Kurucesme_route_2 | Rota 2 | Adım 29 | Travel 435->419</name>
<styleUrl>#travel</styleUrl>
<LineString>
<tessellate>1</tessellate>
<coordinates>
27.1928664,38.3698356,0
27.1928044,38.3695956,0
27.1927897,38.3695636,0
27.1927709,38.3695294,0
27.1927099,38.3693638,0
27.1926499,38.3691633,0
</coordinates>
</LineString>
</Placemark>

<Placemark>
<name>AVG_Kurucesme_route_2 | Rota 2 | Adım 29 | Travel 419->420</name>
<styleUrl>#travel</styleUrl>
<LineString>
<tessellate>1</tessellate>
<coordinates>
27.1908062,38.369343,0
27.1913952,38.369339,0
27.1916017,38.3693222,0
27.19176,38.3692927,0
27.1926499,38.3691633,0
</coordinates>
</LineString>
</Placemark>

<Placemark>
<name>AVG_Kurucesme_route_2 | Rota 2 | Adım 29 | Travel 420->422</name>
<styleUrl>#travel</styleUrl>
<LineString>
<tessellate>1</tessellate>
<coordinates>
27.1899296,38.3693914,0
27.1908062,38.369343,0
</coordinates>
</LineString>
</Placemark>

<Placemark>
<name>AVG_Kurucesme_route_2 | Rota 2 | Adım 29 | Travel 422->421</name>
<styleUrl>#travel</styleUrl>
<LineString>
<tessellate>1</tessellate>
<coordinates>
27.1898779,38.3692055,0
27.1899296,38.3693914,0
</coordinates>
</LineString>
</Placemark>

<Placemark>
<name>AVG_Kurucesme_route_2 | Rota 2 | Adım 29 | Travel 421->438</name>
<styleUrl>#travel</styleUrl>
<LineString>
<tessellate>1</tessellate>
<coordinates>
27.1898779,38.3692055,0
27.1897909,38.3687934,0
</coordinates>
</LineString>
</Placemark>

<Placemark>
<name>AVG_Kurucesme_route_2 | Rota 2 | Adım 29 | Travel 438->407</name>
<styleUrl>#travel</styleUrl>
<LineString>
<tessellate>1</tessellate>
<coordinates>
27.1897909,38.3687934,0
27.1881757,38.368877,0
</coordinates>
</LineString>
</Placemark>

<Placemark>
<name>AVG_Kurucesme_route_2 | Rota 2 | Adım 29 | Travel 407->404</name>
<styleUrl>#travel</styleUrl>
<LineString>
<tessellate>1</tessellate>
<coordinates>
27.1881757,38.368877,0
27.1872732,38.3688782,0
</coordinates>
</LineString>
</Placemark>

<Placemark>
<name>AVG_Kurucesme_route_2 | Rota 2 | Adım 29 | Travel 404->403</name>
<styleUrl>#travel</styleUrl>
<LineString>
<tessellate>1</tessellate>
<coordinates>
27.1872732,38.3688782,0
27.1872028,38.3688781,0
</coordinates>
</LineString>
</Placemark>

<Placemark>
<name>AVG_Kurucesme_route_2 | Rota 2 | Adım 29 | Travel 403->405</name>
<styleUrl>#travel</styleUrl>
<LineString>
<tessellate>1</tessellate>
<coordinates>
27.1872632,38.3679373,0
27.1872728,38.3682454,0
27.1872028,38.3688781,0
</coordinates>
</LineString>
</Placemark>

<Placemark>
<name>AVG_Kurucesme_route_2 | Rota 2 | Adım 29 | Travel 405->346</name>
<styleUrl>#travel</styleUrl>
<LineString>
<tessellate>1</tessellate>
<coordinates>
27.1870712,38.3677853,0
27.1870771,38.3678188,0
27.1871083,38.3678716,0
27.1871566,38.3679068,0
27.1872632,38.3679373,0
</coordinates>
</LineString>
</Placemark>

<Placemark>
<name>AVG_Kurucesme_route_2 | Rota 2 | Adım 29 | Travel 346->344</name>
<styleUrl>#travel</styleUrl>
<LineString>
<tessellate>1</tessellate>
<coordinates>
27.1870712,38.3677853,0
27.1854527,38.3677292,0
</coordinates>
</LineString>
</Placemark>

<Placemark>
<name>AVG_Kurucesme_route_2 | Rota 2 | Adım 29 | Travel 344->345</name>
<styleUrl>#travel</styleUrl>
<LineString>
<tessellate>1</tessellate>
<coordinates>
27.1855385,38.3672189,0
27.1854527,38.3677292,0
</coordinates>
</LineString>
</Placemark>

<Placemark>
<name>AVG_Kurucesme_route_2 | Rota 2 | Adım 29 | Servis Edge 676 (345->255)</name>
<styleUrl>#service</styleUrl>
<LineString>
<tessellate>1</tessellate>
<coordinates>
27.1855385,38.3672189,0
27.1850599,38.367196,0
27.18462,38.3671665,0
27.184166,38.3670711,0
</coordinates>
</LineString>
</Placemark>

<Placemark>
<name>AVG_Kurucesme_route_2 | Rota 2 | Adım 30 | Travel 255->345</name>
<styleUrl>#travel</styleUrl>
<LineString>
<tessellate>1</tessellate>
<coordinates>
27.184166,38.3670711,0
27.18462,38.3671665,0
27.1850599,38.367196,0
27.1855385,38.3672189,0
</coordinates>
</LineString>
</Placemark>

<Placemark>
<name>AVG_Kurucesme_route_2 | Rota 2 | Adım 30 | Servis Edge 677 (345->256)</name>
<styleUrl>#service</styleUrl>
<LineString>
<tessellate>1</tessellate>
<coordinates>
27.1855824,38.3666638,0
27.1855385,38.3672189,0
</coordinates>
</LineString>
</Placemark>

<Placemark>
<name>AVG_Kurucesme_route_2 | Rota 2 | Adım 31 | Servis Edge 678 (256->257)</name>
<styleUrl>#service</styleUrl>
<LineString>
<tessellate>1</tessellate>
<coordinates>
27.1855824,38.3666638,0
27.1862187,38.3666771,0
27.1864022,38.3666741,0
</coordinates>
</LineString>
</Placemark>

<Placemark>
<name>AVG_Kurucesme_route_2 | Rota 2 | Adım 32 | Travel 257->256</name>
<styleUrl>#travel</styleUrl>
<LineString>
<tessellate>1</tessellate>
<coordinates>
27.1864022,38.3666741,0
27.1862187,38.3666771,0
27.1855824,38.3666638,0
</coordinates>
</LineString>
</Placemark>

<Placemark>
<name>AVG_Kurucesme_route_2 | Rota 2 | Adım 32 | Servis Edge 680 (256->255)</name>
<styleUrl>#service</styleUrl>
<LineString>
<tessellate>1</tessellate>
<coordinates>
27.1855824,38.3666638,0
27.1854256,38.3666539,0
27.1848365,38.3666534,0
27.1846424,38.3666926,0
27.1843337,38.366891,0
27.184166,38.3670711,0
</coordinates>
</LineString>
</Placemark>

<Placemark>
<name>AVG_Kurucesme_route_2 | Rota 2 | Adım 33 | Servis Edge 683 (255->254)</name>
<styleUrl>#service</styleUrl>
<LineString>
<tessellate>1</tessellate>
<coordinates>
27.1841114,38.3676887,0
27.1841273,38.3673406,0
27.1841246,38.3672139,0
27.1841366,38.3671508,0
27.184166,38.3670711,0
</coordinates>
</LineString>
</Placemark>

<Placemark>
<name>AVG_Kurucesme_route_2 | Rota 2 | Adım 34 | Travel 254->253</name>
<styleUrl>#travel</styleUrl>
<LineString>
<tessellate>1</tessellate>
<coordinates>
27.1841114,38.3676887,0
27.1835749,38.3676875,0
</coordinates>
</LineString>
</Placemark>

<Placemark>
<name>AVG_Kurucesme_route_2 | Rota 2 | Adım 34 | Servis Edge 685 (253->341)</name>
<styleUrl>#service</styleUrl>
<LineString>
<tessellate>1</tessellate>
<coordinates>
27.1835749,38.3676875,0
27.1835352,38.3685473,0
</coordinates>
</LineString>
</Placemark>

<Placemark>
<name>AVG_Kurucesme_route_2 | Rota 2 | Adım 35 | Travel 341->342</name>
<styleUrl>#travel</styleUrl>
<LineString>
<tessellate>1</tessellate>
<coordinates>
27.1835355,38.3686804,0
27.183538,38.3686288,0
27.1835352,38.3685473,0
</coordinates>
</LineString>
</Placemark>

<Placemark>
<name>AVG_Kurucesme_route_2 | Rota 2 | Adım 35 | Travel 342->343</name>
<styleUrl>#travel</styleUrl>
<LineString>
<tessellate>1</tessellate>
<coordinates>
27.1835355,38.3686804,0
27.1840652,38.3687246,0
27.1853911,38.3687866,0
</coordinates>
</LineString>
</Placemark>

<Placemark>
<name>AVG_Kurucesme_route_2 | Rota 2 | Adım 35 | Servis Edge 688 (343->344)</name>
<styleUrl>#service</styleUrl>
<LineString>
<tessellate>1</tessellate>
<coordinates>
27.1853911,38.3687866,0
27.1854527,38.3677292,0
</coordinates>
</LineString>
</Placemark>

<Placemark>
<name>AVG_Kurucesme_route_2 | Rota 2 | Adım 36 | Travel 344->345</name>
<styleUrl>#travel</styleUrl>
<LineString>
<tessellate>1</tessellate>
<coordinates>
27.1855385,38.3672189,0
27.1854527,38.3677292,0
</coordinates>
</LineString>
</Placemark>

<Placemark>
<name>AVG_Kurucesme_route_2 | Rota 2 | Adım 36 | Travel 345->255</name>
<styleUrl>#travel</styleUrl>
<LineString>
<tessellate>1</tessellate>
<coordinates>
27.1855385,38.3672189,0
27.1850599,38.367196,0
27.18462,38.3671665,0
27.184166,38.3670711,0
</coordinates>
</LineString>
</Placemark>

<Placemark>
<name>AVG_Kurucesme_route_2 | Rota 2 | Adım 36 | Travel 255->201</name>
<styleUrl>#travel</styleUrl>
<LineString>
<tessellate>1</tessellate>
<coordinates>
27.184166,38.3670711,0
27.1838011,38.3669392,0
27.1837062,38.3669194,0
27.1836009,38.3666883,0
27.1833686,38.3663916,0
</coordinates>
</LineString>
</Placemark>

<Placemark>
<name>AVG_Kurucesme_route_2 | Rota 2 | Adım 36 | Travel 201->200</name>
<styleUrl>#travel</styleUrl>
<LineString>
<tessellate>1</tessellate>
<coordinates>
27.1833686,38.3663916,0
27.1828545,38.3667282,0
</coordinates>
</LineString>
</Placemark>

<Placemark>
<name>AVG_Kurucesme_route_2 | Rota 2 | Adım 36 | Servis Edge 692 (200->0)</name>
<styleUrl>#service</styleUrl>
<LineString>
<tessellate>1</tessellate>
<coordinates>
27.1828545,38.3667282,0
27.1824768,38.3664713,0
27.1823374,38.3664032,0
27.1821543,38.3663532,0
27.181878,38.3663359,0
27.1812279,38.3663616,0
27.1801155,38.3664494,0
</coordinates>
</LineString>
</Placemark>

<Placemark>
<name>AVG_Kurucesme_route_2 | Rota 2 | Adım 37 | Travel 0->200</name>
<styleUrl>#travel</styleUrl>
<LineString>
<tessellate>1</tessellate>
<coordinates>
27.1801155,38.3664494,0
27.1812279,38.3663616,0
27.181878,38.3663359,0
27.1821543,38.3663532,0
27.1823374,38.3664032,0
27.1824768,38.3664713,0
27.1828545,38.3667282,0
</coordinates>
</LineString>
</Placemark>

<Placemark>
<name>AVG_Kurucesme_route_2 | Rota 2 | Adım 37 | Travel 200->201</name>
<styleUrl>#travel</styleUrl>
<LineString>
<tessellate>1</tessellate>
<coordinates>
27.1828545,38.3667282,0
27.1833686,38.3663916,0
</coordinates>
</LineString>
</Placemark>

<Placemark>
<name>AVG_Kurucesme_route_2 | Rota 2 | Adım 37 | Travel 201->255</name>
<styleUrl>#travel</styleUrl>
<LineString>
<tessellate>1</tessellate>
<coordinates>
27.1833686,38.3663916,0
27.1836009,38.3666883,0
27.1837062,38.3669194,0
27.1838011,38.3669392,0
27.184166,38.3670711,0
</coordinates>
</LineString>
</Placemark>

<Placemark>
<name>AVG_Kurucesme_route_2 | Rota 2 | Adım 37 | Travel 255->256</name>
<styleUrl>#travel</styleUrl>
<LineString>
<tessellate>1</tessellate>
<coordinates>
27.184166,38.3670711,0
27.1843337,38.366891,0
27.1846424,38.3666926,0
27.1848365,38.3666534,0
27.1854256,38.3666539,0
27.1855824,38.3666638,0
</coordinates>
</LineString>
</Placemark>

<Placemark>
<name>AVG_Kurucesme_route_2 | Rota 2 | Adım 37 | Travel 256->257</name>
<styleUrl>#travel</styleUrl>
<LineString>
<tessellate>1</tessellate>
<coordinates>
27.1855824,38.3666638,0
27.1862187,38.3666771,0
27.1864022,38.3666741,0
</coordinates>
</LineString>
</Placemark>

<Placemark>
<name>AVG_Kurucesme_route_2 | Rota 2 | Adım 37 | Travel 257->262</name>
<styleUrl>#travel</styleUrl>
<LineString>
<tessellate>1</tessellate>
<coordinates>
27.1864022,38.3666741,0
27.1872225,38.3667221,0
27.1872888,38.3667195,0
</coordinates>
</LineString>
</Placemark>

<Placemark>
<name>AVG_Kurucesme_route_2 | Rota 2 | Adım 37 | Travel 262->263</name>
<styleUrl>#travel</styleUrl>
<LineString>
<tessellate>1</tessellate>
<coordinates>
27.187351,38.3667212,0
27.1872888,38.3667195,0
</coordinates>
</LineString>
</Placemark>

<Placemark>
<name>AVG_Kurucesme_route_2 | Rota 2 | Adım 37 | Servis Edge 721 (263->348)</name>
<styleUrl>#service</styleUrl>
<LineString>
<tessellate>1</tessellate>
<coordinates>
27.1873245,38.3676283,0
27.187351,38.3667212,0
</coordinates>
</LineString>
</Placemark>

<Placemark>
<name>AVG_Kurucesme_route_2 | Rota 2 | Adım 38 | Travel 348->349</name>
<styleUrl>#travel</styleUrl>
<LineString>
<tessellate>1</tessellate>
<coordinates>
27.1873245,38.3676283,0
27.1873931,38.3676557,0
27.187422,38.3676743,0
27.1874458,38.3676983,0
27.1874608,38.3677251,0
27.1874686,38.3677487,0
27.1874741,38.36778,0
</coordinates>
</LineString>
</Placemark>

<Placemark>
<name>AVG_Kurucesme_route_2 | Rota 2 | Adım 38 | Travel 349->406</name>
<styleUrl>#travel</styleUrl>
<LineString>
<tessellate>1</tessellate>
<coordinates>
27.1873437,38.3679289,0
27.1874041,38.3679017,0
27.1874316,38.3678801,0
27.1874484,38.367857,0
27.1874638,38.3678252,0
27.1874741,38.36778,0
</coordinates>
</LineString>
</Placemark>

<Placemark>
<name>AVG_Kurucesme_route_2 | Rota 2 | Adım 38 | Travel 406->405</name>
<styleUrl>#travel</styleUrl>
<LineString>
<tessellate>1</tessellate>
<coordinates>
27.1872632,38.3679373,0
27.1873007,38.367936,0
27.1873437,38.3679289,0
</coordinates>
</LineString>
</Placemark>

<Placemark>
<name>AVG_Kurucesme_route_2 | Rota 2 | Adım 38 | Travel 405->346</name>
<styleUrl>#travel</styleUrl>
<LineString>
<tessellate>1</tessellate>
<coordinates>
27.1870712,38.3677853,0
27.1870771,38.3678188,0
27.1871083,38.3678716,0
27.1871566,38.3679068,0
27.1872632,38.3679373,0
</coordinates>
</LineString>
</Placemark>

<Placemark>
<name>AVG_Kurucesme_route_2 | Rota 2 | Adım 38 | Travel 346->344</name>
<styleUrl>#travel</styleUrl>
<LineString>
<tessellate>1</tessellate>
<coordinates>
27.1870712,38.3677853,0
27.1854527,38.3677292,0
</coordinates>
</LineString>
</Placemark>

<Placemark>
<name>AVG_Kurucesme_route_2 | Rota 2 | Adım 38 | Travel 344->254</name>
<styleUrl>#travel</styleUrl>
<LineString>
<tessellate>1</tessellate>
<coordinates>
27.1854527,38.3677292,0
27.1841114,38.3676887,0
</coordinates>
</LineString>
</Placemark>

<Placemark>
<name>AVG_Kurucesme_route_2 | Rota 2 | Adım 38 | Travel 254->253</name>
<styleUrl>#travel</styleUrl>
<LineString>
<tessellate>1</tessellate>
<coordinates>
27.1841114,38.3676887,0
27.1835749,38.3676875,0
</coordinates>
</LineString>
</Placemark>

<Placemark>
<name>AVG_Kurucesme_route_2 | Rota 2 | Adım 38 | Travel 253->341</name>
<styleUrl>#travel</styleUrl>
<LineString>
<tessellate>1</tessellate>
<coordinates>
27.1835749,38.3676875,0
27.1835352,38.3685473,0
</coordinates>
</LineString>
</Placemark>

<Placemark>
<name>AVG_Kurucesme_route_2 | Rota 2 | Adım 38 | Servis Edge 723 (341->340)</name>
<styleUrl>#service</styleUrl>
<LineString>
<tessellate>1</tessellate>
<coordinates>
27.1835352,38.3685473,0
27.1829332,38.3684797,0
</coordinates>
</LineString>
</Placemark>

<Placemark>
<name>AVG_Kurucesme_route_2 | Rota 2 | Adım RETURN | Travel 340->251</name>
<styleUrl>#travel</styleUrl>
<LineString>
<tessellate>1</tessellate>
<coordinates>
27.1829332,38.3684797,0
27.1828726,38.3684609,0
27.1826281,38.3683349,0
27.1821539,38.368054,0
</coordinates>
</LineString>
</Placemark>

<Placemark>
<name>AVG_Kurucesme_route_2 | Rota 2 | Adım RETURN | Travel 251->252</name>
<styleUrl>#travel</styleUrl>
<LineString>
<tessellate>1</tessellate>
<coordinates>
27.1821539,38.368054,0
27.1824569,38.3677659,0
27.1825753,38.3676263,0
</coordinates>
</LineString>
</Placemark>

<Placemark>
<name>AVG_Kurucesme_route_2 | Rota 2 | Adım RETURN | Travel 252->200</name>
<styleUrl>#travel</styleUrl>
<LineString>
<tessellate>1</tessellate>
<coordinates>
27.1825753,38.3676263,0
27.1825996,38.367557,0
27.1826117,38.3674928,0
27.1826222,38.3672806,0
27.1826973,38.366972,0
27.1827409,38.3668737,0
27.1828545,38.3667282,0
</coordinates>
</LineString>
</Placemark>

<Placemark>
<name>AVG_Kurucesme_route_2 | Rota 2 | Adım RETURN | Travel 200->0</name>
<styleUrl>#travel</styleUrl>
<LineString>
<tessellate>1</tessellate>
<coordinates>
27.1828545,38.3667282,0
27.1824768,38.3664713,0
27.1823374,38.3664032,0
27.1821543,38.3663532,0
27.181878,38.3663359,0
27.1812279,38.3663616,0
27.1801155,38.3664494,0
</coordinates>
</LineString>
</Placemark>

</Document>
</kml>
