<?xml version="1.0" encoding="UTF-8"?>
<kml xmlns="http://www.opengis.net/kml/2.2">
<Document>
<name>AVG_Kurucesme_route_1 GA Rota Sonucu</name>

<Style id="service">
<LineStyle>
<color>ff0000ff</color>
<width>5</width>
</LineStyle>
</Style>

<Style id="travel">
<LineStyle>
<color>ffff0000</color>
<width>4</width>
</LineStyle>
</Style>

<Placemark>
<name>AVG_Kurucesme_route_1 | Rota 1 | Adım 1 | Travel 0->46</name>
<styleUrl>#travel</styleUrl>
<LineString>
<tessellate>1</tessellate>
<coordinates>
27.18011,38.36644,0
27.1796535,38.367388,0
27.1793907,38.3679853,0
27.1790312,38.3688096,0
27.178865,38.3694825,0
27.1787899,38.3697643,0
27.1787416,38.3700756,0
27.1787322,38.3701381,0
27.1787054,38.3701649,0
27.1786115,38.3702573,0
</coordinates>
</LineString>
</Placemark>

<Placemark>
<name>AVG_Kurucesme_route_1 | Rota 1 | Adım 1 | Travel 46->47</name>
<styleUrl>#travel</styleUrl>
<LineString>
<tessellate>1</tessellate>
<coordinates>
27.1782188,38.3727672,0
27.1782613,38.3718972,0
27.1782774,38.3716764,0
27.1783176,38.3714514,0
27.1784525,38.3708543,0
27.1785105,38.3705537,0
27.1786115,38.3702573,0
</coordinates>
</LineString>
</Placemark>

<Placemark>
<name>AVG_Kurucesme_route_1 | Rota 1 | Adım 1 | Travel 47->44</name>
<styleUrl>#travel</styleUrl>
<LineString>
<tessellate>1</tessellate>
<coordinates>
27.1782188,38.3727672,0
27.1798443,38.3725061,0
27.1814644,38.3722786,0
</coordinates>
</LineString>
</Placemark>

<Placemark>
<name>AVG_Kurucesme_route_1 | Rota 1 | Adım 1 | Travel 44->42</name>
<styleUrl>#travel</styleUrl>
<LineString>
<tessellate>1</tessellate>
<coordinates>
27.1839791,38.3718576,0
27.1814644,38.3722786,0
</coordinates>
</LineString>
</Placemark>

<Placemark>
<name>AVG_Kurucesme_route_1 | Rota 1 | Adım 1 | Travel 42->39</name>
<styleUrl>#travel</styleUrl>
<LineString>
<tessellate>1</tessellate>
<coordinates>
27.1839791,38.3718576,0
27.1839644,38.3717095,0
</coordinates>
</LineString>
</Placemark>

<Placemark>
<name>AVG_Kurucesme_route_1 | Rota 1 | Adım 1 | Travel 39->38</name>
<styleUrl>#travel</styleUrl>
<LineString>
<tessellate>1</tessellate>
<coordinates>
27.1872888,38.3712761,0
27.1856159,38.371476,0
27.1847848,38.3715844,0
27.1839644,38.3717095,0
</coordinates>
</LineString>
</Placemark>

<Placemark>
<name>AVG_Kurucesme_route_1 | Rota 1 | Adım 1 | Travel 38->243</name>
<styleUrl>#travel</styleUrl>
<LineString>
<tessellate>1</tessellate>
<coordinates>
27.1875887,38.3716946,0
27.1875166,38.3715793,0
27.1874714,38.3715207,0
27.1873492,38.3714016,0
27.1872888,38.3712761,0
</coordinates>
</LineString>
</Placemark>

<Placemark>
<name>AVG_Kurucesme_route_1 | Rota 1 | Adım 1 | Servis Edge 353 (243->244)</name>
<styleUrl>#service</styleUrl>
<LineString>
<tessellate>1</tessellate>
<coordinates>
27.1875887,38.3716946,0
27.1875158,38.3715749,0
27.1874628,38.371505,0
27.1873542,38.3713983,0
27.1872979,38.3712874,0
27.1872743,38.3712046,0
27.1872911,38.371111,0
27.1873038,38.3710955,0
27.187324,38.3710818,0
27.1873947,38.371051,0
27.187688,38.3709722,0
</coordinates>
</LineString>
</Placemark>

<Placemark>
<name>AVG_Kurucesme_route_1 | Rota 1 | Adım 2 | Travel 244->245</name>
<styleUrl>#travel</styleUrl>
<LineString>
<tessellate>1</tessellate>
<coordinates>
27.1876882,38.3709725,0
27.1880015,38.370898,0
</coordinates>
</LineString>
</Placemark>

<Placemark>
<name>AVG_Kurucesme_route_1 | Rota 1 | Adım 2 | Travel 245->246</name>
<styleUrl>#travel</styleUrl>
<LineString>
<tessellate>1</tessellate>
<coordinates>
27.1880015,38.370898,0
27.1883022,38.3708236,0
</coordinates>
</LineString>
</Placemark>

<Placemark>
<name>AVG_Kurucesme_route_1 | Rota 1 | Adım 2 | Servis Edge 698 (246->247)</name>
<styleUrl>#service</styleUrl>
<LineString>
<tessellate>1</tessellate>
<coordinates>
27.1880545,38.3700672,0
27.1880797,38.3702481,0
27.1883022,38.3708236,0
</coordinates>
</LineString>
</Placemark>

<Placemark>
<name>AVG_Kurucesme_route_1 | Rota 1 | Adım 3 | Travel 247->246</name>
<styleUrl>#travel</styleUrl>
<LineString>
<tessellate>1</tessellate>
<coordinates>
27.1883022,38.3708236,0
27.1880797,38.3702481,0
27.1880545,38.3700672,0
</coordinates>
</LineString>
</Placemark>

<Placemark>
<name>AVG_Kurucesme_route_1 | Rota 1 | Adım 3 | Travel 246->329</name>
<styleUrl>#travel</styleUrl>
<LineString>
<tessellate>1</tessellate>
<coordinates>
27.1883022,38.3708236,0
27.1883487,38.3709165,0
</coordinates>
</LineString>
</Placemark>

<Placemark>
<name>AVG_Kurucesme_route_1 | Rota 1 | Adım 3 | Servis Edge 368 (329->325)</name>
<styleUrl>#service</styleUrl>
<LineString>
<tessellate>1</tessellate>
<coordinates>
27.1885429,38.3714498,0
27.1883487,38.3709165,0
</coordinates>
</LineString>
</Placemark>

<Placemark>
<name>AVG_Kurucesme_route_1 | Rota 1 | Adım 4 | Servis Edge 369 (325->324)</name>
<styleUrl>#service</styleUrl>
<LineString>
<tessellate>1</tessellate>
<coordinates>
27.1893497,38.3716901,0
27.1891799,38.3717387,0
27.1887738,38.3718434,0
27.1887544,38.3718447,0
27.188739,38.3718419,0
27.1887255,38.3718366,0
27.1887105,38.3718229,0
27.1886933,38.3717971,0
27.1885429,38.3714498,0
</coordinates>
</LineString>
</Placemark>

<Placemark>
<name>AVG_Kurucesme_route_1 | Rota 1 | Adım 5 | Travel 324->330</name>
<styleUrl>#travel</styleUrl>
<LineString>
<tessellate>1</tessellate>
<coordinates>
27.1893497,38.3716901,0
27.1892797,38.3714154,0
27.1892569,38.3711583,0
27.1893246,38.3706944,0
</coordinates>
</LineString>
</Placemark>

<Placemark>
<name>AVG_Kurucesme_route_1 | Rota 1 | Adım 5 | Servis Edge 370 (330->329)</name>
<styleUrl>#service</styleUrl>
<LineString>
<tessellate>1</tessellate>
<coordinates>
27.1893246,38.3706944,0
27.188941,38.370751,0
27.1888458,38.3707713,0
27.1887546,38.3708065,0
27.1883487,38.3709165,0
</coordinates>
</LineString>
</Placemark>

<Placemark>
<name>AVG_Kurucesme_route_1 | Rota 1 | Adım 6 | Travel 329->330</name>
<styleUrl>#travel</styleUrl>
<LineString>
<tessellate>1</tessellate>
<coordinates>
27.1883487,38.3709165,0
27.1887546,38.3708065,0
27.1888458,38.3707713,0
27.188941,38.370751,0
27.1893246,38.3706944,0
</coordinates>
</LineString>
</Placemark>

<Placemark>
<name>AVG_Kurucesme_route_1 | Rota 1 | Adım 6 | Servis Edge 372 (330->331)</name>
<styleUrl>#service</styleUrl>
<LineString>
<tessellate>1</tessellate>
<coordinates>
27.1893246,38.3706944,0
27.1900003,38.3707055,0
</coordinates>
</LineString>
</Placemark>

<Placemark>
<name>AVG_Kurucesme_route_1 | Rota 1 | Adım 7 | Travel 331->397</name>
<styleUrl>#travel</styleUrl>
<LineString>
<tessellate>1</tessellate>
<coordinates>
27.189931,38.3709999,0
27.1900003,38.3707055,0
</coordinates>
</LineString>
</Placemark>

<Placemark>
<name>AVG_Kurucesme_route_1 | Rota 1 | Adım 7 | Travel 397->323</name>
<styleUrl>#travel</styleUrl>
<LineString>
<tessellate>1</tessellate>
<coordinates>
27.189931,38.3709999,0
27.1898017,38.3715976,0
</coordinates>
</LineString>
</Placemark>

<Placemark>
<name>AVG_Kurucesme_route_1 | Rota 1 | Adım 7 | Servis Edge 374 (323->324)</name>
<styleUrl>#service</styleUrl>
<LineString>
<tessellate>1</tessellate>
<coordinates>
27.1893497,38.3716901,0
27.1898017,38.3715976,0
</coordinates>
</LineString>
</Placemark>

<Placemark>
<name>AVG_Kurucesme_route_1 | Rota 1 | Adım 8 | Travel 324->323</name>
<styleUrl>#travel</styleUrl>
<LineString>
<tessellate>1</tessellate>
<coordinates>
27.1898017,38.3715976,0
27.1893497,38.3716901,0
</coordinates>
</LineString>
</Placemark>

<Placemark>
<name>AVG_Kurucesme_route_1 | Rota 1 | Adım 8 | Travel 323->397</name>
<styleUrl>#travel</styleUrl>
<LineString>
<tessellate>1</tessellate>
<coordinates>
27.1898017,38.3715976,0
27.189931,38.3709999,0
</coordinates>
</LineString>
</Placemark>

<Placemark>
<name>AVG_Kurucesme_route_1 | Rota 1 | Adım 8 | Travel 397->398</name>
<styleUrl>#travel</styleUrl>
<LineString>
<tessellate>1</tessellate>
<coordinates>
27.189931,38.3709999,0
27.1904973,38.371006,0
</coordinates>
</LineString>
</Placemark>

<Placemark>
<name>AVG_Kurucesme_route_1 | Rota 1 | Adım 8 | Servis Edge 378 (398->399)</name>
<styleUrl>#service</styleUrl>
<LineString>
<tessellate>1</tessellate>
<coordinates>
27.1904973,38.371006,0
27.1916992,38.3708891,0
</coordinates>
</LineString>
</Placemark>

<Placemark>
<name>AVG_Kurucesme_route_1 | Rota 1 | Adım 9 | Travel 399->388</name>
<styleUrl>#travel</styleUrl>
<LineString>
<tessellate>1</tessellate>
<coordinates>
27.1916992,38.3708891,0
27.1917686,38.3716146,0
</coordinates>
</LineString>
</Placemark>

<Placemark>
<name>AVG_Kurucesme_route_1 | Rota 1 | Adım 9 | Travel 388->389</name>
<styleUrl>#travel</styleUrl>
<LineString>
<tessellate>1</tessellate>
<coordinates>
27.1916525,38.3716274,0
27.1917686,38.3716146,0
</coordinates>
</LineString>
</Placemark>

<Placemark>
<name>AVG_Kurucesme_route_1 | Rota 1 | Adım 9 | Servis Edge 381 (389->396)</name>
<styleUrl>#service</styleUrl>
<LineString>
<tessellate>1</tessellate>
<coordinates>
27.1905215,38.3717006,0
27.1912415,38.3716695,0
27.1916525,38.3716274,0
</coordinates>
</LineString>
</Placemark>

<Placemark>
<name>AVG_Kurucesme_route_1 | Rota 1 | Adım 10 | Travel 396->389</name>
<styleUrl>#travel</styleUrl>
<LineString>
<tessellate>1</tessellate>
<coordinates>
27.1916525,38.3716274,0
27.1912415,38.3716695,0
27.1905215,38.3717006,0
</coordinates>
</LineString>
</Placemark>

<Placemark>
<name>AVG_Kurucesme_route_1 | Rota 1 | Adım 10 | Travel 389->390</name>
<styleUrl>#travel</styleUrl>
<LineString>
<tessellate>1</tessellate>
<coordinates>
27.1916209,38.371862,0
27.1916525,38.3716274,0
</coordinates>
</LineString>
</Placemark>

<Placemark>
<name>AVG_Kurucesme_route_1 | Rota 1 | Adım 10 | Servis Edge 383 (390->430)</name>
<styleUrl>#service</styleUrl>
<LineString>
<tessellate>1</tessellate>
<coordinates>
27.1916209,38.371862,0
27.1910668,38.3718872,0
</coordinates>
</LineString>
</Placemark>

<Placemark>
<name>AVG_Kurucesme_route_1 | Rota 1 | Adım 11 | Servis Edge 384 (430->320)</name>
<styleUrl>#service</styleUrl>
<LineString>
<tessellate>1</tessellate>
<coordinates>
27.1910668,38.3718872,0
27.190419,38.3719497,0
</coordinates>
</LineString>
</Placemark>

<Placemark>
<name>AVG_Kurucesme_route_1 | Rota 1 | Adım 12 | Travel 320->321</name>
<styleUrl>#travel</styleUrl>
<LineString>
<tessellate>1</tessellate>
<coordinates>
27.1901273,38.371978,0
27.190419,38.3719497,0
</coordinates>
</LineString>
</Placemark>

<Placemark>
<name>AVG_Kurucesme_route_1 | Rota 1 | Adım 12 | Travel 321->322</name>
<styleUrl>#travel</styleUrl>
<LineString>
<tessellate>1</tessellate>
<coordinates>
27.190119,38.3717152,0
27.1901273,38.371978,0
</coordinates>
</LineString>
</Placemark>

<Placemark>
<name>AVG_Kurucesme_route_1 | Rota 1 | Adım 12 | Travel 322->323</name>
<styleUrl>#travel</styleUrl>
<LineString>
<tessellate>1</tessellate>
<coordinates>
27.1898017,38.3715976,0
27.1898569,38.371656,0
27.18992,38.3716985,0
27.1899421,38.3717038,0
27.190119,38.3717152,0
</coordinates>
</LineString>
</Placemark>

<Placemark>
<name>AVG_Kurucesme_route_1 | Rota 1 | Adım 12 | Travel 323->397</name>
<styleUrl>#travel</styleUrl>
<LineString>
<tessellate>1</tessellate>
<coordinates>
27.1898017,38.3715976,0
27.189931,38.3709999,0
</coordinates>
</LineString>
</Placemark>

<Placemark>
<name>AVG_Kurucesme_route_1 | Rota 1 | Adım 12 | Travel 397->331</name>
<styleUrl>#travel</styleUrl>
<LineString>
<tessellate>1</tessellate>
<coordinates>
27.1900003,38.3707055,0
27.189931,38.3709999,0
</coordinates>
</LineString>
</Placemark>

<Placemark>
<name>AVG_Kurucesme_route_1 | Rota 1 | Adım 12 | Servis Edge 379 (331->400)</name>
<styleUrl>#service</styleUrl>
<LineString>
<tessellate>1</tessellate>
<coordinates>
27.1900003,38.3707055,0
27.1916855,38.3706203,0
</coordinates>
</LineString>
</Placemark>

<Placemark>
<name>AVG_Kurucesme_route_1 | Rota 1 | Adım 13 | Travel 400->399</name>
<styleUrl>#travel</styleUrl>
<LineString>
<tessellate>1</tessellate>
<coordinates>
27.1916855,38.3706203,0
27.1916992,38.3708891,0
</coordinates>
</LineString>
</Placemark>

<Placemark>
<name>AVG_Kurucesme_route_1 | Rota 1 | Adım 13 | Servis Edge 387 (399->388)</name>
<styleUrl>#service</styleUrl>
<LineString>
<tessellate>1</tessellate>
<coordinates>
27.1916992,38.3708891,0
27.1917686,38.3716146,0
</coordinates>
</LineString>
</Placemark>

<Placemark>
<name>AVG_Kurucesme_route_1 | Rota 1 | Adım 14 | Travel 388->387</name>
<styleUrl>#travel</styleUrl>
<LineString>
<tessellate>1</tessellate>
<coordinates>
27.1929382,38.3718764,0
27.192569,38.3718191,0
27.1922833,38.3717303,0
27.1919534,38.3716625,0
27.1917686,38.3716146,0
</coordinates>
</LineString>
</Placemark>

<Placemark>
<name>AVG_Kurucesme_route_1 | Rota 1 | Adım 14 | Servis Edge 393 (387->386)</name>
<styleUrl>#service</styleUrl>
<LineString>
<tessellate>1</tessellate>
<coordinates>
27.1928652,38.371199,0
27.1927838,38.3714239,0
27.1927918,38.3715049,0
27.1928119,38.3716742,0
27.1929382,38.3718764,0
</coordinates>
</LineString>
</Placemark>

<Placemark>
<name>AVG_Kurucesme_route_1 | Rota 1 | Adım 15 | Travel 386->385</name>
<styleUrl>#travel</styleUrl>
<LineString>
<tessellate>1</tessellate>
<coordinates>
27.1929394,38.3711055,0
27.1928652,38.371199,0
</coordinates>
</LineString>
</Placemark>

<Placemark>
<name>AVG_Kurucesme_route_1 | Rota 1 | Adım 15 | Travel 385->384</name>
<styleUrl>#travel</styleUrl>
<LineString>
<tessellate>1</tessellate>
<coordinates>
27.1930251,38.3709013,0
27.1929394,38.3711055,0
</coordinates>
</LineString>
</Placemark>

<Placemark>
<name>AVG_Kurucesme_route_1 | Rota 1 | Adım 15 | Servis Edge 399 (384->383)</name>
<styleUrl>#service</styleUrl>
<LineString>
<tessellate>1</tessellate>
<coordinates>
27.1931324,38.3706497,0
27.1930251,38.3709013,0
</coordinates>
</LineString>
</Placemark>

<Placemark>
<name>AVG_Kurucesme_route_1 | Rota 1 | Adım 16 | Travel 383->382</name>
<styleUrl>#travel</styleUrl>
<LineString>
<tessellate>1</tessellate>
<coordinates>
27.1932361,38.3704181,0
27.1931324,38.3706497,0
</coordinates>
</LineString>
</Placemark>

<Placemark>
<name>AVG_Kurucesme_route_1 | Rota 1 | Adım 16 | Servis Edge 417 (382->381)</name>
<styleUrl>#service</styleUrl>
<LineString>
<tessellate>1</tessellate>
<coordinates>
27.1932873,38.3699882,0
27.193293,38.3701396,0
27.1932723,38.370279,0
27.1932361,38.3704181,0
</coordinates>
</LineString>
</Placemark>

<Placemark>
<name>AVG_Kurucesme_route_1 | Rota 1 | Adım 17 | Travel 381->382</name>
<styleUrl>#travel</styleUrl>
<LineString>
<tessellate>1</tessellate>
<coordinates>
27.1932361,38.3704181,0
27.1932723,38.370279,0
27.193293,38.3701396,0
27.1932873,38.3699882,0
</coordinates>
</LineString>
</Placemark>

<Placemark>
<name>AVG_Kurucesme_route_1 | Rota 1 | Adım 17 | Travel 382->383</name>
<styleUrl>#travel</styleUrl>
<LineString>
<tessellate>1</tessellate>
<coordinates>
27.1931324,38.3706497,0
27.1932361,38.3704181,0
</coordinates>
</LineString>
</Placemark>

<Placemark>
<name>AVG_Kurucesme_route_1 | Rota 1 | Adım 17 | Travel 383->384</name>
<styleUrl>#travel</styleUrl>
<LineString>
<tessellate>1</tessellate>
<coordinates>
27.1930251,38.3709013,0
27.1931324,38.3706497,0
</coordinates>
</LineString>
</Placemark>

<Placemark>
<name>AVG_Kurucesme_route_1 | Rota 1 | Adım 17 | Travel 384->437</name>
<styleUrl>#travel</styleUrl>
<LineString>
<tessellate>1</tessellate>
<coordinates>
27.1925032,38.3708727,0
27.1930251,38.3709013,0
</coordinates>
</LineString>
</Placemark>

<Placemark>
<name>AVG_Kurucesme_route_1 | Rota 1 | Adım 17 | Travel 437->434</name>
<styleUrl>#travel</styleUrl>
<LineString>
<tessellate>1</tessellate>
<coordinates>
27.1925032,38.3708727,0
27.1920495,38.3708881,0
</coordinates>
</LineString>
</Placemark>

<Placemark>
<name>AVG_Kurucesme_route_1 | Rota 1 | Adım 17 | Travel 434->399</name>
<styleUrl>#travel</styleUrl>
<LineString>
<tessellate>1</tessellate>
<coordinates>
27.1920495,38.3708881,0
27.1916992,38.3708891,0
</coordinates>
</LineString>
</Placemark>

<Placemark>
<name>AVG_Kurucesme_route_1 | Rota 1 | Adım 17 | Travel 399->388</name>
<styleUrl>#travel</styleUrl>
<LineString>
<tessellate>1</tessellate>
<coordinates>
27.1916992,38.3708891,0
27.1917686,38.3716146,0
</coordinates>
</LineString>
</Placemark>

<Placemark>
<name>AVG_Kurucesme_route_1 | Rota 1 | Adım 17 | Travel 388->389</name>
<styleUrl>#travel</styleUrl>
<LineString>
<tessellate>1</tessellate>
<coordinates>
27.1916525,38.3716274,0
27.1917686,38.3716146,0
</coordinates>
</LineString>
</Placemark>

<Placemark>
<name>AVG_Kurucesme_route_1 | Rota 1 | Adım 17 | Travel 389->390</name>
<styleUrl>#travel</styleUrl>
<LineString>
<tessellate>1</tessellate>
<coordinates>
27.1916209,38.371862,0
27.1916525,38.3716274,0
</coordinates>
</LineString>
</Placemark>

<Placemark>
<name>AVG_Kurucesme_route_1 | Rota 1 | Adım 17 | Travel 390->391</name>
<styleUrl>#travel</styleUrl>
<LineString>
<tessellate>1</tessellate>
<coordinates>
27.1916028,38.3721771,0
27.1916209,38.371862,0
</coordinates>
</LineString>
</Placemark>

<Placemark>
<name>AVG_Kurucesme_route_1 | Rota 1 | Adım 17 | Travel 391->392</name>
<styleUrl>#travel</styleUrl>
<LineString>
<tessellate>1</tessellate>
<coordinates>
27.1911572,38.3722752,0
27.1916028,38.3721771,0
</coordinates>
</LineString>
</Placemark>

<Placemark>
<name>AVG_Kurucesme_route_1 | Rota 1 | Adım 17 | Servis Edge 440 (392->318)</name>
<styleUrl>#service</styleUrl>
<LineString>
<tessellate>1</tessellate>
<coordinates>
27.1911572,38.3722752,0
27.1907788,38.3723874,0
</coordinates>
</LineString>
</Placemark>

<Placemark>
<name>AVG_Kurucesme_route_1 | Rota 1 | Adım 18 | Travel 318->392</name>
<styleUrl>#travel</styleUrl>
<LineString>
<tessellate>1</tessellate>
<coordinates>
27.1907788,38.3723874,0
27.1911572,38.3722752,0
</coordinates>
</LineString>
</Placemark>

<Placemark>
<name>AVG_Kurucesme_route_1 | Rota 1 | Adım 18 | Travel 392->391</name>
<styleUrl>#travel</styleUrl>
<LineString>
<tessellate>1</tessellate>
<coordinates>
27.1916028,38.3721771,0
27.1911572,38.3722752,0
</coordinates>
</LineString>
</Placemark>

<Placemark>
<name>AVG_Kurucesme_route_1 | Rota 1 | Adım 18 | Travel 391->305</name>
<styleUrl>#travel</styleUrl>
<LineString>
<tessellate>1</tessellate>
<coordinates>
27.1923723,38.3721617,0
27.1920247,38.3721412,0
27.1918564,38.372147,0
27.1916028,38.3721771,0
</coordinates>
</LineString>
</Placemark>

<Placemark>
<name>AVG_Kurucesme_route_1 | Rota 1 | Adım 18 | Servis Edge 441 (305->304)</name>
<styleUrl>#service</styleUrl>
<LineString>
<tessellate>1</tessellate>
<coordinates>
27.1930836,38.3722019,0
27.1923723,38.3721617,0
</coordinates>
</LineString>
</Placemark>

<Placemark>
<name>AVG_Kurucesme_route_1 | Rota 1 | Adım 19 | Travel 304->303</name>
<styleUrl>#travel</styleUrl>
<LineString>
<tessellate>1</tessellate>
<coordinates>
27.193272,38.3722172,0
27.1930836,38.3722019,0
</coordinates>
</LineString>
</Placemark>

<Placemark>
<name>AVG_Kurucesme_route_1 | Rota 1 | Adım 19 | Travel 303->301</name>
<styleUrl>#travel</styleUrl>
<LineString>
<tessellate>1</tessellate>
<coordinates>
27.1939287,38.3717595,0
27.1934735,38.3720196,0
27.193272,38.3722172,0
</coordinates>
</LineString>
</Placemark>

<Placemark>
<name>AVG_Kurucesme_route_1 | Rota 1 | Adım 19 | Travel 301->300</name>
<styleUrl>#travel</styleUrl>
<LineString>
<tessellate>1</tessellate>
<coordinates>
27.1942095,38.371591,0
27.1939287,38.3717595,0
</coordinates>
</LineString>
</Placemark>

<Placemark>
<name>AVG_Kurucesme_route_1 | Rota 1 | Adım 19 | Travel 300->299</name>
<styleUrl>#travel</styleUrl>
<LineString>
<tessellate>1</tessellate>
<coordinates>
27.1942095,38.371591,0
27.1942413,38.3714726,0
</coordinates>
</LineString>
</Placemark>

<Placemark>
<name>AVG_Kurucesme_route_1 | Rota 1 | Adım 19 | Travel 299->298</name>
<styleUrl>#travel</styleUrl>
<LineString>
<tessellate>1</tessellate>
<coordinates>
27.1943795,38.3710345,0
27.1942413,38.3714726,0
</coordinates>
</LineString>
</Placemark>

<Placemark>
<name>AVG_Kurucesme_route_1 | Rota 1 | Adım 19 | Travel 298->224</name>
<styleUrl>#travel</styleUrl>
<LineString>
<tessellate>1</tessellate>
<coordinates>
27.1950147,38.3711632,0
27.1943782,38.3710312,0
</coordinates>
</LineString>
</Placemark>

<Placemark>
<name>AVG_Kurucesme_route_1 | Rota 1 | Adım 19 | Travel 224->223</name>
<styleUrl>#travel</styleUrl>
<LineString>
<tessellate>1</tessellate>
<coordinates>
27.1950147,38.3711632,0
27.1951875,38.3706995,0
</coordinates>
</LineString>
</Placemark>

<Placemark>
<name>AVG_Kurucesme_route_1 | Rota 1 | Adım 19 | Travel 223->222</name>
<styleUrl>#travel</styleUrl>
<LineString>
<tessellate>1</tessellate>
<coordinates>
27.1951875,38.3706995,0
27.1952345,38.3705726,0
27.1953047,38.3704635,0
</coordinates>
</LineString>
</Placemark>

<Placemark>
<name>AVG_Kurucesme_route_1 | Rota 1 | Adım 19 | Travel 222->220</name>
<styleUrl>#travel</styleUrl>
<LineString>
<tessellate>1</tessellate>
<coordinates>
27.1953047,38.3704635,0
27.1953004,38.3704453,0
27.1952974,38.3704335,0
27.1953024,38.3703917,0
27.1953088,38.3703749,0
27.1953222,38.370351,0
27.1953416,38.3703292,0
27.1953681,38.370311,0
27.1953999,38.3702952,0
27.1954149,38.3702872,0
</coordinates>
</LineString>
</Placemark>

<Placemark>
<name>AVG_Kurucesme_route_1 | Rota 1 | Adım 19 | Travel 220->219</name>
<styleUrl>#travel</styleUrl>
<LineString>
<tessellate>1</tessellate>
<coordinates>
27.1954149,38.3702872,0
27.1954911,38.3701157,0
27.1956915,38.3698179,0
27.1958565,38.3694769,0
</coordinates>
</LineString>
</Placemark>

<Placemark>
<name>AVG_Kurucesme_route_1 | Rota 1 | Adım 19 | Travel 219->292</name>
<styleUrl>#travel</styleUrl>
<LineString>
<tessellate>1</tessellate>
<coordinates>
27.1958565,38.3694769,0
27.1946872,38.3692405,0
</coordinates>
</LineString>
</Placemark>

<Placemark>
<name>AVG_Kurucesme_route_1 | Rota 1 | Adım 19 | Travel 292->293</name>
<styleUrl>#travel</styleUrl>
<LineString>
<tessellate>1</tessellate>
<coordinates>
27.194522,38.3692078,0
27.1946872,38.3692405,0
</coordinates>
</LineString>
</Placemark>

<Placemark>
<name>AVG_Kurucesme_route_1 | Rota 1 | Adım 19 | Travel 293->378</name>
<styleUrl>#travel</styleUrl>
<LineString>
<tessellate>1</tessellate>
<coordinates>
27.1941069,38.3690691,0
27.194522,38.3692078,0
</coordinates>
</LineString>
</Placemark>

<Placemark>
<name>AVG_Kurucesme_route_1 | Rota 1 | Adım 19 | Travel 378->377</name>
<styleUrl>#travel</styleUrl>
<LineString>
<tessellate>1</tessellate>
<coordinates>
27.1941069,38.3690691,0
27.1935779,38.3689644,0
</coordinates>
</LineString>
</Placemark>

<Placemark>
<name>AVG_Kurucesme_route_1 | Rota 1 | Adım 19 | Travel 377->417</name>
<styleUrl>#travel</styleUrl>
<LineString>
<tessellate>1</tessellate>
<coordinates>
27.1934631,38.3689645,0
27.1935779,38.3689644,0
</coordinates>
</LineString>
</Placemark>

<Placemark>
<name>AVG_Kurucesme_route_1 | Rota 1 | Adım 19 | Travel 417->416</name>
<styleUrl>#travel</styleUrl>
<LineString>
<tessellate>1</tessellate>
<coordinates>
27.1934631,38.3689645,0
27.1934391,38.3689081,0
</coordinates>
</LineString>
</Placemark>

<Placemark>
<name>AVG_Kurucesme_route_1 | Rota 1 | Adım 19 | Travel 416->415</name>
<styleUrl>#travel</styleUrl>
<LineString>
<tessellate>1</tessellate>
<coordinates>
27.1934391,38.3689081,0
27.1934103,38.3687976,0
27.1932366,38.3684319,0
</coordinates>
</LineString>
</Placemark>

<Placemark>
<name>AVG_Kurucesme_route_1 | Rota 1 | Adım 19 | Travel 415->414</name>
<styleUrl>#travel</styleUrl>
<LineString>
<tessellate>1</tessellate>
<coordinates>
27.1932366,38.3684319,0
27.1930287,38.3681329,0
27.192884,38.3679674,0
</coordinates>
</LineString>
</Placemark>

<Placemark>
<name>AVG_Kurucesme_route_1 | Rota 1 | Adım 19 | Travel 414->358</name>
<styleUrl>#travel</styleUrl>
<LineString>
<tessellate>1</tessellate>
<coordinates>
27.192884,38.3679674,0
27.1926219,38.3678308,0
</coordinates>
</LineString>
</Placemark>

<Placemark>
<name>AVG_Kurucesme_route_1 | Rota 1 | Adım 19 | Travel 358->357</name>
<styleUrl>#travel</styleUrl>
<LineString>
<tessellate>1</tessellate>
<coordinates>
27.1926219,38.3678308,0
27.1923688,38.3676874,0
</coordinates>
</LineString>
</Placemark>

<Placemark>
<name>AVG_Kurucesme_route_1 | Rota 1 | Adım 19 | Travel 357->271</name>
<styleUrl>#travel</styleUrl>
<LineString>
<tessellate>1</tessellate>
<coordinates>
27.1923688,38.3676874,0
27.192495,38.3674693,0
</coordinates>
</LineString>
</Placemark>

<Placemark>
<name>AVG_Kurucesme_route_1 | Rota 1 | Adım 19 | Travel 271->270</name>
<styleUrl>#travel</styleUrl>
<LineString>
<tessellate>1</tessellate>
<coordinates>
27.192495,38.3674693,0
27.1922855,38.3673133,0
27.1918187,38.3670256,0
27.191368,38.3667887,0
</coordinates>
</LineString>
</Placemark>

<Placemark>
<name>AVG_Kurucesme_route_1 | Rota 1 | Adım 19 | Travel 270->269</name>
<styleUrl>#travel</styleUrl>
<LineString>
<tessellate>1</tessellate>
<coordinates>
27.191368,38.3667887,0
27.1912595,38.3667144,0
27.1909953,38.366501,0
27.1908376,38.3663476,0
</coordinates>
</LineString>
</Placemark>

<Placemark>
<name>AVG_Kurucesme_route_1 | Rota 1 | Adım 19 | Travel 269->206</name>
<styleUrl>#travel</styleUrl>
<LineString>
<tessellate>1</tessellate>
<coordinates>
27.1912309,38.3662023,0
27.1910771,38.3662412,0
27.1908376,38.3663476,0
</coordinates>
</LineString>
</Placemark>

<Placemark>
<name>AVG_Kurucesme_route_1 | Rota 1 | Adım 19 | Servis Edge 457 (206->205)</name>
<styleUrl>#service</styleUrl>
<LineString>
<tessellate>1</tessellate>
<coordinates>
27.1912338,38.3662014,0
27.19121,38.3661899,0
27.191164,38.366178,0
27.1911355,38.3661602,0
27.1911129,38.3661336,0
27.1911009,38.366099,0
27.1910903,38.366042,0
27.1910752,38.3660191,0
27.1910346,38.3659986,0
27.1909971,38.3659926,0
27.1909173,38.3659915,0
27.1907979,38.3659857,0
27.1907054,38.3659849,0
27.1906722,38.3659881,0
27.190577,38.366011,0
27.1905241,38.3660351,0
</coordinates>
</LineString>
</Placemark>

<Placemark>
<name>AVG_Kurucesme_route_1 | Rota 1 | Adım 20 | Travel 205->206</name>
<styleUrl>#travel</styleUrl>
<LineString>
<tessellate>1</tessellate>
<coordinates>
27.1905241,38.3660351,0
27.190577,38.366011,0
27.1906722,38.3659881,0
27.1907054,38.3659849,0
27.1907979,38.3659857,0
27.1909173,38.3659915,0
27.1909971,38.3659926,0
27.1910346,38.3659986,0
27.1910752,38.3660191,0
27.1910903,38.366042,0
27.1911009,38.366099,0
27.1911129,38.3661336,0
27.1911355,38.3661602,0
27.191164,38.366178,0
27.19121,38.3661899,0
27.1912338,38.3662014,0
</coordinates>
</LineString>
</Placemark>

<Placemark>
<name>AVG_Kurucesme_route_1 | Rota 1 | Adım 20 | Servis Edge 460 (206->207)</name>
<styleUrl>#service</styleUrl>
<LineString>
<tessellate>1</tessellate>
<coordinates>
27.1912309,38.3662023,0
27.1913975,38.3661845,0
27.1919168,38.3661209,0
27.1921507,38.3660926,0
</coordinates>
</LineString>
</Placemark>

<Placemark>
<name>AVG_Kurucesme_route_1 | Rota 1 | Adım 21 | Servis Edge 461 (207->208)</name>
<styleUrl>#service</styleUrl>
<LineString>
<tessellate>1</tessellate>
<coordinates>
27.1921507,38.3660926,0
27.192271,38.3660735,0
27.192697,38.3659582,0
</coordinates>
</LineString>
</Placemark>

<Placemark>
<name>AVG_Kurucesme_route_1 | Rota 1 | Adım 22 | Travel 208->274</name>
<styleUrl>#travel</styleUrl>
<LineString>
<tessellate>1</tessellate>
<coordinates>
27.1927245,38.3662968,0
27.192697,38.3659582,0
</coordinates>
</LineString>
</Placemark>

<Placemark>
<name>AVG_Kurucesme_route_1 | Rota 1 | Adım 22 | Travel 274->273</name>
<styleUrl>#travel</styleUrl>
<LineString>
<tessellate>1</tessellate>
<coordinates>
27.1927285,38.366972,0
27.1927287,38.3669119,0
27.1927357,38.3668785,0
27.1927491,38.3666907,0
27.1927417,38.3665504,0
27.1927249,38.3664647,0
27.1927142,38.3663853,0
27.1927156,38.3663249,0
27.1927245,38.3662968,0
</coordinates>
</LineString>
</Placemark>

<Placemark>
<name>AVG_Kurucesme_route_1 | Rota 1 | Adım 22 | Travel 273->272</name>
<styleUrl>#travel</styleUrl>
<LineString>
<tessellate>1</tessellate>
<coordinates>
27.1927557,38.3670746,0
27.1927285,38.366972,0
</coordinates>
</LineString>
</Placemark>

<Placemark>
<name>AVG_Kurucesme_route_1 | Rota 1 | Adım 22 | Travel 272->271</name>
<styleUrl>#travel</styleUrl>
<LineString>
<tessellate>1</tessellate>
<coordinates>
27.1927557,38.3670746,0
27.192495,38.3674693,0
</coordinates>
</LineString>
</Placemark>

<Placemark>
<name>AVG_Kurucesme_route_1 | Rota 1 | Adım 22 | Travel 271->357</name>
<styleUrl>#travel</styleUrl>
<LineString>
<tessellate>1</tessellate>
<coordinates>
27.192495,38.3674693,0
27.1923688,38.3676874,0
</coordinates>
</LineString>
</Placemark>

<Placemark>
<name>AVG_Kurucesme_route_1 | Rota 1 | Adım 22 | Travel 357->356</name>
<styleUrl>#travel</styleUrl>
<LineString>
<tessellate>1</tessellate>
<coordinates>
27.1923688,38.3676874,0
27.1921352,38.3677416,0
27.1918791,38.3675828,0
27.1916764,38.3674992,0
</coordinates>
</LineString>
</Placemark>

<Placemark>
<name>AVG_Kurucesme_route_1 | Rota 1 | Adım 22 | Travel 356->355</name>
<styleUrl>#travel</styleUrl>
<LineString>
<tessellate>1</tessellate>
<coordinates>
27.1916764,38.3674992,0
27.1916049,38.3674365,0
</coordinates>
</LineString>
</Placemark>

<Placemark>
<name>AVG_Kurucesme_route_1 | Rota 1 | Adım 22 | Servis Edge 464 (355->354)</name>
<styleUrl>#service</styleUrl>
<LineString>
<tessellate>1</tessellate>
<coordinates>
27.1916049,38.3674365,0
27.1910387,38.3670973,0
</coordinates>
</LineString>
</Placemark>

<Placemark>
<name>AVG_Kurucesme_route_1 | Rota 1 | Adım 23 | Travel 354->270</name>
<styleUrl>#travel</styleUrl>
<LineString>
<tessellate>1</tessellate>
<coordinates>
27.191368,38.3667887,0
27.1910387,38.3670973,0
</coordinates>
</LineString>
</Placemark>

<Placemark>
<name>AVG_Kurucesme_route_1 | Rota 1 | Adım 23 | Servis Edge 465 (270->271)</name>
<styleUrl>#service</styleUrl>
<LineString>
<tessellate>1</tessellate>
<coordinates>
27.191368,38.3667887,0
27.1918187,38.3670256,0
27.1922855,38.3673133,0
27.192495,38.3674693,0
</coordinates>
</LineString>
</Placemark>

<Placemark>
<name>AVG_Kurucesme_route_1 | Rota 1 | Adım 24 | Travel 271->272</name>
<styleUrl>#travel</styleUrl>
<LineString>
<tessellate>1</tessellate>
<coordinates>
27.192495,38.3674693,0
27.1927557,38.3670746,0
</coordinates>
</LineString>
</Placemark>

<Placemark>
<name>AVG_Kurucesme_route_1 | Rota 1 | Adım 24 | Travel 272->273</name>
<styleUrl>#travel</styleUrl>
<LineString>
<tessellate>1</tessellate>
<coordinates>
27.1927285,38.366972,0
27.1927557,38.3670746,0
</coordinates>
</LineString>
</Placemark>

<Placemark>
<name>AVG_Kurucesme_route_1 | Rota 1 | Adım 24 | Travel 273->274</name>
<styleUrl>#travel</styleUrl>
<LineString>
<tessellate>1</tessellate>
<coordinates>
27.1927245,38.3662968,0
27.1927156,38.3663249,0
27.1927142,38.3663853,0
27.1927249,38.3664647,0
27.1927417,38.3665504,0
27.1927491,38.3666907,0
27.1927357,38.3668785,0
27.1927287,38.3669119,0
27.1927285,38.366972,0
</coordinates>
</LineString>
</Placemark>

<Placemark>
<name>AVG_Kurucesme_route_1 | Rota 1 | Adım 24 | Servis Edge 466 (274->208)</name>
<styleUrl>#service</styleUrl>
<LineString>
<tessellate>1</tessellate>
<coordinates>
27.192697,38.3659582,0
27.1927245,38.3662968,0
</coordinates>
</LineString>
</Placemark>

<Placemark>
<name>AVG_Kurucesme_route_1 | Rota 1 | Adım 25 | Travel 208->274</name>
<styleUrl>#travel</styleUrl>
<LineString>
<tessellate>1</tessellate>
<coordinates>
27.1927245,38.3662968,0
27.192697,38.3659582,0
</coordinates>
</LineString>
</Placemark>

<Placemark>
<name>AVG_Kurucesme_route_1 | Rota 1 | Adım 25 | Servis Edge 467 (274->273)</name>
<styleUrl>#service</styleUrl>
<LineString>
<tessellate>1</tessellate>
<coordinates>
27.1927285,38.366972,0
27.1927287,38.3669119,0
27.1927357,38.3668785,0
27.1927491,38.3666907,0
27.1927417,38.3665504,0
27.1927249,38.3664647,0
27.1927142,38.3663853,0
27.1927156,38.3663249,0
27.1927245,38.3662968,0
</coordinates>
</LineString>
</Placemark>

<Placemark>
<name>AVG_Kurucesme_route_1 | Rota 1 | Adım 26 | Travel 273->272</name>
<styleUrl>#travel</styleUrl>
<LineString>
<tessellate>1</tessellate>
<coordinates>
27.1927557,38.3670746,0
27.1927285,38.366972,0
</coordinates>
</LineString>
</Placemark>

<Placemark>
<name>AVG_Kurucesme_route_1 | Rota 1 | Adım 26 | Travel 272->360</name>
<styleUrl>#travel</styleUrl>
<LineString>
<tessellate>1</tessellate>
<coordinates>
27.1927557,38.3670746,0
27.1931509,38.3671704,0
27.1932668,38.3672133,0
</coordinates>
</LineString>
</Placemark>

<Placemark>
<name>AVG_Kurucesme_route_1 | Rota 1 | Adım 26 | Servis Edge 470 (360->359)</name>
<styleUrl>#service</styleUrl>
<LineString>
<tessellate>1</tessellate>
<coordinates>
27.1930366,38.3673984,0
27.1932668,38.3672133,0
</coordinates>
</LineString>
</Placemark>

<Placemark>
<name>AVG_Kurucesme_route_1 | Rota 1 | Adım 27 | Travel 359->360</name>
<styleUrl>#travel</styleUrl>
<LineString>
<tessellate>1</tessellate>
<coordinates>
27.1932668,38.3672133,0
27.1930366,38.3673984,0
</coordinates>
</LineString>
</Placemark>

<Placemark>
<name>AVG_Kurucesme_route_1 | Rota 1 | Adım 27 | Travel 360->361</name>
<styleUrl>#travel</styleUrl>
<LineString>
<tessellate>1</tessellate>
<coordinates>
27.1932668,38.3672133,0
27.1938364,38.3669421,0
</coordinates>
</LineString>
</Placemark>

<Placemark>
<name>AVG_Kurucesme_route_1 | Rota 1 | Adım 27 | Travel 361->362</name>
<styleUrl>#travel</styleUrl>
<LineString>
<tessellate>1</tessellate>
<coordinates>
27.1938364,38.3669421,0
27.1944016,38.3667041,0
</coordinates>
</LineString>
</Placemark>

<Placemark>
<name>AVG_Kurucesme_route_1 | Rota 1 | Adım 27 | Travel 362->363</name>
<styleUrl>#travel</styleUrl>
<LineString>
<tessellate>1</tessellate>
<coordinates>
27.1944016,38.3667041,0
27.1947001,38.3666816,0
27.1949096,38.3666688,0
27.1949985,38.3666759,0
</coordinates>
</LineString>
</Placemark>

<Placemark>
<name>AVG_Kurucesme_route_1 | Rota 1 | Adım 27 | Travel 363->373</name>
<styleUrl>#travel</styleUrl>
<LineString>
<tessellate>1</tessellate>
<coordinates>
27.1949985,38.3666759,0
27.195299,38.3667084,0
</coordinates>
</LineString>
</Placemark>

<Placemark>
<name>AVG_Kurucesme_route_1 | Rota 1 | Adım 27 | Travel 373->365</name>
<styleUrl>#travel</styleUrl>
<LineString>
<tessellate>1</tessellate>
<coordinates>
27.1953843,38.3662298,0
27.1953566,38.3663476,0
27.1953441,38.3664084,0
27.195337,38.3664691,0
27.195299,38.3667084,0
</coordinates>
</LineString>
</Placemark>

<Placemark>
<name>AVG_Kurucesme_route_1 | Rota 1 | Adım 27 | Servis Edge 507 (365->366)</name>
<styleUrl>#service</styleUrl>
<LineString>
<tessellate>1</tessellate>
<coordinates>
27.1953843,38.3662298,0
27.1954126,38.3660623,0
</coordinates>
</LineString>
</Placemark>

<Placemark>
<name>AVG_Kurucesme_route_1 | Rota 1 | Adım 28 | Travel 366->368</name>
<styleUrl>#travel</styleUrl>
<LineString>
<tessellate>1</tessellate>
<coordinates>
27.1954126,38.3660623,0
27.1957991,38.3660605,0
27.195947,38.3660658,0
27.1962374,38.3660967,0
</coordinates>
</LineString>
</Placemark>

<Placemark>
<name>AVG_Kurucesme_route_1 | Rota 1 | Adım 28 | Servis Edge 511 (368->370)</name>
<styleUrl>#service</styleUrl>
<LineString>
<tessellate>1</tessellate>
<coordinates>
27.196191,38.3664682,0
27.1962284,38.3662712,0
27.1962374,38.3660967,0
</coordinates>
</LineString>
</Placemark>

<Placemark>
<name>AVG_Kurucesme_route_1 | Rota 1 | Adım 29 | Travel 370->436</name>
<styleUrl>#travel</styleUrl>
<LineString>
<tessellate>1</tessellate>
<coordinates>
27.1956623,38.3664666,0
27.196191,38.3664682,0
</coordinates>
</LineString>
</Placemark>

<Placemark>
<name>AVG_Kurucesme_route_1 | Rota 1 | Adım 29 | Travel 436->372</name>
<styleUrl>#travel</styleUrl>
<LineString>
<tessellate>1</tessellate>
<coordinates>
27.1958813,38.366736,0
27.1956623,38.3664666,0
</coordinates>
</LineString>
</Placemark>

<Placemark>
<name>AVG_Kurucesme_route_1 | Rota 1 | Adım 29 | Travel 372->373</name>
<styleUrl>#travel</styleUrl>
<LineString>
<tessellate>1</tessellate>
<coordinates>
27.195299,38.3667084,0
27.1956218,38.3667419,0
27.1958813,38.366736,0
</coordinates>
</LineString>
</Placemark>

<Placemark>
<name>AVG_Kurucesme_route_1 | Rota 1 | Adım 29 | Travel 373->363</name>
<styleUrl>#travel</styleUrl>
<LineString>
<tessellate>1</tessellate>
<coordinates>
27.195299,38.3667084,0
27.1949985,38.3666759,0
</coordinates>
</LineString>
</Placemark>

<Placemark>
<name>AVG_Kurucesme_route_1 | Rota 1 | Adım 29 | Travel 363->362</name>
<styleUrl>#travel</styleUrl>
<LineString>
<tessellate>1</tessellate>
<coordinates>
27.1949985,38.3666759,0
27.1949096,38.3666688,0
27.1947001,38.3666816,0
27.1944016,38.3667041,0
</coordinates>
</LineString>
</Placemark>

<Placemark>
<name>AVG_Kurucesme_route_1 | Rota 1 | Adım 29 | Travel 362->361</name>
<styleUrl>#travel</styleUrl>
<LineString>
<tessellate>1</tessellate>
<coordinates>
27.1944016,38.3667041,0
27.1938364,38.3669421,0
</coordinates>
</LineString>
</Placemark>

<Placemark>
<name>AVG_Kurucesme_route_1 | Rota 1 | Adım 29 | Travel 361->360</name>
<styleUrl>#travel</styleUrl>
<LineString>
<tessellate>1</tessellate>
<coordinates>
27.1938364,38.3669421,0
27.1932668,38.3672133,0
</coordinates>
</LineString>
</Placemark>

<Placemark>
<name>AVG_Kurucesme_route_1 | Rota 1 | Adım 29 | Travel 360->359</name>
<styleUrl>#travel</styleUrl>
<LineString>
<tessellate>1</tessellate>
<coordinates>
27.1930366,38.3673984,0
27.1932668,38.3672133,0
</coordinates>
</LineString>
</Placemark>

<Placemark>
<name>AVG_Kurucesme_route_1 | Rota 1 | Adım 29 | Travel 359->358</name>
<styleUrl>#travel</styleUrl>
<LineString>
<tessellate>1</tessellate>
<coordinates>
27.1930366,38.3673984,0
27.1928936,38.3675453,0
27.1926219,38.3678308,0
</coordinates>
</LineString>
</Placemark>

<Placemark>
<name>AVG_Kurucesme_route_1 | Rota 1 | Adım 29 | Travel 358->414</name>
<styleUrl>#travel</styleUrl>
<LineString>
<tessellate>1</tessellate>
<coordinates>
27.1926219,38.3678308,0
27.192884,38.3679674,0
</coordinates>
</LineString>
</Placemark>

<Placemark>
<name>AVG_Kurucesme_route_1 | Rota 1 | Adım 29 | Servis Edge 482 (414->413)</name>
<styleUrl>#service</styleUrl>
<LineString>
<tessellate>1</tessellate>
<coordinates>
27.192884,38.3679674,0
27.1925862,38.3681519,0
27.1921633,38.3683595,0
</coordinates>
</LineString>
</Placemark>

<Placemark>
<name>AVG_Kurucesme_route_1 | Rota 1 | Adım 30 | Travel 413->425</name>
<styleUrl>#travel</styleUrl>
<LineString>
<tessellate>1</tessellate>
<coordinates>
27.1921633,38.3683595,0
27.1924449,38.3686765,0
27.1925811,38.3688718,0
</coordinates>
</LineString>
</Placemark>

<Placemark>
<name>AVG_Kurucesme_route_1 | Rota 1 | Adım 30 | Travel 425->418</name>
<styleUrl>#travel</styleUrl>
<LineString>
<tessellate>1</tessellate>
<coordinates>
27.1926278,38.3690486,0
27.1925811,38.3688718,0
</coordinates>
</LineString>
</Placemark>

<Placemark>
<name>AVG_Kurucesme_route_1 | Rota 1 | Adım 30 | Travel 418->416</name>
<styleUrl>#travel</styleUrl>
<LineString>
<tessellate>1</tessellate>
<coordinates>
27.1934391,38.3689081,0
27.1926278,38.3690486,0
</coordinates>
</LineString>
</Placemark>

<Placemark>
<name>AVG_Kurucesme_route_1 | Rota 1 | Adım 30 | Travel 416->417</name>
<styleUrl>#travel</styleUrl>
<LineString>
<tessellate>1</tessellate>
<coordinates>
27.1934391,38.3689081,0
27.1934631,38.3689645,0
</coordinates>
</LineString>
</Placemark>

<Placemark>
<name>AVG_Kurucesme_route_1 | Rota 1 | Adım 30 | Travel 417->377</name>
<styleUrl>#travel</styleUrl>
<LineString>
<tessellate>1</tessellate>
<coordinates>
27.1935779,38.3689644,0
27.1934631,38.3689645,0
</coordinates>
</LineString>
</Placemark>

<Placemark>
<name>AVG_Kurucesme_route_1 | Rota 1 | Adım 30 | Travel 377->378</name>
<styleUrl>#travel</styleUrl>
<LineString>
<tessellate>1</tessellate>
<coordinates>
27.1935779,38.3689644,0
27.1941069,38.3690691,0
</coordinates>
</LineString>
</Placemark>

<Placemark>
<name>AVG_Kurucesme_route_1 | Rota 1 | Adım 30 | Servis Edge 491 (378->379)</name>
<styleUrl>#service</styleUrl>
<LineString>
<tessellate>1</tessellate>
<coordinates>
27.1933398,38.3695486,0
27.1937933,38.3696262,0
27.1938174,38.3696278,0
27.1938402,38.3696209,0
27.1938596,38.3696107,0
27.1941069,38.3690691,0
</coordinates>
</LineString>
</Placemark>

<Placemark>
<name>AVG_Kurucesme_route_1 | Rota 1 | Adım 31 | Travel 379->417</name>
<styleUrl>#travel</styleUrl>
<LineString>
<tessellate>1</tessellate>
<coordinates>
27.1934631,38.3689645,0
27.1933398,38.3695486,0
</coordinates>
</LineString>
</Placemark>

<Placemark>
<name>AVG_Kurucesme_route_1 | Rota 1 | Adım 31 | Travel 417->416</name>
<styleUrl>#travel</styleUrl>
<LineString>
<tessellate>1</tessellate>
<coordinates>
27.1934631,38.3689645,0
27.1934391,38.3689081,0
</coordinates>
</LineString>
</Placemark>

<Placemark>
<name>AVG_Kurucesme_route_1 | Rota 1 | Adım 31 | Travel 416->418</name>
<styleUrl>#travel</styleUrl>
<LineString>
<tessellate>1</tessellate>
<coordinates>
27.1926278,38.3690486,0
27.1934391,38.3689081,0
</coordinates>
</LineString>
</Placemark>

<Placemark>
<name>AVG_Kurucesme_route_1 | Rota 1 | Adım 31 | Travel 418->425</name>
<styleUrl>#travel</styleUrl>
<LineString>
<tessellate>1</tessellate>
<coordinates>
27.1925811,38.3688718,0
27.1926278,38.3690486,0
</coordinates>
</LineString>
</Placemark>

<Placemark>
<name>AVG_Kurucesme_route_1 | Rota 1 | Adım 31 | Servis Edge 493 (425->413)</name>
<styleUrl>#service</styleUrl>
<LineString>
<tessellate>1</tessellate>
<coordinates>
27.1925811,38.3688718,0
27.1924449,38.3686765,0
27.1921633,38.3683595,0
</coordinates>
</LineString>
</Placemark>

<Placemark>
<name>AVG_Kurucesme_route_1 | Rota 1 | Adım 32 | Travel 413->414</name>
<styleUrl>#travel</styleUrl>
<LineString>
<tessellate>1</tessellate>
<coordinates>
27.1921633,38.3683595,0
27.1925862,38.3681519,0
27.192884,38.3679674,0
</coordinates>
</LineString>
</Placemark>

<Placemark>
<name>AVG_Kurucesme_route_1 | Rota 1 | Adım 32 | Travel 414->415</name>
<styleUrl>#travel</styleUrl>
<LineString>
<tessellate>1</tessellate>
<coordinates>
27.192884,38.3679674,0
27.1930287,38.3681329,0
27.1932366,38.3684319,0
</coordinates>
</LineString>
</Placemark>

<Placemark>
<name>AVG_Kurucesme_route_1 | Rota 1 | Adım 32 | Travel 415->376</name>
<styleUrl>#travel</styleUrl>
<LineString>
<tessellate>1</tessellate>
<coordinates>
27.1939535,38.368147,0
27.1937208,38.3681983,0
27.1932366,38.3684319,0
</coordinates>
</LineString>
</Placemark>

<Placemark>
<name>AVG_Kurucesme_route_1 | Rota 1 | Adım 32 | Travel 376->375</name>
<styleUrl>#travel</styleUrl>
<LineString>
<tessellate>1</tessellate>
<coordinates>
27.1951435,38.3679266,0
27.1946797,38.3679995,0
27.1939535,38.368147,0
</coordinates>
</LineString>
</Placemark>

<Placemark>
<name>AVG_Kurucesme_route_1 | Rota 1 | Adım 32 | Travel 375->374</name>
<styleUrl>#travel</styleUrl>
<LineString>
<tessellate>1</tessellate>
<coordinates>
27.195232,38.3674502,0
27.1951435,38.3679266,0
</coordinates>
</LineString>
</Placemark>

<Placemark>
<name>AVG_Kurucesme_route_1 | Rota 1 | Adım 32 | Servis Edge 501 (374->373)</name>
<styleUrl>#service</styleUrl>
<LineString>
<tessellate>1</tessellate>
<coordinates>
27.195299,38.3667084,0
27.195232,38.3674502,0
</coordinates>
</LineString>
</Placemark>

<Placemark>
<name>AVG_Kurucesme_route_1 | Rota 1 | Adım 33 | Travel 373->365</name>
<styleUrl>#travel</styleUrl>
<LineString>
<tessellate>1</tessellate>
<coordinates>
27.1953843,38.3662298,0
27.1953566,38.3663476,0
27.1953441,38.3664084,0
27.195337,38.3664691,0
27.195299,38.3667084,0
</coordinates>
</LineString>
</Placemark>

<Placemark>
<name>AVG_Kurucesme_route_1 | Rota 1 | Adım 33 | Servis Edge 504 (365->436)</name>
<styleUrl>#service</styleUrl>
<LineString>
<tessellate>1</tessellate>
<coordinates>
27.1953843,38.3662298,0
27.1956623,38.3664666,0
</coordinates>
</LineString>
</Placemark>

<Placemark>
<name>AVG_Kurucesme_route_1 | Rota 1 | Adım 34 | Travel 436->365</name>
<styleUrl>#travel</styleUrl>
<LineString>
<tessellate>1</tessellate>
<coordinates>
27.1956623,38.3664666,0
27.1953843,38.3662298,0
</coordinates>
</LineString>
</Placemark>

<Placemark>
<name>AVG_Kurucesme_route_1 | Rota 1 | Adım 34 | Travel 365->366</name>
<styleUrl>#travel</styleUrl>
<LineString>
<tessellate>1</tessellate>
<coordinates>
27.1953843,38.3662298,0
27.1954126,38.3660623,0
</coordinates>
</LineString>
</Placemark>

<Placemark>
<name>AVG_Kurucesme_route_1 | Rota 1 | Adım 34 | Servis Edge 508 (366->368)</name>
<styleUrl>#service</styleUrl>
<LineString>
<tessellate>1</tessellate>
<coordinates>
27.1954126,38.3660623,0
27.1957991,38.3660605,0
27.195947,38.3660658,0
27.1962374,38.3660967,0
</coordinates>
</LineString>
</Placemark>

<Placemark>
<name>AVG_Kurucesme_route_1 | Rota 1 | Adım 35 | Travel 368->366</name>
<styleUrl>#travel</styleUrl>
<LineString>
<tessellate>1</tessellate>
<coordinates>
27.1962374,38.3660967,0
27.195947,38.3660658,0
27.1957991,38.3660605,0
27.1954126,38.3660623,0
</coordinates>
</LineString>
</Placemark>

<Placemark>
<name>AVG_Kurucesme_route_1 | Rota 1 | Adım 35 | Servis Edge 509 (366->367)</name>
<styleUrl>#service</styleUrl>
<LineString>
<tessellate>1</tessellate>
<coordinates>
27.1954126,38.3660623,0
27.1954501,38.3658498,0
27.1954566,38.3657791,0
</coordinates>
</LineString>
</Placemark>

<Placemark>
<name>AVG_Kurucesme_route_1 | Rota 1 | Adım 36 | Travel 367->279</name>
<styleUrl>#travel</styleUrl>
<LineString>
<tessellate>1</tessellate>
<coordinates>
27.1954805,38.3656761,0
27.1954566,38.3657791,0
</coordinates>
</LineString>
</Placemark>

<Placemark>
<name>AVG_Kurucesme_route_1 | Rota 1 | Adım 36 | Travel 279->280</name>
<styleUrl>#travel</styleUrl>
<LineString>
<tessellate>1</tessellate>
<coordinates>
27.1954805,38.3656761,0
27.1955705,38.3655856,0
27.1957116,38.3654966,0
</coordinates>
</LineString>
</Placemark>

<Placemark>
<name>AVG_Kurucesme_route_1 | Rota 1 | Adım 36 | Travel 280->210</name>
<styleUrl>#travel</styleUrl>
<LineString>
<tessellate>1</tessellate>
<coordinates>
27.1957116,38.3654966,0
27.1953193,38.365074,0
</coordinates>
</LineString>
</Placemark>

<Placemark>
<name>AVG_Kurucesme_route_1 | Rota 1 | Adım 36 | Servis Edge 529 (210->209)</name>
<styleUrl>#service</styleUrl>
<LineString>
<tessellate>1</tessellate>
<coordinates>
27.1953193,38.365074,0
27.194605,38.3653438,0
27.1942859,38.3654027,0
27.1941097,38.365419,0
</coordinates>
</LineString>
</Placemark>

<Placemark>
<name>AVG_Kurucesme_route_1 | Rota 1 | Adım 37 | Travel 209->210</name>
<styleUrl>#travel</styleUrl>
<LineString>
<tessellate>1</tessellate>
<coordinates>
27.1941097,38.365419,0
27.1942859,38.3654027,0
27.194605,38.3653438,0
27.1953193,38.365074,0
</coordinates>
</LineString>
</Placemark>

<Placemark>
<name>AVG_Kurucesme_route_1 | Rota 1 | Adım 37 | Servis Edge 531 (210->211)</name>
<styleUrl>#service</styleUrl>
<LineString>
<tessellate>1</tessellate>
<coordinates>
27.1953193,38.365074,0
27.1957922,38.3648888,0
27.1961328,38.3647763,0
27.1964158,38.36472,0
27.1966994,38.3646969,0
27.1969281,38.3647027,0
27.197024,38.3647237,0
27.1971078,38.3647742,0
27.1971226,38.3647942,0
27.1971333,38.3648115,0
27.1971608,38.3649256,0
27.1971574,38.3650571,0
</coordinates>
</LineString>
</Placemark>

<Placemark>
<name>AVG_Kurucesme_route_1 | Rota 1 | Adım 38 | Travel 211->281</name>
<styleUrl>#travel</styleUrl>
<LineString>
<tessellate>1</tessellate>
<coordinates>
27.196291,38.3652125,0
27.1963526,38.3651527,0
27.1965042,38.3650691,0
27.1967288,38.3649855,0
27.1969025,38.3649839,0
27.19705,38.3650108,0
27.1971574,38.3650571,0
</coordinates>
</LineString>
</Placemark>

<Placemark>
<name>AVG_Kurucesme_route_1 | Rota 1 | Adım 38 | Travel 281->280</name>
<styleUrl>#travel</styleUrl>
<LineString>
<tessellate>1</tessellate>
<coordinates>
27.196291,38.3652125,0
27.1957116,38.3654966,0
</coordinates>
</LineString>
</Placemark>

<Placemark>
<name>AVG_Kurucesme_route_1 | Rota 1 | Adım 38 | Travel 280->279</name>
<styleUrl>#travel</styleUrl>
<LineString>
<tessellate>1</tessellate>
<coordinates>
27.1957116,38.3654966,0
27.1955705,38.3655856,0
27.1954805,38.3656761,0
</coordinates>
</LineString>
</Placemark>

<Placemark>
<name>AVG_Kurucesme_route_1 | Rota 1 | Adım 38 | Servis Edge 535 (279->278)</name>
<styleUrl>#service</styleUrl>
<LineString>
<tessellate>1</tessellate>
<coordinates>
27.1954805,38.3656761,0
27.1952853,38.3655917,0
27.1951794,38.3655717,0
27.1951314,38.3655701,0
27.195106,38.365573,0
27.1950506,38.3655967,0
27.1949594,38.3656445,0
27.1949249,38.365676,0
27.1949098,38.3656986,0
27.1949017,38.3657241,0
27.1948816,38.3658658,0
</coordinates>
</LineString>
</Placemark>

<Placemark>
<name>AVG_Kurucesme_route_1 | Rota 1 | Adım 39 | Travel 278->279</name>
<styleUrl>#travel</styleUrl>
<LineString>
<tessellate>1</tessellate>
<coordinates>
27.1948816,38.3658658,0
27.1949017,38.3657241,0
27.1949098,38.3656986,0
27.1949249,38.365676,0
27.1949594,38.3656445,0
27.1950506,38.3655967,0
27.195106,38.365573,0
27.1951314,38.3655701,0
27.1951794,38.3655717,0
27.1952853,38.3655917,0
27.1954805,38.3656761,0
</coordinates>
</LineString>
</Placemark>

<Placemark>
<name>AVG_Kurucesme_route_1 | Rota 1 | Adım 39 | Travel 279->280</name>
<styleUrl>#travel</styleUrl>
<LineString>
<tessellate>1</tessellate>
<coordinates>
27.1954805,38.3656761,0
27.1955705,38.3655856,0
27.1957116,38.3654966,0
</coordinates>
</LineString>
</Placemark>

<Placemark>
<name>AVG_Kurucesme_route_1 | Rota 1 | Adım 39 | Travel 280->281</name>
<styleUrl>#travel</styleUrl>
<LineString>
<tessellate>1</tessellate>
<coordinates>
27.1957116,38.3654966,0
27.196291,38.3652125,0
</coordinates>
</LineString>
</Placemark>

<Placemark>
<name>AVG_Kurucesme_route_1 | Rota 1 | Adım 39 | Servis Edge 539 (281->282)</name>
<styleUrl>#service</styleUrl>
<LineString>
<tessellate>1</tessellate>
<coordinates>
27.196291,38.3652125,0
27.1964701,38.3653072,0
27.1967924,38.3656829,0
</coordinates>
</LineString>
</Placemark>

<Placemark>
<name>AVG_Kurucesme_route_1 | Rota 1 | Adım 40 | Servis Edge 540 (282->367)</name>
<styleUrl>#service</styleUrl>
<LineString>
<tessellate>1</tessellate>
<coordinates>
27.1954566,38.3657791,0
27.1960603,38.3657276,0
27.196585,38.3657184,0
27.1967924,38.3656829,0
</coordinates>
</LineString>
</Placemark>

<Placemark>
<name>AVG_Kurucesme_route_1 | Rota 1 | Adım 41 | Travel 367->366</name>
<styleUrl>#travel</styleUrl>
<LineString>
<tessellate>1</tessellate>
<coordinates>
27.1954566,38.3657791,0
27.1954501,38.3658498,0
27.1954126,38.3660623,0
</coordinates>
</LineString>
</Placemark>

<Placemark>
<name>AVG_Kurucesme_route_1 | Rota 1 | Adım 41 | Travel 366->368</name>
<styleUrl>#travel</styleUrl>
<LineString>
<tessellate>1</tessellate>
<coordinates>
27.1954126,38.3660623,0
27.1957991,38.3660605,0
27.195947,38.3660658,0
27.1962374,38.3660967,0
</coordinates>
</LineString>
</Placemark>

<Placemark>
<name>AVG_Kurucesme_route_1 | Rota 1 | Adım 41 | Travel 368->284</name>
<styleUrl>#travel</styleUrl>
<LineString>
<tessellate>1</tessellate>
<coordinates>
27.196795,38.3661638,0
27.196546,38.366127,0
27.1962917,38.3661009,0
27.1962374,38.3660967,0
</coordinates>
</LineString>
</Placemark>

<Placemark>
<name>AVG_Kurucesme_route_1 | Rota 1 | Adım 41 | Servis Edge 581 (284->369)</name>
<styleUrl>#service</styleUrl>
<LineString>
<tessellate>1</tessellate>
<coordinates>
27.196795,38.3661638,0
27.1967311,38.3665508,0
</coordinates>
</LineString>
</Placemark>

<Placemark>
<name>AVG_Kurucesme_route_1 | Rota 1 | Adım 42 | Servis Edge 583 (369->287)</name>
<styleUrl>#service</styleUrl>
<LineString>
<tessellate>1</tessellate>
<coordinates>
27.1967558,38.3672805,0
27.1967218,38.3671345,0
27.1967107,38.3668196,0
27.1967311,38.3665508,0
</coordinates>
</LineString>
</Placemark>

<Placemark>
<name>AVG_Kurucesme_route_1 | Rota 1 | Adım 43 | Travel 287->288</name>
<styleUrl>#travel</styleUrl>
<LineString>
<tessellate>1</tessellate>
<coordinates>
27.1964923,38.3674799,0
27.1967558,38.3672805,0
</coordinates>
</LineString>
</Placemark>

<Placemark>
<name>AVG_Kurucesme_route_1 | Rota 1 | Adım 43 | Travel 288->371</name>
<styleUrl>#travel</styleUrl>
<LineString>
<tessellate>1</tessellate>
<coordinates>
27.1961103,38.3669815,0
27.1964923,38.3674799,0
</coordinates>
</LineString>
</Placemark>

<Placemark>
<name>AVG_Kurucesme_route_1 | Rota 1 | Adım 43 | Travel 371->372</name>
<styleUrl>#travel</styleUrl>
<LineString>
<tessellate>1</tessellate>
<coordinates>
27.1958813,38.366736,0
27.1961103,38.3669815,0
</coordinates>
</LineString>
</Placemark>

<Placemark>
<name>AVG_Kurucesme_route_1 | Rota 1 | Adım 43 | Servis Edge 587 (372->373)</name>
<styleUrl>#service</styleUrl>
<LineString>
<tessellate>1</tessellate>
<coordinates>
27.195299,38.3667084,0
27.1956218,38.3667419,0
27.1958813,38.366736,0
</coordinates>
</LineString>
</Placemark>

<Placemark>
<name>AVG_Kurucesme_route_1 | Rota 1 | Adım 44 | Travel 373->363</name>
<styleUrl>#travel</styleUrl>
<LineString>
<tessellate>1</tessellate>
<coordinates>
27.195299,38.3667084,0
27.1949985,38.3666759,0
</coordinates>
</LineString>
</Placemark>

<Placemark>
<name>AVG_Kurucesme_route_1 | Rota 1 | Adım 44 | Travel 363->362</name>
<styleUrl>#travel</styleUrl>
<LineString>
<tessellate>1</tessellate>
<coordinates>
27.1949985,38.3666759,0
27.1949096,38.3666688,0
27.1947001,38.3666816,0
27.1944016,38.3667041,0
</coordinates>
</LineString>
</Placemark>

<Placemark>
<name>AVG_Kurucesme_route_1 | Rota 1 | Adım 44 | Travel 362->276</name>
<styleUrl>#travel</styleUrl>
<LineString>
<tessellate>1</tessellate>
<coordinates>
27.1944094,38.3665459,0
27.1944016,38.3667041,0
</coordinates>
</LineString>
</Placemark>

<Placemark>
<name>AVG_Kurucesme_route_1 | Rota 1 | Adım 44 | Travel 276->275</name>
<styleUrl>#travel</styleUrl>
<LineString>
<tessellate>1</tessellate>
<coordinates>
27.1944094,38.3665459,0
27.1938314,38.3663362,0
</coordinates>
</LineString>
</Placemark>

<Placemark>
<name>AVG_Kurucesme_route_1 | Rota 1 | Adım 44 | Servis Edge 471 (275->274)</name>
<styleUrl>#service</styleUrl>
<LineString>
<tessellate>1</tessellate>
<coordinates>
27.1938314,38.3663362,0
27.1936615,38.3663151,0
27.1929767,38.36629,0
27.1928727,38.3662705,0
27.1928251,38.3662676,0
27.192802,38.3662703,0
27.1927604,38.3662805,0
27.1927245,38.3662968,0
</coordinates>
</LineString>
</Placemark>

<Placemark>
<name>AVG_Kurucesme_route_1 | Rota 1 | Adım RETURN | Travel 274->208</name>
<styleUrl>#travel</styleUrl>
<LineString>
<tessellate>1</tessellate>
<coordinates>
27.192697,38.3659582,0
27.1927245,38.3662968,0
</coordinates>
</LineString>
</Placemark>

<Placemark>
<name>AVG_Kurucesme_route_1 | Rota 1 | Adım RETURN | Travel 208->207</name>
<styleUrl>#travel</styleUrl>
<LineString>
<tessellate>1</tessellate>
<coordinates>
27.192697,38.3659582,0
27.192271,38.3660735,0
27.1921507,38.3660926,0
</coordinates>
</LineString>
</Placemark>

<Placemark>
<name>AVG_Kurucesme_route_1 | Rota 1 | Adım RETURN | Travel 207->206</name>
<styleUrl>#travel</styleUrl>
<LineString>
<tessellate>1</tessellate>
<coordinates>
27.1921507,38.3660926,0
27.1919168,38.3661209,0
27.1913975,38.3661845,0
27.1912309,38.3662023,0
</coordinates>
</LineString>
</Placemark>

<Placemark>
<name>AVG_Kurucesme_route_1 | Rota 1 | Adım RETURN | Travel 206->269</name>
<styleUrl>#travel</styleUrl>
<LineString>
<tessellate>1</tessellate>
<coordinates>
27.1908376,38.3663476,0
27.1910771,38.3662412,0
27.1912309,38.3662023,0
</coordinates>
</LineString>
</Placemark>

<Placemark>
<name>AVG_Kurucesme_route_1 | Rota 1 | Adım RETURN | Travel 269->268</name>
<styleUrl>#travel</styleUrl>
<LineString>
<tessellate>1</tessellate>
<coordinates>
27.1908376,38.3663476,0
27.1905914,38.3661132,0
</coordinates>
</LineString>
</Placemark>

<Placemark>
<name>AVG_Kurucesme_route_1 | Rota 1 | Adım RETURN | Travel 268->267</name>
<styleUrl>#travel</styleUrl>
<LineString>
<tessellate>1</tessellate>
<coordinates>
27.1905914,38.3661132,0
27.1902505,38.3663297,0
</coordinates>
</LineString>
</Placemark>

<Placemark>
<name>AVG_Kurucesme_route_1 | Rota 1 | Adım RETURN | Travel 267->266</name>
<styleUrl>#travel</styleUrl>
<LineString>
<tessellate>1</tessellate>
<coordinates>
27.1902505,38.3663297,0
27.1900014,38.3661464,0
</coordinates>
</LineString>
</Placemark>

<Placemark>
<name>AVG_Kurucesme_route_1 | Rota 1 | Adım RETURN | Travel 266->204</name>
<styleUrl>#travel</styleUrl>
<LineString>
<tessellate>1</tessellate>
<coordinates>
27.1900014,38.3661464,0
27.1898484,38.3660635,0
27.1896153,38.3659436,0
</coordinates>
</LineString>
</Placemark>

<Placemark>
<name>AVG_Kurucesme_route_1 | Rota 1 | Adım RETURN | Travel 204->203</name>
<styleUrl>#travel</styleUrl>
<LineString>
<tessellate>1</tessellate>
<coordinates>
27.1896153,38.3659436,0
27.189402,38.3658964,0
27.1893786,38.3658461,0
27.1893474,38.3658169,0
27.1892787,38.3657875,0
27.1884365,38.3655548,0
27.188246,38.3655343,0
27.1876761,38.3655241,0
27.1872178,38.3654952,0
27.1869951,38.365472,0
27.1868489,38.3654689,0
27.1864646,38.3655608,0
</coordinates>
</LineString>
</Placemark>

<Placemark>
<name>AVG_Kurucesme_route_1 | Rota 1 | Adım RETURN | Travel 203->202</name>
<styleUrl>#travel</styleUrl>
<LineString>
<tessellate>1</tessellate>
<coordinates>
27.1864646,38.3655608,0
27.1856034,38.3656394,0
</coordinates>
</LineString>
</Placemark>

<Placemark>
<name>AVG_Kurucesme_route_1 | Rota 1 | Adım RETURN | Travel 202->201</name>
<styleUrl>#travel</styleUrl>
<LineString>
<tessellate>1</tessellate>
<coordinates>
27.1856034,38.3656394,0
27.1848245,38.3658087,0
27.1843344,38.3659796,0
27.1838429,38.3661625,0
27.1833686,38.3663916,0
</coordinates>
</LineString>
</Placemark>

<Placemark>
<name>AVG_Kurucesme_route_1 | Rota 1 | Adım RETURN | Travel 201->200</name>
<styleUrl>#travel</styleUrl>
<LineString>
<tessellate>1</tessellate>
<coordinates>
27.1833686,38.3663916,0
27.1828545,38.3667282,0
</coordinates>
</LineString>
</Placemark>

<Placemark>
<name>AVG_Kurucesme_route_1 | Rota 1 | Adım RETURN | Travel 200->0</name>
<styleUrl>#travel</styleUrl>
<LineString>
<tessellate>1</tessellate>
<coordinates>
27.1828545,38.3667282,0
27.1824768,38.3664713,0
27.1823374,38.3664032,0
27.1821543,38.3663532,0
27.181878,38.3663359,0
27.1812279,38.3663616,0
27.1801155,38.3664494,0
</coordinates>
</LineString>
</Placemark>

</Document>
</kml>
