<?xml version="1.0" encoding="UTF-8"?>
<kml xmlns="http://www.opengis.net/kml/2.2">
<Document>
<name>AVG_Ataturk_route_2 GA Rota Sonucu</name>

<Style id="service">
<LineStyle>
<color>ff0000ff</color>
<width>5</width>
</LineStyle>
</Style>

<Style id="travel">
<LineStyle>
<color>ffff0000</color>
<width>4</width>
</LineStyle>
</Style>

<Placemark>
<name>AVG_Ataturk_route_2 | Rota 2 | Adım 1 | Travel 0->46</name>
<styleUrl>#travel</styleUrl>
<LineString>
<tessellate>1</tessellate>
<coordinates>
27.18011,38.36644,0
27.1796535,38.367388,0
27.1793907,38.3679853,0
27.1790312,38.3688096,0
27.178865,38.3694825,0
27.1787899,38.3697643,0
27.1787416,38.3700756,0
27.1787322,38.3701381,0
27.1787054,38.3701649,0
27.1786115,38.3702573,0
</coordinates>
</LineString>
</Placemark>

<Placemark>
<name>AVG_Ataturk_route_2 | Rota 2 | Adım 1 | Travel 46->47</name>
<styleUrl>#travel</styleUrl>
<LineString>
<tessellate>1</tessellate>
<coordinates>
27.1782188,38.3727672,0
27.1782613,38.3718972,0
27.1782774,38.3716764,0
27.1783176,38.3714514,0
27.1784525,38.3708543,0
27.1785105,38.3705537,0
27.1786115,38.3702573,0
</coordinates>
</LineString>
</Placemark>

<Placemark>
<name>AVG_Ataturk_route_2 | Rota 2 | Adım 1 | Travel 47->44</name>
<styleUrl>#travel</styleUrl>
<LineString>
<tessellate>1</tessellate>
<coordinates>
27.1782188,38.3727672,0
27.1798443,38.3725061,0
27.1814644,38.3722786,0
</coordinates>
</LineString>
</Placemark>

<Placemark>
<name>AVG_Ataturk_route_2 | Rota 2 | Adım 1 | Travel 44->42</name>
<styleUrl>#travel</styleUrl>
<LineString>
<tessellate>1</tessellate>
<coordinates>
27.1839791,38.3718576,0
27.1814644,38.3722786,0
</coordinates>
</LineString>
</Placemark>

<Placemark>
<name>AVG_Ataturk_route_2 | Rota 2 | Adım 1 | Travel 42->43</name>
<styleUrl>#travel</styleUrl>
<LineString>
<tessellate>1</tessellate>
<coordinates>
27.1839791,38.3718576,0
27.1841742,38.3725002,0
</coordinates>
</LineString>
</Placemark>

<Placemark>
<name>AVG_Ataturk_route_2 | Rota 2 | Adım 1 | Travel 43->242</name>
<styleUrl>#travel</styleUrl>
<LineString>
<tessellate>1</tessellate>
<coordinates>
27.1841742,38.3725002,0
27.1845216,38.3724386,0
27.1848892,38.3723874,0
27.1862303,38.3722381,0
27.1875714,38.3720636,0
27.1876604,38.3720423,0
27.1876637,38.3719601,0
</coordinates>
</LineString>
</Placemark>

<Placemark>
<name>AVG_Ataturk_route_2 | Rota 2 | Adım 1 | Travel 242->241</name>
<styleUrl>#travel</styleUrl>
<LineString>
<tessellate>1</tessellate>
<coordinates>
27.1877363,38.3723453,0
27.1876604,38.3720423,0
27.1876637,38.3719601,0
</coordinates>
</LineString>
</Placemark>

<Placemark>
<name>AVG_Ataturk_route_2 | Rota 2 | Adım 1 | Travel 241->63</name>
<styleUrl>#travel</styleUrl>
<LineString>
<tessellate>1</tessellate>
<coordinates>
27.18791,38.37275,0
27.1877363,38.3723453,0
</coordinates>
</LineString>
</Placemark>

<Placemark>
<name>AVG_Ataturk_route_2 | Rota 2 | Adım 1 | Travel 63->140</name>
<styleUrl>#travel</styleUrl>
<LineString>
<tessellate>1</tessellate>
<coordinates>
27.18791,38.37275,0
27.1884745,38.3734992,0
</coordinates>
</LineString>
</Placemark>

<Placemark>
<name>AVG_Ataturk_route_2 | Rota 2 | Adım 1 | Travel 140->155</name>
<styleUrl>#travel</styleUrl>
<LineString>
<tessellate>1</tessellate>
<coordinates>
27.1884745,38.3734992,0
27.1885891,38.3736462,0
</coordinates>
</LineString>
</Placemark>

<Placemark>
<name>AVG_Ataturk_route_2 | Rota 2 | Adım 1 | Travel 155->142</name>
<styleUrl>#travel</styleUrl>
<LineString>
<tessellate>1</tessellate>
<coordinates>
27.18876,38.37385,0
27.1887614,38.3738374,0
27.1885891,38.3736462,0
</coordinates>
</LineString>
</Placemark>

<Placemark>
<name>AVG_Ataturk_route_2 | Rota 2 | Adım 1 | Travel 142->143</name>
<styleUrl>#travel</styleUrl>
<LineString>
<tessellate>1</tessellate>
<coordinates>
27.18876,38.37385,0
27.1888312,38.373914,0
27.1888984,38.3739874,0
27.18903,38.37413,0
</coordinates>
</LineString>
</Placemark>

<Placemark>
<name>AVG_Ataturk_route_2 | Rota 2 | Adım 1 | Servis Edge 210 (143->145)</name>
<styleUrl>#service</styleUrl>
<LineString>
<tessellate>1</tessellate>
<coordinates>
27.1898396,38.3752942,0
27.1895484,38.3748173,0
27.1893842,38.3745671,0
27.1893432,38.3745137,0
27.1893176,38.3744844,0
27.1890305,38.3741321,0
</coordinates>
</LineString>
</Placemark>

<Placemark>
<name>AVG_Ataturk_route_2 | Rota 2 | Adım 2 | Travel 145->146</name>
<styleUrl>#travel</styleUrl>
<LineString>
<tessellate>1</tessellate>
<coordinates>
27.1890955,38.3755596,0
27.1894837,38.3754537,0
27.1898396,38.3752942,0
</coordinates>
</LineString>
</Placemark>

<Placemark>
<name>AVG_Ataturk_route_2 | Rota 2 | Adım 2 | Servis Edge 212 (146->156)</name>
<styleUrl>#service</styleUrl>
<LineString>
<tessellate>1</tessellate>
<coordinates>
27.1890955,38.3755596,0
27.1888739,38.3756275,0
27.1887332,38.3756622,0
</coordinates>
</LineString>
</Placemark>

<Placemark>
<name>AVG_Ataturk_route_2 | Rota 2 | Adım 3 | Travel 156->159</name>
<styleUrl>#travel</styleUrl>
<LineString>
<tessellate>1</tessellate>
<coordinates>
27.1882897,38.3758132,0
27.1887332,38.3756622,0
</coordinates>
</LineString>
</Placemark>

<Placemark>
<name>AVG_Ataturk_route_2 | Rota 2 | Adım 3 | Servis Edge 214 (159->160)</name>
<styleUrl>#service</styleUrl>
<LineString>
<tessellate>1</tessellate>
<coordinates>
27.1877063,38.376007,0
27.1878635,38.3759545,0
27.1882897,38.3758132,0
</coordinates>
</LineString>
</Placemark>

<Placemark>
<name>AVG_Ataturk_route_2 | Rota 2 | Adım 4 | Travel 160->162</name>
<styleUrl>#travel</styleUrl>
<LineString>
<tessellate>1</tessellate>
<coordinates>
27.187221,38.3761458,0
27.1876572,38.3760142,0
27.1877063,38.376007,0
</coordinates>
</LineString>
</Placemark>

<Placemark>
<name>AVG_Ataturk_route_2 | Rota 2 | Adım 4 | Servis Edge 217 (162->163)</name>
<styleUrl>#service</styleUrl>
<LineString>
<tessellate>1</tessellate>
<coordinates>
27.187379,38.3765804,0
27.1874057,38.3764538,0
27.187378,38.376365,0
27.187221,38.3761458,0
</coordinates>
</LineString>
</Placemark>

<Placemark>
<name>AVG_Ataturk_route_2 | Rota 2 | Adım 5 | Travel 163->92</name>
<styleUrl>#travel</styleUrl>
<LineString>
<tessellate>1</tessellate>
<coordinates>
27.1881195,38.3766158,0
27.1879742,38.3766696,0
27.1877496,38.3767274,0
27.1877073,38.3767227,0
27.1876604,38.3767032,0
27.1876027,38.3766706,0
27.187379,38.3765804,0
</coordinates>
</LineString>
</Placemark>

<Placemark>
<name>AVG_Ataturk_route_2 | Rota 2 | Adım 5 | Servis Edge 219 (92->96)</name>
<styleUrl>#service</styleUrl>
<LineString>
<tessellate>1</tessellate>
<coordinates>
27.1881195,38.3766158,0
27.1886649,38.3773089,0
</coordinates>
</LineString>
</Placemark>

<Placemark>
<name>AVG_Ataturk_route_2 | Rota 2 | Adım 6 | Travel 96->92</name>
<styleUrl>#travel</styleUrl>
<LineString>
<tessellate>1</tessellate>
<coordinates>
27.1886649,38.3773089,0
27.1881195,38.3766158,0
</coordinates>
</LineString>
</Placemark>

<Placemark>
<name>AVG_Ataturk_route_2 | Rota 2 | Adım 6 | Servis Edge 215 (92->160)</name>
<styleUrl>#service</styleUrl>
<LineString>
<tessellate>1</tessellate>
<coordinates>
27.1881195,38.3766158,0
27.1880159,38.3764656,0
27.1877063,38.376007,0
</coordinates>
</LineString>
</Placemark>

<Placemark>
<name>AVG_Ataturk_route_2 | Rota 2 | Adım 7 | Travel 160->161</name>
<styleUrl>#travel</styleUrl>
<LineString>
<tessellate>1</tessellate>
<coordinates>
27.1877063,38.376007,0
27.1874529,38.3756618,0
</coordinates>
</LineString>
</Placemark>

<Placemark>
<name>AVG_Ataturk_route_2 | Rota 2 | Adım 7 | Travel 161->59</name>
<styleUrl>#travel</styleUrl>
<LineString>
<tessellate>1</tessellate>
<coordinates>
27.1877184,38.3753969,0
27.1874529,38.3756618,0
</coordinates>
</LineString>
</Placemark>

<Placemark>
<name>AVG_Ataturk_route_2 | Rota 2 | Adım 7 | Travel 59->149</name>
<styleUrl>#travel</styleUrl>
<LineString>
<tessellate>1</tessellate>
<coordinates>
27.1880705,38.3750881,0
27.1878941,38.3752233,0
27.187815,38.3752921,0
27.1877184,38.3753969,0
</coordinates>
</LineString>
</Placemark>

<Placemark>
<name>AVG_Ataturk_route_2 | Rota 2 | Adım 7 | Servis Edge 224 (149->150)</name>
<styleUrl>#service</styleUrl>
<LineString>
<tessellate>1</tessellate>
<coordinates>
27.1880705,38.3750881,0
27.1877726,38.3746604,0
</coordinates>
</LineString>
</Placemark>

<Placemark>
<name>AVG_Ataturk_route_2 | Rota 2 | Adım 8 | Travel 150->151</name>
<styleUrl>#travel</styleUrl>
<LineString>
<tessellate>1</tessellate>
<coordinates>
27.1877726,38.3746604,0
27.1874412,38.3742607,0
</coordinates>
</LineString>
</Placemark>

<Placemark>
<name>AVG_Ataturk_route_2 | Rota 2 | Adım 8 | Travel 151->152</name>
<styleUrl>#travel</styleUrl>
<LineString>
<tessellate>1</tessellate>
<coordinates>
27.1874412,38.3742607,0
27.1871884,38.3739506,0
</coordinates>
</LineString>
</Placemark>

<Placemark>
<name>AVG_Ataturk_route_2 | Rota 2 | Adım 8 | Servis Edge 226 (152->139)</name>
<styleUrl>#service</styleUrl>
<LineString>
<tessellate>1</tessellate>
<coordinates>
27.1871874,38.3739501,0
27.1872974,38.3738681,0
27.1873346,38.3738334,0
27.1873712,38.3737916,0
27.1873987,38.3737427,0
27.1874084,38.3737383,0
27.1876,38.3737081,0
</coordinates>
</LineString>
</Placemark>

<Placemark>
<name>AVG_Ataturk_route_2 | Rota 2 | Adım 9 | Travel 139->152</name>
<styleUrl>#travel</styleUrl>
<LineString>
<tessellate>1</tessellate>
<coordinates>
27.1876,38.3737081,0
27.1874084,38.3737383,0
27.1873987,38.3737427,0
27.1873712,38.3737916,0
27.1873346,38.3738334,0
27.1872974,38.3738681,0
27.1871874,38.3739501,0
</coordinates>
</LineString>
</Placemark>

<Placemark>
<name>AVG_Ataturk_route_2 | Rota 2 | Adım 9 | Travel 152->151</name>
<styleUrl>#travel</styleUrl>
<LineString>
<tessellate>1</tessellate>
<coordinates>
27.1871884,38.3739506,0
27.1874412,38.3742607,0
</coordinates>
</LineString>
</Placemark>

<Placemark>
<name>AVG_Ataturk_route_2 | Rota 2 | Adım 9 | Travel 151->153</name>
<styleUrl>#travel</styleUrl>
<LineString>
<tessellate>1</tessellate>
<coordinates>
27.1865526,38.3746835,0
27.1867792,38.3745275,0
27.186808,38.3745107,0
27.1874412,38.3742607,0
</coordinates>
</LineString>
</Placemark>

<Placemark>
<name>AVG_Ataturk_route_2 | Rota 2 | Adım 9 | Servis Edge 227 (153->154)</name>
<styleUrl>#service</styleUrl>
<LineString>
<tessellate>1</tessellate>
<coordinates>
27.1865526,38.3746835,0
27.1865758,38.3747287,0
27.186587,38.374777,0
27.1865973,38.3748758,0
27.1866041,38.374967,0
27.1866077,38.3750303,0
27.1866174,38.3750981,0
27.186622,38.3751223,0
27.1866434,38.3751654,0
</coordinates>
</LineString>
</Placemark>

<Placemark>
<name>AVG_Ataturk_route_2 | Rota 2 | Adım 10 | Travel 154->58</name>
<styleUrl>#travel</styleUrl>
<LineString>
<tessellate>1</tessellate>
<coordinates>
27.1866434,38.3751654,0
27.1867118,38.3752237,0
27.1868312,38.3753204,0
27.1870047,38.3754155,0
</coordinates>
</LineString>
</Placemark>

<Placemark>
<name>AVG_Ataturk_route_2 | Rota 2 | Adım 10 | Servis Edge 229 (58->161)</name>
<styleUrl>#service</styleUrl>
<LineString>
<tessellate>1</tessellate>
<coordinates>
27.1874529,38.3756618,0
27.1870047,38.3754155,0
</coordinates>
</LineString>
</Placemark>

<Placemark>
<name>AVG_Ataturk_route_2 | Rota 2 | Adım 11 | Travel 161->59</name>
<styleUrl>#travel</styleUrl>
<LineString>
<tessellate>1</tessellate>
<coordinates>
27.1877184,38.3753969,0
27.1874529,38.3756618,0
</coordinates>
</LineString>
</Placemark>

<Placemark>
<name>AVG_Ataturk_route_2 | Rota 2 | Adım 11 | Travel 59->158</name>
<styleUrl>#travel</styleUrl>
<LineString>
<tessellate>1</tessellate>
<coordinates>
27.188055,38.3755977,0
27.1877184,38.3753969,0
</coordinates>
</LineString>
</Placemark>

<Placemark>
<name>AVG_Ataturk_route_2 | Rota 2 | Adım 11 | Servis Edge 234 (158->157)</name>
<styleUrl>#service</styleUrl>
<LineString>
<tessellate>1</tessellate>
<coordinates>
27.1883098,38.3752973,0
27.188055,38.3755977,0
</coordinates>
</LineString>
</Placemark>

<Placemark>
<name>AVG_Ataturk_route_2 | Rota 2 | Adım 12 | Travel 157->147</name>
<styleUrl>#travel</styleUrl>
<LineString>
<tessellate>1</tessellate>
<coordinates>
27.1883098,38.3752973,0
27.1884935,38.3751346,0
27.1886742,38.3750091,0
</coordinates>
</LineString>
</Placemark>

<Placemark>
<name>AVG_Ataturk_route_2 | Rota 2 | Adım 12 | Travel 147->148</name>
<styleUrl>#travel</styleUrl>
<LineString>
<tessellate>1</tessellate>
<coordinates>
27.1886742,38.3750091,0
27.1886123,38.3749463,0
27.1884731,38.3748251,0
</coordinates>
</LineString>
</Placemark>

<Placemark>
<name>AVG_Ataturk_route_2 | Rota 2 | Adım 12 | Travel 148->144</name>
<styleUrl>#travel</styleUrl>
<LineString>
<tessellate>1</tessellate>
<coordinates>
27.1881403,38.3745161,0
27.1881679,38.3745053,0
27.1882013,38.3745393,0
27.1884731,38.3748251,0
</coordinates>
</LineString>
</Placemark>

<Placemark>
<name>AVG_Ataturk_route_2 | Rota 2 | Adım 12 | Travel 144->141</name>
<styleUrl>#travel</styleUrl>
<LineString>
<tessellate>1</tessellate>
<coordinates>
27.1879869,38.3743129,0
27.1881403,38.3745161,0
</coordinates>
</LineString>
</Placemark>

<Placemark>
<name>AVG_Ataturk_route_2 | Rota 2 | Adım 12 | Travel 141->139</name>
<styleUrl>#travel</styleUrl>
<LineString>
<tessellate>1</tessellate>
<coordinates>
27.1876,38.3737081,0
27.187918,38.3742416,0
27.1879869,38.3743129,0
</coordinates>
</LineString>
</Placemark>

<Placemark>
<name>AVG_Ataturk_route_2 | Rota 2 | Adım 12 | Servis Edge 239 (139->140)</name>
<styleUrl>#service</styleUrl>
<LineString>
<tessellate>1</tessellate>
<coordinates>
27.1876,38.3737081,0
27.1878734,38.3736541,0
27.18847,38.3734944,0
</coordinates>
</LineString>
</Placemark>

<Placemark>
<name>AVG_Ataturk_route_2 | Rota 2 | Adım 13 | Travel 140->139</name>
<styleUrl>#travel</styleUrl>
<LineString>
<tessellate>1</tessellate>
<coordinates>
27.18847,38.3734944,0
27.1878734,38.3736541,0
27.1876,38.3737081,0
</coordinates>
</LineString>
</Placemark>

<Placemark>
<name>AVG_Ataturk_route_2 | Rota 2 | Adım 13 | Servis Edge 240 (139->141)</name>
<styleUrl>#service</styleUrl>
<LineString>
<tessellate>1</tessellate>
<coordinates>
27.1879869,38.3743129,0
27.187918,38.3742416,0
27.1876,38.3737081,0
</coordinates>
</LineString>
</Placemark>

<Placemark>
<name>AVG_Ataturk_route_2 | Rota 2 | Adım 14 | Travel 141->144</name>
<styleUrl>#travel</styleUrl>
<LineString>
<tessellate>1</tessellate>
<coordinates>
27.1881403,38.3745161,0
27.1879869,38.3743129,0
</coordinates>
</LineString>
</Placemark>

<Placemark>
<name>AVG_Ataturk_route_2 | Rota 2 | Adım 14 | Travel 144->150</name>
<styleUrl>#travel</styleUrl>
<LineString>
<tessellate>1</tessellate>
<coordinates>
27.1877726,38.3746604,0
27.1879538,38.3745714,0
27.1881403,38.3745161,0
</coordinates>
</LineString>
</Placemark>

<Placemark>
<name>AVG_Ataturk_route_2 | Rota 2 | Adım 14 | Travel 150->149</name>
<styleUrl>#travel</styleUrl>
<LineString>
<tessellate>1</tessellate>
<coordinates>
27.1877726,38.3746604,0
27.1880705,38.3750881,0
</coordinates>
</LineString>
</Placemark>

<Placemark>
<name>AVG_Ataturk_route_2 | Rota 2 | Adım 14 | Travel 149->59</name>
<styleUrl>#travel</styleUrl>
<LineString>
<tessellate>1</tessellate>
<coordinates>
27.1877184,38.3753969,0
27.187815,38.3752921,0
27.1878941,38.3752233,0
27.1880705,38.3750881,0
</coordinates>
</LineString>
</Placemark>

<Placemark>
<name>AVG_Ataturk_route_2 | Rota 2 | Adım 14 | Travel 59->161</name>
<styleUrl>#travel</styleUrl>
<LineString>
<tessellate>1</tessellate>
<coordinates>
27.1874529,38.3756618,0
27.1877184,38.3753969,0
</coordinates>
</LineString>
</Placemark>

<Placemark>
<name>AVG_Ataturk_route_2 | Rota 2 | Adım 14 | Travel 161->58</name>
<styleUrl>#travel</styleUrl>
<LineString>
<tessellate>1</tessellate>
<coordinates>
27.1870047,38.3754155,0
27.1874529,38.3756618,0
</coordinates>
</LineString>
</Placemark>

<Placemark>
<name>AVG_Ataturk_route_2 | Rota 2 | Adım 14 | Travel 58->166</name>
<styleUrl>#travel</styleUrl>
<LineString>
<tessellate>1</tessellate>
<coordinates>
27.1859116,38.376138,0
27.1860728,38.3760777,0
27.1860969,38.3760703,0
27.1862364,38.3760409,0
27.1862769,38.3760217,0
27.1864972,38.3758753,0
27.1867554,38.3756761,0
27.1870047,38.3754155,0
</coordinates>
</LineString>
</Placemark>

<Placemark>
<name>AVG_Ataturk_route_2 | Rota 2 | Adım 14 | Travel 166->167</name>
<styleUrl>#travel</styleUrl>
<LineString>
<tessellate>1</tessellate>
<coordinates>
27.1859116,38.376138,0
27.1858811,38.3760741,0
</coordinates>
</LineString>
</Placemark>

<Placemark>
<name>AVG_Ataturk_route_2 | Rota 2 | Adım 14 | Travel 167->169</name>
<styleUrl>#travel</styleUrl>
<LineString>
<tessellate>1</tessellate>
<coordinates>
27.1851387,38.376284,0
27.1858811,38.3760741,0
</coordinates>
</LineString>
</Placemark>

<Placemark>
<name>AVG_Ataturk_route_2 | Rota 2 | Adım 14 | Travel 169->174</name>
<styleUrl>#travel</styleUrl>
<LineString>
<tessellate>1</tessellate>
<coordinates>
27.1851387,38.376284,0
27.1844672,38.3765331,0
</coordinates>
</LineString>
</Placemark>

<Placemark>
<name>AVG_Ataturk_route_2 | Rota 2 | Adım 14 | Servis Edge 246 (174->175)</name>
<styleUrl>#service</styleUrl>
<LineString>
<tessellate>1</tessellate>
<coordinates>
27.1847842,38.376946,0
27.1844672,38.3765331,0
</coordinates>
</LineString>
</Placemark>

<Placemark>
<name>AVG_Ataturk_route_2 | Rota 2 | Adım 15 | Travel 175->174</name>
<styleUrl>#travel</styleUrl>
<LineString>
<tessellate>1</tessellate>
<coordinates>
27.1844672,38.3765331,0
27.1847842,38.376946,0
</coordinates>
</LineString>
</Placemark>

<Placemark>
<name>AVG_Ataturk_route_2 | Rota 2 | Adım 15 | Servis Edge 247 (174->173)</name>
<styleUrl>#service</styleUrl>
<LineString>
<tessellate>1</tessellate>
<coordinates>
27.1842645,38.3762931,0
27.1844672,38.3765331,0
</coordinates>
</LineString>
</Placemark>

<Placemark>
<name>AVG_Ataturk_route_2 | Rota 2 | Adım 16 | Travel 173->172</name>
<styleUrl>#travel</styleUrl>
<LineString>
<tessellate>1</tessellate>
<coordinates>
27.1841095,38.3760986,0
27.1842645,38.3762931,0
</coordinates>
</LineString>
</Placemark>

<Placemark>
<name>AVG_Ataturk_route_2 | Rota 2 | Adım 16 | Servis Edge 249 (172->121)</name>
<styleUrl>#service</styleUrl>
<LineString>
<tessellate>1</tessellate>
<coordinates>
27.1838212,38.3756933,0
27.18398,38.3759281,0
27.1841095,38.3760986,0
</coordinates>
</LineString>
</Placemark>

<Placemark>
<name>AVG_Ataturk_route_2 | Rota 2 | Adım 17 | Servis Edge 250 (121->171)</name>
<styleUrl>#service</styleUrl>
<LineString>
<tessellate>1</tessellate>
<coordinates>
27.1838212,38.3756933,0
27.1840766,38.3756285,0
27.1845354,38.3755058,0
</coordinates>
</LineString>
</Placemark>

<Placemark>
<name>AVG_Ataturk_route_2 | Rota 2 | Adım 18 | Travel 171->170</name>
<styleUrl>#travel</styleUrl>
<LineString>
<tessellate>1</tessellate>
<coordinates>
27.1845354,38.3755058,0
27.1848313,38.3758886,0
</coordinates>
</LineString>
</Placemark>

<Placemark>
<name>AVG_Ataturk_route_2 | Rota 2 | Adım 18 | Servis Edge 251 (170->172)</name>
<styleUrl>#service</styleUrl>
<LineString>
<tessellate>1</tessellate>
<coordinates>
27.1841095,38.3760986,0
27.1842795,38.3760304,0
27.1848313,38.3758886,0
</coordinates>
</LineString>
</Placemark>

<Placemark>
<name>AVG_Ataturk_route_2 | Rota 2 | Adım 19 | Travel 172->170</name>
<styleUrl>#travel</styleUrl>
<LineString>
<tessellate>1</tessellate>
<coordinates>
27.1848313,38.3758886,0
27.1842795,38.3760304,0
27.1841095,38.3760986,0
</coordinates>
</LineString>
</Placemark>

<Placemark>
<name>AVG_Ataturk_route_2 | Rota 2 | Adım 19 | Travel 170->168</name>
<styleUrl>#travel</styleUrl>
<LineString>
<tessellate>1</tessellate>
<coordinates>
27.1856382,38.3755833,0
27.1852872,38.3757358,0
27.1851522,38.3757815,0
27.1848313,38.3758886,0
</coordinates>
</LineString>
</Placemark>

<Placemark>
<name>AVG_Ataturk_route_2 | Rota 2 | Adım 19 | Servis Edge 254 (168->154)</name>
<styleUrl>#service</styleUrl>
<LineString>
<tessellate>1</tessellate>
<coordinates>
27.1856382,38.3755833,0
27.1860136,38.3754386,0
27.1861978,38.3753617,0
27.1864219,38.3752667,0
27.186536,38.3752176,0
27.1866434,38.3751654,0
</coordinates>
</LineString>
</Placemark>

<Placemark>
<name>AVG_Ataturk_route_2 | Rota 2 | Adım 20 | Travel 154->168</name>
<styleUrl>#travel</styleUrl>
<LineString>
<tessellate>1</tessellate>
<coordinates>
27.1866434,38.3751654,0
27.186536,38.3752176,0
27.1864219,38.3752667,0
27.1861978,38.3753617,0
27.1860136,38.3754386,0
27.1856382,38.3755833,0
</coordinates>
</LineString>
</Placemark>

<Placemark>
<name>AVG_Ataturk_route_2 | Rota 2 | Adım 20 | Travel 168->167</name>
<styleUrl>#travel</styleUrl>
<LineString>
<tessellate>1</tessellate>
<coordinates>
27.1856382,38.3755833,0
27.1857674,38.3757976,0
27.1857943,38.3758481,0
27.1858811,38.3760741,0
</coordinates>
</LineString>
</Placemark>

<Placemark>
<name>AVG_Ataturk_route_2 | Rota 2 | Adım 20 | Travel 167->166</name>
<styleUrl>#travel</styleUrl>
<LineString>
<tessellate>1</tessellate>
<coordinates>
27.1858811,38.3760741,0
27.1859116,38.376138,0
</coordinates>
</LineString>
</Placemark>

<Placemark>
<name>AVG_Ataturk_route_2 | Rota 2 | Adım 20 | Travel 166->165</name>
<styleUrl>#travel</styleUrl>
<LineString>
<tessellate>1</tessellate>
<coordinates>
27.1859116,38.376138,0
27.1860849,38.3765711,0
27.1861378,38.3766336,0
</coordinates>
</LineString>
</Placemark>

<Placemark>
<name>AVG_Ataturk_route_2 | Rota 2 | Adım 20 | Servis Edge 257 (165->164)</name>
<styleUrl>#service</styleUrl>
<LineString>
<tessellate>1</tessellate>
<coordinates>
27.1861378,38.3766336,0
27.1862753,38.3769242,0
</coordinates>
</LineString>
</Placemark>

<Placemark>
<name>AVG_Ataturk_route_2 | Rota 2 | Adım 21 | Travel 164->165</name>
<styleUrl>#travel</styleUrl>
<LineString>
<tessellate>1</tessellate>
<coordinates>
27.1862753,38.3769242,0
27.1861378,38.3766336,0
</coordinates>
</LineString>
</Placemark>

<Placemark>
<name>AVG_Ataturk_route_2 | Rota 2 | Adım 21 | Travel 165->166</name>
<styleUrl>#travel</styleUrl>
<LineString>
<tessellate>1</tessellate>
<coordinates>
27.1861378,38.3766336,0
27.1860849,38.3765711,0
27.1859116,38.376138,0
</coordinates>
</LineString>
</Placemark>

<Placemark>
<name>AVG_Ataturk_route_2 | Rota 2 | Adım 21 | Servis Edge 261 (166->58)</name>
<styleUrl>#service</styleUrl>
<LineString>
<tessellate>1</tessellate>
<coordinates>
27.1870047,38.3754155,0
27.1867554,38.3756761,0
27.1864972,38.3758753,0
27.1862769,38.3760217,0
27.1862364,38.3760409,0
27.1860969,38.3760703,0
27.1860728,38.3760777,0
27.1859116,38.376138,0
</coordinates>
</LineString>
</Placemark>

<Placemark>
<name>AVG_Ataturk_route_2 | Rota 2 | Adım 22 | Travel 58->166</name>
<styleUrl>#travel</styleUrl>
<LineString>
<tessellate>1</tessellate>
<coordinates>
27.1859116,38.376138,0
27.1860728,38.3760777,0
27.1860969,38.3760703,0
27.1862364,38.3760409,0
27.1862769,38.3760217,0
27.1864972,38.3758753,0
27.1867554,38.3756761,0
27.1870047,38.3754155,0
</coordinates>
</LineString>
</Placemark>

<Placemark>
<name>AVG_Ataturk_route_2 | Rota 2 | Adım 22 | Travel 166->165</name>
<styleUrl>#travel</styleUrl>
<LineString>
<tessellate>1</tessellate>
<coordinates>
27.1859116,38.376138,0
27.1860849,38.3765711,0
27.1861378,38.3766336,0
</coordinates>
</LineString>
</Placemark>

<Placemark>
<name>AVG_Ataturk_route_2 | Rota 2 | Adım 22 | Travel 165->91</name>
<styleUrl>#travel</styleUrl>
<LineString>
<tessellate>1</tessellate>
<coordinates>
27.1861378,38.3766336,0
27.1853908,38.3767979,0
</coordinates>
</LineString>
</Placemark>

<Placemark>
<name>AVG_Ataturk_route_2 | Rota 2 | Adım 22 | Travel 91->175</name>
<styleUrl>#travel</styleUrl>
<LineString>
<tessellate>1</tessellate>
<coordinates>
27.1853908,38.3767979,0
27.1847842,38.376946,0
</coordinates>
</LineString>
</Placemark>

<Placemark>
<name>AVG_Ataturk_route_2 | Rota 2 | Adım 22 | Travel 175->176</name>
<styleUrl>#travel</styleUrl>
<LineString>
<tessellate>1</tessellate>
<coordinates>
27.1842617,38.3771462,0
27.184582,38.3770062,0
27.1846262,38.3769904,0
27.1847842,38.376946,0
</coordinates>
</LineString>
</Placemark>

<Placemark>
<name>AVG_Ataturk_route_2 | Rota 2 | Adım 22 | Travel 176->90</name>
<styleUrl>#travel</styleUrl>
<LineString>
<tessellate>1</tessellate>
<coordinates>
27.1842617,38.3771462,0
27.1846412,38.3777365,0
</coordinates>
</LineString>
</Placemark>

<Placemark>
<name>AVG_Ataturk_route_2 | Rota 2 | Adım 22 | Travel 90->89</name>
<styleUrl>#travel</styleUrl>
<LineString>
<tessellate>1</tessellate>
<coordinates>
27.184977,38.3782523,0
27.1846412,38.3777365,0
</coordinates>
</LineString>
</Placemark>

<Placemark>
<name>AVG_Ataturk_route_2 | Rota 2 | Adım 22 | Travel 89->98</name>
<styleUrl>#travel</styleUrl>
<LineString>
<tessellate>1</tessellate>
<coordinates>
27.184977,38.3782523,0
27.1855427,38.3791153,0
</coordinates>
</LineString>
</Placemark>

<Placemark>
<name>AVG_Ataturk_route_2 | Rota 2 | Adım 22 | Servis Edge 266 (98->97)</name>
<styleUrl>#service</styleUrl>
<LineString>
<tessellate>1</tessellate>
<coordinates>
27.1855427,38.3791153,0
27.185735,38.3791159,0
27.1863892,38.3785954,0
27.1867298,38.3783468,0
27.186778,38.3783072,0
27.1869067,38.3782235,0
27.187081,38.3781275,0
</coordinates>
</LineString>
</Placemark>

<Placemark>
<name>AVG_Ataturk_route_2 | Rota 2 | Adım 23 | Travel 97->164</name>
<styleUrl>#travel</styleUrl>
<LineString>
<tessellate>1</tessellate>
<coordinates>
27.187081,38.3781275,0
27.1863595,38.3771071,0
27.1862753,38.3769242,0
</coordinates>
</LineString>
</Placemark>

<Placemark>
<name>AVG_Ataturk_route_2 | Rota 2 | Adım 23 | Travel 164->165</name>
<styleUrl>#travel</styleUrl>
<LineString>
<tessellate>1</tessellate>
<coordinates>
27.1862753,38.3769242,0
27.1861378,38.3766336,0
</coordinates>
</LineString>
</Placemark>

<Placemark>
<name>AVG_Ataturk_route_2 | Rota 2 | Adım 23 | Travel 165->91</name>
<styleUrl>#travel</styleUrl>
<LineString>
<tessellate>1</tessellate>
<coordinates>
27.1861378,38.3766336,0
27.1853908,38.3767979,0
</coordinates>
</LineString>
</Placemark>

<Placemark>
<name>AVG_Ataturk_route_2 | Rota 2 | Adım 23 | Travel 91->169</name>
<styleUrl>#travel</styleUrl>
<LineString>
<tessellate>1</tessellate>
<coordinates>
27.1853908,38.3767979,0
27.1851387,38.376284,0
</coordinates>
</LineString>
</Placemark>

<Placemark>
<name>AVG_Ataturk_route_2 | Rota 2 | Adım 23 | Servis Edge 269 (169->174)</name>
<styleUrl>#service</styleUrl>
<LineString>
<tessellate>1</tessellate>
<coordinates>
27.1851387,38.376284,0
27.1844672,38.3765331,0
</coordinates>
</LineString>
</Placemark>

<Placemark>
<name>AVG_Ataturk_route_2 | Rota 2 | Adım 24 | Travel 174->169</name>
<styleUrl>#travel</styleUrl>
<LineString>
<tessellate>1</tessellate>
<coordinates>
27.1844672,38.3765331,0
27.1851387,38.376284,0
</coordinates>
</LineString>
</Placemark>

<Placemark>
<name>AVG_Ataturk_route_2 | Rota 2 | Adım 24 | Servis Edge 270 (169->167)</name>
<styleUrl>#service</styleUrl>
<LineString>
<tessellate>1</tessellate>
<coordinates>
27.1858811,38.3760741,0
27.1851387,38.376284,0
</coordinates>
</LineString>
</Placemark>

<Placemark>
<name>AVG_Ataturk_route_2 | Rota 2 | Adım RETURN | Travel 167->168</name>
<styleUrl>#travel</styleUrl>
<LineString>
<tessellate>1</tessellate>
<coordinates>
27.1858811,38.3760741,0
27.1857943,38.3758481,0
27.1857674,38.3757976,0
27.1856382,38.3755833,0
</coordinates>
</LineString>
</Placemark>

<Placemark>
<name>AVG_Ataturk_route_2 | Rota 2 | Adım RETURN | Travel 168->125</name>
<styleUrl>#travel</styleUrl>
<LineString>
<tessellate>1</tessellate>
<coordinates>
27.1854135,38.3752243,0
27.1856382,38.3755833,0
</coordinates>
</LineString>
</Placemark>

<Placemark>
<name>AVG_Ataturk_route_2 | Rota 2 | Adım RETURN | Travel 125->127</name>
<styleUrl>#travel</styleUrl>
<LineString>
<tessellate>1</tessellate>
<coordinates>
27.1854135,38.3752243,0
27.1852462,38.3747743,0
</coordinates>
</LineString>
</Placemark>

<Placemark>
<name>AVG_Ataturk_route_2 | Rota 2 | Adım RETURN | Travel 127->129</name>
<styleUrl>#travel</styleUrl>
<LineString>
<tessellate>1</tessellate>
<coordinates>
27.1852462,38.3747743,0
27.1850767,38.3744254,0
</coordinates>
</LineString>
</Placemark>

<Placemark>
<name>AVG_Ataturk_route_2 | Rota 2 | Adım RETURN | Travel 129->130</name>
<styleUrl>#travel</styleUrl>
<LineString>
<tessellate>1</tessellate>
<coordinates>
27.1850767,38.3744254,0
27.1850366,38.3743537,0
</coordinates>
</LineString>
</Placemark>

<Placemark>
<name>AVG_Ataturk_route_2 | Rota 2 | Adım RETURN | Travel 130->131</name>
<styleUrl>#travel</styleUrl>
<LineString>
<tessellate>1</tessellate>
<coordinates>
27.1850366,38.3743537,0
27.1848933,38.3740515,0
</coordinates>
</LineString>
</Placemark>

<Placemark>
<name>AVG_Ataturk_route_2 | Rota 2 | Adım RETURN | Travel 131->43</name>
<styleUrl>#travel</styleUrl>
<LineString>
<tessellate>1</tessellate>
<coordinates>
27.1848933,38.3740515,0
27.1841742,38.3725002,0
</coordinates>
</LineString>
</Placemark>

<Placemark>
<name>AVG_Ataturk_route_2 | Rota 2 | Adım RETURN | Travel 43->42</name>
<styleUrl>#travel</styleUrl>
<LineString>
<tessellate>1</tessellate>
<coordinates>
27.1841742,38.3725002,0
27.1839791,38.3718576,0
</coordinates>
</LineString>
</Placemark>

<Placemark>
<name>AVG_Ataturk_route_2 | Rota 2 | Adım RETURN | Travel 42->39</name>
<styleUrl>#travel</styleUrl>
<LineString>
<tessellate>1</tessellate>
<coordinates>
27.1839791,38.3718576,0
27.1839644,38.3717095,0
</coordinates>
</LineString>
</Placemark>

<Placemark>
<name>AVG_Ataturk_route_2 | Rota 2 | Adım RETURN | Travel 39->41</name>
<styleUrl>#travel</styleUrl>
<LineString>
<tessellate>1</tessellate>
<coordinates>
27.1839644,38.3717095,0
27.1839513,38.3714913,0
27.183962,38.3711969,0
27.183962,38.3710244,0
27.1839835,38.3707721,0
27.1840156,38.3704693,0
27.1839821,38.3697505,0
</coordinates>
</LineString>
</Placemark>

<Placemark>
<name>AVG_Ataturk_route_2 | Rota 2 | Adım RETURN | Travel 41->40</name>
<styleUrl>#travel</styleUrl>
<LineString>
<tessellate>1</tessellate>
<coordinates>
27.1839821,38.3697505,0
27.1833619,38.3696211,0
27.1830427,38.3695864,0
27.1827303,38.3695979,0
27.1815788,38.3697294,0
</coordinates>
</LineString>
</Placemark>

<Placemark>
<name>AVG_Ataturk_route_2 | Rota 2 | Adım RETURN | Travel 40->46</name>
<styleUrl>#travel</styleUrl>
<LineString>
<tessellate>1</tessellate>
<coordinates>
27.1815788,38.3697294,0
27.1796817,38.3700432,0
27.1794496,38.3700616,0
27.1791881,38.3700926,0
27.1789689,38.3701294,0
27.1787415,38.3701609,0
27.1786115,38.3702573,0
</coordinates>
</LineString>
</Placemark>

<Placemark>
<name>AVG_Ataturk_route_2 | Rota 2 | Adım RETURN | Travel 46->0</name>
<styleUrl>#travel</styleUrl>
<LineString>
<tessellate>1</tessellate>
<coordinates>
27.1786115,38.3702573,0
27.1787054,38.3701649,0
27.1787322,38.3701381,0
27.1787416,38.3700756,0
27.1787899,38.3697643,0
27.178865,38.3694825,0
27.1790312,38.3688096,0
27.1793907,38.3679853,0
27.1796535,38.367388,0
27.18011,38.36644,0
</coordinates>
</LineString>
</Placemark>

</Document>
</kml>
