<?xml version="1.0" encoding="UTF-8"?>
<kml xmlns="http://www.opengis.net/kml/2.2">
<Document>
<name>AYT_Kurucesme_route_1 GA Rota Sonucu</name>

<Style id="service">
<LineStyle>
<color>ff0000ff</color>
<width>5</width>
</LineStyle>
</Style>

<Style id="travel">
<LineStyle>
<color>ffff0000</color>
<width>4</width>
</LineStyle>
</Style>

<Placemark>
<name>AYT_Kurucesme_route_1 | Rota 1 | Adım 1 | Travel 0->46</name>
<styleUrl>#travel</styleUrl>
<LineString>
<tessellate>1</tessellate>
<coordinates>
27.18011,38.36644,0
27.1796535,38.367388,0
27.1793907,38.3679853,0
27.1790312,38.3688096,0
27.178865,38.3694825,0
27.1787899,38.3697643,0
27.1787416,38.3700756,0
27.1787322,38.3701381,0
27.1787054,38.3701649,0
27.1786115,38.3702573,0
</coordinates>
</LineString>
</Placemark>

<Placemark>
<name>AYT_Kurucesme_route_1 | Rota 1 | Adım 1 | Travel 46->47</name>
<styleUrl>#travel</styleUrl>
<LineString>
<tessellate>1</tessellate>
<coordinates>
27.1782188,38.3727672,0
27.1782613,38.3718972,0
27.1782774,38.3716764,0
27.1783176,38.3714514,0
27.1784525,38.3708543,0
27.1785105,38.3705537,0
27.1786115,38.3702573,0
</coordinates>
</LineString>
</Placemark>

<Placemark>
<name>AYT_Kurucesme_route_1 | Rota 1 | Adım 1 | Travel 47->44</name>
<styleUrl>#travel</styleUrl>
<LineString>
<tessellate>1</tessellate>
<coordinates>
27.1782188,38.3727672,0
27.1798443,38.3725061,0
27.1814644,38.3722786,0
</coordinates>
</LineString>
</Placemark>

<Placemark>
<name>AYT_Kurucesme_route_1 | Rota 1 | Adım 1 | Travel 44->42</name>
<styleUrl>#travel</styleUrl>
<LineString>
<tessellate>1</tessellate>
<coordinates>
27.1839791,38.3718576,0
27.1814644,38.3722786,0
</coordinates>
</LineString>
</Placemark>

<Placemark>
<name>AYT_Kurucesme_route_1 | Rota 1 | Adım 1 | Travel 42->43</name>
<styleUrl>#travel</styleUrl>
<LineString>
<tessellate>1</tessellate>
<coordinates>
27.1839791,38.3718576,0
27.1841742,38.3725002,0
</coordinates>
</LineString>
</Placemark>

<Placemark>
<name>AYT_Kurucesme_route_1 | Rota 1 | Adım 1 | Travel 43->242</name>
<styleUrl>#travel</styleUrl>
<LineString>
<tessellate>1</tessellate>
<coordinates>
27.1841742,38.3725002,0
27.1845216,38.3724386,0
27.1848892,38.3723874,0
27.1862303,38.3722381,0
27.1875714,38.3720636,0
27.1876604,38.3720423,0
27.1876637,38.3719601,0
</coordinates>
</LineString>
</Placemark>

<Placemark>
<name>AYT_Kurucesme_route_1 | Rota 1 | Adım 1 | Travel 242->241</name>
<styleUrl>#travel</styleUrl>
<LineString>
<tessellate>1</tessellate>
<coordinates>
27.1877363,38.3723453,0
27.1876604,38.3720423,0
27.1876637,38.3719601,0
</coordinates>
</LineString>
</Placemark>

<Placemark>
<name>AYT_Kurucesme_route_1 | Rota 1 | Adım 1 | Travel 241->63</name>
<styleUrl>#travel</styleUrl>
<LineString>
<tessellate>1</tessellate>
<coordinates>
27.18791,38.37275,0
27.1877363,38.3723453,0
</coordinates>
</LineString>
</Placemark>

<Placemark>
<name>AYT_Kurucesme_route_1 | Rota 1 | Adım 1 | Travel 63->140</name>
<styleUrl>#travel</styleUrl>
<LineString>
<tessellate>1</tessellate>
<coordinates>
27.18791,38.37275,0
27.1884745,38.3734992,0
</coordinates>
</LineString>
</Placemark>

<Placemark>
<name>AYT_Kurucesme_route_1 | Rota 1 | Adım 1 | Travel 140->155</name>
<styleUrl>#travel</styleUrl>
<LineString>
<tessellate>1</tessellate>
<coordinates>
27.1884745,38.3734992,0
27.1885891,38.3736462,0
</coordinates>
</LineString>
</Placemark>

<Placemark>
<name>AYT_Kurucesme_route_1 | Rota 1 | Adım 1 | Servis Edge 601 (155->238)</name>
<styleUrl>#service</styleUrl>
<LineString>
<tessellate>1</tessellate>
<coordinates>
27.1885891,38.3736462,0
27.1887707,38.3735938,0
27.1892203,38.3734965,0
</coordinates>
</LineString>
</Placemark>

<Placemark>
<name>AYT_Kurucesme_route_1 | Rota 1 | Adım 2 | Travel 238->237</name>
<styleUrl>#travel</styleUrl>
<LineString>
<tessellate>1</tessellate>
<coordinates>
27.189536,38.3738866,0
27.1893662,38.3737286,0
27.1892858,38.3736287,0
27.1892203,38.3734965,0
</coordinates>
</LineString>
</Placemark>

<Placemark>
<name>AYT_Kurucesme_route_1 | Rota 1 | Adım 2 | Travel 237->314</name>
<styleUrl>#travel</styleUrl>
<LineString>
<tessellate>1</tessellate>
<coordinates>
27.189536,38.3738866,0
27.189667,38.373804,0
27.1898158,38.3737504,0
27.1901765,38.3736929,0
</coordinates>
</LineString>
</Placemark>

<Placemark>
<name>AYT_Kurucesme_route_1 | Rota 1 | Adım 2 | Travel 314->394</name>
<styleUrl>#travel</styleUrl>
<LineString>
<tessellate>1</tessellate>
<coordinates>
27.1901765,38.3736929,0
27.1909069,38.3735748,0
</coordinates>
</LineString>
</Placemark>

<Placemark>
<name>AYT_Kurucesme_route_1 | Rota 1 | Adım 2 | Travel 394->308</name>
<styleUrl>#travel</styleUrl>
<LineString>
<tessellate>1</tessellate>
<coordinates>
27.191646,38.373526,0
27.1909069,38.3735748,0
</coordinates>
</LineString>
</Placemark>

<Placemark>
<name>AYT_Kurucesme_route_1 | Rota 1 | Adım 2 | Servis Edge 445 (308->309)</name>
<styleUrl>#service</styleUrl>
<LineString>
<tessellate>1</tessellate>
<coordinates>
27.1916225,38.3742708,0
27.1916079,38.3741863,0
27.1916039,38.3740565,0
27.191646,38.373526,0
</coordinates>
</LineString>
</Placemark>

<Placemark>
<name>AYT_Kurucesme_route_1 | Rota 1 | Adım 3 | Travel 309->308</name>
<styleUrl>#travel</styleUrl>
<LineString>
<tessellate>1</tessellate>
<coordinates>
27.191646,38.373526,0
27.1916039,38.3740565,0
27.1916079,38.3741863,0
27.1916225,38.3742708,0
</coordinates>
</LineString>
</Placemark>

<Placemark>
<name>AYT_Kurucesme_route_1 | Rota 1 | Adım 3 | Travel 308->307</name>
<styleUrl>#travel</styleUrl>
<LineString>
<tessellate>1</tessellate>
<coordinates>
27.1921549,38.3730764,0
27.192086,38.3732014,0
27.1920528,38.3732879,0
27.1920501,38.3733113,0
27.1920488,38.3734645,0
27.19203,38.3734961,0
27.1920025,38.3735145,0
27.1919763,38.3735224,0
27.191646,38.373526,0
</coordinates>
</LineString>
</Placemark>

<Placemark>
<name>AYT_Kurucesme_route_1 | Rota 1 | Adım 3 | Travel 307->306</name>
<styleUrl>#travel</styleUrl>
<LineString>
<tessellate>1</tessellate>
<coordinates>
27.1923756,38.3728102,0
27.1922973,38.3729572,0
27.1921549,38.3730764,0
</coordinates>
</LineString>
</Placemark>

<Placemark>
<name>AYT_Kurucesme_route_1 | Rota 1 | Adım 3 | Travel 306->305</name>
<styleUrl>#travel</styleUrl>
<LineString>
<tessellate>1</tessellate>
<coordinates>
27.1923723,38.3721617,0
27.1924132,38.3725851,0
27.1924119,38.3726451,0
27.1924172,38.3727639,0
27.1923756,38.3728102,0
</coordinates>
</LineString>
</Placemark>

<Placemark>
<name>AYT_Kurucesme_route_1 | Rota 1 | Adım 3 | Travel 305->304</name>
<styleUrl>#travel</styleUrl>
<LineString>
<tessellate>1</tessellate>
<coordinates>
27.1930836,38.3722019,0
27.1923723,38.3721617,0
</coordinates>
</LineString>
</Placemark>

<Placemark>
<name>AYT_Kurucesme_route_1 | Rota 1 | Adım 3 | Travel 304->387</name>
<styleUrl>#travel</styleUrl>
<LineString>
<tessellate>1</tessellate>
<coordinates>
27.1929382,38.3718764,0
27.1930836,38.3722019,0
</coordinates>
</LineString>
</Placemark>

<Placemark>
<name>AYT_Kurucesme_route_1 | Rota 1 | Adım 3 | Travel 387->431</name>
<styleUrl>#travel</styleUrl>
<LineString>
<tessellate>1</tessellate>
<coordinates>
27.1929382,38.3718764,0
27.1930406,38.3717709,0
27.1931398,38.3717015,0
27.1931707,38.3716679,0
27.1932693,38.3714909,0
</coordinates>
</LineString>
</Placemark>

<Placemark>
<name>AYT_Kurucesme_route_1 | Rota 1 | Adım 3 | Servis Edge 395 (431->432)</name>
<styleUrl>#service</styleUrl>
<LineString>
<tessellate>1</tessellate>
<coordinates>
27.1932693,38.3714909,0
27.1934038,38.3712677,0
</coordinates>
</LineString>
</Placemark>

<Placemark>
<name>AYT_Kurucesme_route_1 | Rota 1 | Adım 4 | Travel 432->433</name>
<styleUrl>#travel</styleUrl>
<LineString>
<tessellate>1</tessellate>
<coordinates>
27.1934038,38.3712677,0
27.1935796,38.3713,0
</coordinates>
</LineString>
</Placemark>

<Placemark>
<name>AYT_Kurucesme_route_1 | Rota 1 | Adım 4 | Servis Edge 402 (433->299)</name>
<styleUrl>#service</styleUrl>
<LineString>
<tessellate>1</tessellate>
<coordinates>
27.1942413,38.3714726,0
27.1939127,38.3713863,0
27.1935796,38.3713,0
</coordinates>
</LineString>
</Placemark>

<Placemark>
<name>AYT_Kurucesme_route_1 | Rota 1 | Adım 5 | Travel 299->300</name>
<styleUrl>#travel</styleUrl>
<LineString>
<tessellate>1</tessellate>
<coordinates>
27.1942413,38.3714726,0
27.1942095,38.371591,0
</coordinates>
</LineString>
</Placemark>

<Placemark>
<name>AYT_Kurucesme_route_1 | Rota 1 | Adım 5 | Travel 300->301</name>
<styleUrl>#travel</styleUrl>
<LineString>
<tessellate>1</tessellate>
<coordinates>
27.1939287,38.3717595,0
27.1942095,38.371591,0
</coordinates>
</LineString>
</Placemark>

<Placemark>
<name>AYT_Kurucesme_route_1 | Rota 1 | Adım 5 | Servis Edge 408 (301->303)</name>
<styleUrl>#service</styleUrl>
<LineString>
<tessellate>1</tessellate>
<coordinates>
27.193272,38.3722172,0
27.1934735,38.3720196,0
27.1939287,38.3717595,0
</coordinates>
</LineString>
</Placemark>

<Placemark>
<name>AYT_Kurucesme_route_1 | Rota 1 | Adım 6 | Travel 303->304</name>
<styleUrl>#travel</styleUrl>
<LineString>
<tessellate>1</tessellate>
<coordinates>
27.1930836,38.3722019,0
27.193272,38.3722172,0
</coordinates>
</LineString>
</Placemark>

<Placemark>
<name>AYT_Kurucesme_route_1 | Rota 1 | Adım 6 | Travel 304->387</name>
<styleUrl>#travel</styleUrl>
<LineString>
<tessellate>1</tessellate>
<coordinates>
27.1929382,38.3718764,0
27.1930836,38.3722019,0
</coordinates>
</LineString>
</Placemark>

<Placemark>
<name>AYT_Kurucesme_route_1 | Rota 1 | Adım 6 | Travel 387->386</name>
<styleUrl>#travel</styleUrl>
<LineString>
<tessellate>1</tessellate>
<coordinates>
27.1928652,38.371199,0
27.1927838,38.3714239,0
27.1927918,38.3715049,0
27.1928119,38.3716742,0
27.1929382,38.3718764,0
</coordinates>
</LineString>
</Placemark>

<Placemark>
<name>AYT_Kurucesme_route_1 | Rota 1 | Adım 6 | Travel 386->385</name>
<styleUrl>#travel</styleUrl>
<LineString>
<tessellate>1</tessellate>
<coordinates>
27.1929394,38.3711055,0
27.1928652,38.371199,0
</coordinates>
</LineString>
</Placemark>

<Placemark>
<name>AYT_Kurucesme_route_1 | Rota 1 | Adım 6 | Travel 385->384</name>
<styleUrl>#travel</styleUrl>
<LineString>
<tessellate>1</tessellate>
<coordinates>
27.1930251,38.3709013,0
27.1929394,38.3711055,0
</coordinates>
</LineString>
</Placemark>

<Placemark>
<name>AYT_Kurucesme_route_1 | Rota 1 | Adım 6 | Travel 384->437</name>
<styleUrl>#travel</styleUrl>
<LineString>
<tessellate>1</tessellate>
<coordinates>
27.1925032,38.3708727,0
27.1930251,38.3709013,0
</coordinates>
</LineString>
</Placemark>

<Placemark>
<name>AYT_Kurucesme_route_1 | Rota 1 | Adım 6 | Servis Edge 389 (437->434)</name>
<styleUrl>#service</styleUrl>
<LineString>
<tessellate>1</tessellate>
<coordinates>
27.1925032,38.3708727,0
27.1920495,38.3708881,0
</coordinates>
</LineString>
</Placemark>

<Placemark>
<name>AYT_Kurucesme_route_1 | Rota 1 | Adım 7 | Travel 434->399</name>
<styleUrl>#travel</styleUrl>
<LineString>
<tessellate>1</tessellate>
<coordinates>
27.1920495,38.3708881,0
27.1916992,38.3708891,0
</coordinates>
</LineString>
</Placemark>

<Placemark>
<name>AYT_Kurucesme_route_1 | Rota 1 | Adım 7 | Travel 399->388</name>
<styleUrl>#travel</styleUrl>
<LineString>
<tessellate>1</tessellate>
<coordinates>
27.1916992,38.3708891,0
27.1917686,38.3716146,0
</coordinates>
</LineString>
</Placemark>

<Placemark>
<name>AYT_Kurucesme_route_1 | Rota 1 | Adım 7 | Travel 388->389</name>
<styleUrl>#travel</styleUrl>
<LineString>
<tessellate>1</tessellate>
<coordinates>
27.1916525,38.3716274,0
27.1917686,38.3716146,0
</coordinates>
</LineString>
</Placemark>

<Placemark>
<name>AYT_Kurucesme_route_1 | Rota 1 | Adım 7 | Travel 389->390</name>
<styleUrl>#travel</styleUrl>
<LineString>
<tessellate>1</tessellate>
<coordinates>
27.1916209,38.371862,0
27.1916525,38.3716274,0
</coordinates>
</LineString>
</Placemark>

<Placemark>
<name>AYT_Kurucesme_route_1 | Rota 1 | Adım 7 | Travel 390->391</name>
<styleUrl>#travel</styleUrl>
<LineString>
<tessellate>1</tessellate>
<coordinates>
27.1916028,38.3721771,0
27.1916209,38.371862,0
</coordinates>
</LineString>
</Placemark>

<Placemark>
<name>AYT_Kurucesme_route_1 | Rota 1 | Adım 7 | Travel 391->392</name>
<styleUrl>#travel</styleUrl>
<LineString>
<tessellate>1</tessellate>
<coordinates>
27.1911572,38.3722752,0
27.1916028,38.3721771,0
</coordinates>
</LineString>
</Placemark>

<Placemark>
<name>AYT_Kurucesme_route_1 | Rota 1 | Adım 7 | Travel 392->318</name>
<styleUrl>#travel</styleUrl>
<LineString>
<tessellate>1</tessellate>
<coordinates>
27.1911572,38.3722752,0
27.1907788,38.3723874,0
</coordinates>
</LineString>
</Placemark>

<Placemark>
<name>AYT_Kurucesme_route_1 | Rota 1 | Adım 7 | Servis Edge 420 (318->317)</name>
<styleUrl>#service</styleUrl>
<LineString>
<tessellate>1</tessellate>
<coordinates>
27.1907788,38.3723874,0
27.1908645,38.3728826,0
</coordinates>
</LineString>
</Placemark>

<Placemark>
<name>AYT_Kurucesme_route_1 | Rota 1 | Adım 8 | Travel 317->316</name>
<styleUrl>#travel</styleUrl>
<LineString>
<tessellate>1</tessellate>
<coordinates>
27.1908645,38.3728826,0
27.1909014,38.3731472,0
</coordinates>
</LineString>
</Placemark>

<Placemark>
<name>AYT_Kurucesme_route_1 | Rota 1 | Adım 8 | Servis Edge 427 (316->315)</name>
<styleUrl>#service</styleUrl>
<LineString>
<tessellate>1</tessellate>
<coordinates>
27.1909014,38.3731472,0
27.1902984,38.3732272,0
27.1901412,38.373264,0
</coordinates>
</LineString>
</Placemark>

<Placemark>
<name>AYT_Kurucesme_route_1 | Rota 1 | Adım 9 | Travel 315->314</name>
<styleUrl>#travel</styleUrl>
<LineString>
<tessellate>1</tessellate>
<coordinates>
27.1901412,38.373264,0
27.1901765,38.3736929,0
</coordinates>
</LineString>
</Placemark>

<Placemark>
<name>AYT_Kurucesme_route_1 | Rota 1 | Adım 9 | Servis Edge 432 (314->313)</name>
<styleUrl>#service</styleUrl>
<LineString>
<tessellate>1</tessellate>
<coordinates>
27.1904977,38.3745089,0
27.1903676,38.3742646,0
27.1902255,38.373944,0
27.1901765,38.3736929,0
</coordinates>
</LineString>
</Placemark>

<Placemark>
<name>AYT_Kurucesme_route_1 | Rota 1 | Adım 10 | Travel 313->395</name>
<styleUrl>#travel</styleUrl>
<LineString>
<tessellate>1</tessellate>
<coordinates>
27.1904977,38.3745089,0
27.1907569,38.3743922,0
27.1908748,38.3743479,0
27.1910047,38.3743078,0
</coordinates>
</LineString>
</Placemark>

<Placemark>
<name>AYT_Kurucesme_route_1 | Rota 1 | Adım 10 | Servis Edge 436 (395->394)</name>
<styleUrl>#service</styleUrl>
<LineString>
<tessellate>1</tessellate>
<coordinates>
27.1910047,38.3743078,0
27.1909478,38.3739445,0
27.1909069,38.3735748,0
</coordinates>
</LineString>
</Placemark>

<Placemark>
<name>AYT_Kurucesme_route_1 | Rota 1 | Adım 11 | Travel 394->393</name>
<styleUrl>#travel</styleUrl>
<LineString>
<tessellate>1</tessellate>
<coordinates>
27.190902,38.3732095,0
27.1909069,38.3735748,0
</coordinates>
</LineString>
</Placemark>

<Placemark>
<name>AYT_Kurucesme_route_1 | Rota 1 | Adım 11 | Travel 393->316</name>
<styleUrl>#travel</styleUrl>
<LineString>
<tessellate>1</tessellate>
<coordinates>
27.1909014,38.3731472,0
27.190902,38.3732095,0
</coordinates>
</LineString>
</Placemark>

<Placemark>
<name>AYT_Kurucesme_route_1 | Rota 1 | Adım 11 | Travel 316->317</name>
<styleUrl>#travel</styleUrl>
<LineString>
<tessellate>1</tessellate>
<coordinates>
27.1909014,38.3731472,0
27.1908645,38.3728826,0
</coordinates>
</LineString>
</Placemark>

<Placemark>
<name>AYT_Kurucesme_route_1 | Rota 1 | Adım 11 | Travel 317->318</name>
<styleUrl>#travel</styleUrl>
<LineString>
<tessellate>1</tessellate>
<coordinates>
27.1908645,38.3728826,0
27.1907788,38.3723874,0
</coordinates>
</LineString>
</Placemark>

<Placemark>
<name>AYT_Kurucesme_route_1 | Rota 1 | Adım 11 | Travel 318->392</name>
<styleUrl>#travel</styleUrl>
<LineString>
<tessellate>1</tessellate>
<coordinates>
27.1907788,38.3723874,0
27.1911572,38.3722752,0
</coordinates>
</LineString>
</Placemark>

<Placemark>
<name>AYT_Kurucesme_route_1 | Rota 1 | Adım 11 | Travel 392->391</name>
<styleUrl>#travel</styleUrl>
<LineString>
<tessellate>1</tessellate>
<coordinates>
27.1916028,38.3721771,0
27.1911572,38.3722752,0
</coordinates>
</LineString>
</Placemark>

<Placemark>
<name>AYT_Kurucesme_route_1 | Rota 1 | Adım 11 | Travel 391->390</name>
<styleUrl>#travel</styleUrl>
<LineString>
<tessellate>1</tessellate>
<coordinates>
27.1916209,38.371862,0
27.1916028,38.3721771,0
</coordinates>
</LineString>
</Placemark>

<Placemark>
<name>AYT_Kurucesme_route_1 | Rota 1 | Adım 11 | Travel 390->389</name>
<styleUrl>#travel</styleUrl>
<LineString>
<tessellate>1</tessellate>
<coordinates>
27.1916525,38.3716274,0
27.1916209,38.371862,0
</coordinates>
</LineString>
</Placemark>

<Placemark>
<name>AYT_Kurucesme_route_1 | Rota 1 | Adım 11 | Travel 389->388</name>
<styleUrl>#travel</styleUrl>
<LineString>
<tessellate>1</tessellate>
<coordinates>
27.1917686,38.3716146,0
27.1916525,38.3716274,0
</coordinates>
</LineString>
</Placemark>

<Placemark>
<name>AYT_Kurucesme_route_1 | Rota 1 | Adım 11 | Travel 388->399</name>
<styleUrl>#travel</styleUrl>
<LineString>
<tessellate>1</tessellate>
<coordinates>
27.1917686,38.3716146,0
27.1916992,38.3708891,0
</coordinates>
</LineString>
</Placemark>

<Placemark>
<name>AYT_Kurucesme_route_1 | Rota 1 | Adım 11 | Servis Edge 388 (399->434)</name>
<styleUrl>#service</styleUrl>
<LineString>
<tessellate>1</tessellate>
<coordinates>
27.1916992,38.3708891,0
27.1920495,38.3708881,0
</coordinates>
</LineString>
</Placemark>

<Placemark>
<name>AYT_Kurucesme_route_1 | Rota 1 | Adım 12 | Travel 434->399</name>
<styleUrl>#travel</styleUrl>
<LineString>
<tessellate>1</tessellate>
<coordinates>
27.1920495,38.3708881,0
27.1916992,38.3708891,0
</coordinates>
</LineString>
</Placemark>

<Placemark>
<name>AYT_Kurucesme_route_1 | Rota 1 | Adım 12 | Travel 399->388</name>
<styleUrl>#travel</styleUrl>
<LineString>
<tessellate>1</tessellate>
<coordinates>
27.1916992,38.3708891,0
27.1917686,38.3716146,0
</coordinates>
</LineString>
</Placemark>

<Placemark>
<name>AYT_Kurucesme_route_1 | Rota 1 | Adım 12 | Travel 388->389</name>
<styleUrl>#travel</styleUrl>
<LineString>
<tessellate>1</tessellate>
<coordinates>
27.1916525,38.3716274,0
27.1917686,38.3716146,0
</coordinates>
</LineString>
</Placemark>

<Placemark>
<name>AYT_Kurucesme_route_1 | Rota 1 | Adım 12 | Travel 389->390</name>
<styleUrl>#travel</styleUrl>
<LineString>
<tessellate>1</tessellate>
<coordinates>
27.1916209,38.371862,0
27.1916525,38.3716274,0
</coordinates>
</LineString>
</Placemark>

<Placemark>
<name>AYT_Kurucesme_route_1 | Rota 1 | Adım 12 | Travel 390->391</name>
<styleUrl>#travel</styleUrl>
<LineString>
<tessellate>1</tessellate>
<coordinates>
27.1916028,38.3721771,0
27.1916209,38.371862,0
</coordinates>
</LineString>
</Placemark>

<Placemark>
<name>AYT_Kurucesme_route_1 | Rota 1 | Adım 12 | Travel 391->392</name>
<styleUrl>#travel</styleUrl>
<LineString>
<tessellate>1</tessellate>
<coordinates>
27.1911572,38.3722752,0
27.1916028,38.3721771,0
</coordinates>
</LineString>
</Placemark>

<Placemark>
<name>AYT_Kurucesme_route_1 | Rota 1 | Adım 12 | Travel 392->318</name>
<styleUrl>#travel</styleUrl>
<LineString>
<tessellate>1</tessellate>
<coordinates>
27.1911572,38.3722752,0
27.1907788,38.3723874,0
</coordinates>
</LineString>
</Placemark>

<Placemark>
<name>AYT_Kurucesme_route_1 | Rota 1 | Adım 12 | Travel 318->317</name>
<styleUrl>#travel</styleUrl>
<LineString>
<tessellate>1</tessellate>
<coordinates>
27.1907788,38.3723874,0
27.1908645,38.3728826,0
</coordinates>
</LineString>
</Placemark>

<Placemark>
<name>AYT_Kurucesme_route_1 | Rota 1 | Adım 12 | Travel 317->316</name>
<styleUrl>#travel</styleUrl>
<LineString>
<tessellate>1</tessellate>
<coordinates>
27.1908645,38.3728826,0
27.1909014,38.3731472,0
</coordinates>
</LineString>
</Placemark>

<Placemark>
<name>AYT_Kurucesme_route_1 | Rota 1 | Adım 12 | Travel 316->393</name>
<styleUrl>#travel</styleUrl>
<LineString>
<tessellate>1</tessellate>
<coordinates>
27.190902,38.3732095,0
27.1909014,38.3731472,0
</coordinates>
</LineString>
</Placemark>

<Placemark>
<name>AYT_Kurucesme_route_1 | Rota 1 | Adım 12 | Travel 393->394</name>
<styleUrl>#travel</styleUrl>
<LineString>
<tessellate>1</tessellate>
<coordinates>
27.1909069,38.3735748,0
27.190902,38.3732095,0
</coordinates>
</LineString>
</Placemark>

<Placemark>
<name>AYT_Kurucesme_route_1 | Rota 1 | Adım 12 | Travel 394->314</name>
<styleUrl>#travel</styleUrl>
<LineString>
<tessellate>1</tessellate>
<coordinates>
27.1909069,38.3735748,0
27.1901765,38.3736929,0
</coordinates>
</LineString>
</Placemark>

<Placemark>
<name>AYT_Kurucesme_route_1 | Rota 1 | Adım 12 | Travel 314->237</name>
<styleUrl>#travel</styleUrl>
<LineString>
<tessellate>1</tessellate>
<coordinates>
27.1901765,38.3736929,0
27.1898158,38.3737504,0
27.189667,38.373804,0
27.189536,38.3738866,0
</coordinates>
</LineString>
</Placemark>

<Placemark>
<name>AYT_Kurucesme_route_1 | Rota 1 | Adım 12 | Servis Edge 636 (237->143)</name>
<styleUrl>#service</styleUrl>
<LineString>
<tessellate>1</tessellate>
<coordinates>
27.189536,38.3738866,0
27.1890444,38.3741301,0
27.18903,38.37413,0
</coordinates>
</LineString>
</Placemark>

<Placemark>
<name>AYT_Kurucesme_route_1 | Rota 1 | Adım 13 | Travel 143->145</name>
<styleUrl>#travel</styleUrl>
<LineString>
<tessellate>1</tessellate>
<coordinates>
27.18903,38.37413,0
27.1892439,38.3743666,0
27.1894666,38.3746673,0
27.18983,38.37529,0
</coordinates>
</LineString>
</Placemark>

<Placemark>
<name>AYT_Kurucesme_route_1 | Rota 1 | Adım 13 | Travel 145->235</name>
<styleUrl>#travel</styleUrl>
<LineString>
<tessellate>1</tessellate>
<coordinates>
27.18983,38.37529,0
27.1898461,38.3752839,0
27.1902636,38.375049,0
</coordinates>
</LineString>
</Placemark>

<Placemark>
<name>AYT_Kurucesme_route_1 | Rota 1 | Adım 13 | Travel 235->234</name>
<styleUrl>#travel</styleUrl>
<LineString>
<tessellate>1</tessellate>
<coordinates>
27.1904429,38.375328,0
27.1902636,38.375049,0
</coordinates>
</LineString>
</Placemark>

<Placemark>
<name>AYT_Kurucesme_route_1 | Rota 1 | Adım 13 | Servis Edge 448 (234->311)</name>
<styleUrl>#service</styleUrl>
<LineString>
<tessellate>1</tessellate>
<coordinates>
27.1904429,38.375328,0
27.190674,38.3753712,0
27.1908101,38.3753922,0
27.1909026,38.3753969,0
27.1909931,38.3754011,0
27.1912423,38.3753895,0
</coordinates>
</LineString>
</Placemark>

<Placemark>
<name>AYT_Kurucesme_route_1 | Rota 1 | Adım 14 | Travel 311->234</name>
<styleUrl>#travel</styleUrl>
<LineString>
<tessellate>1</tessellate>
<coordinates>
27.1912423,38.3753895,0
27.1909931,38.3754011,0
27.1909026,38.3753969,0
27.1908101,38.3753922,0
27.190674,38.3753712,0
27.1904429,38.375328,0
</coordinates>
</LineString>
</Placemark>

<Placemark>
<name>AYT_Kurucesme_route_1 | Rota 1 | Adım 14 | Servis Edge 450 (234->233)</name>
<styleUrl>#service</styleUrl>
<LineString>
<tessellate>1</tessellate>
<coordinates>
27.1909492,38.3762262,0
27.1908156,38.3760035,0
27.19069,38.3757782,0
27.1904429,38.375328,0
</coordinates>
</LineString>
</Placemark>

<Placemark>
<name>AYT_Kurucesme_route_1 | Rota 1 | Adım 15 | Travel 233->232</name>
<styleUrl>#travel</styleUrl>
<LineString>
<tessellate>1</tessellate>
<coordinates>
27.1909492,38.3762262,0
27.1911615,38.3761205,0
27.1912705,38.376055,0
27.1913795,38.3759801,0
27.1914996,38.3759037,0
27.1915422,38.3758773,0
27.1916109,38.3758225,0
</coordinates>
</LineString>
</Placemark>

<Placemark>
<name>AYT_Kurucesme_route_1 | Rota 1 | Adım 15 | Travel 232->231</name>
<styleUrl>#travel</styleUrl>
<LineString>
<tessellate>1</tessellate>
<coordinates>
27.1916109,38.3758225,0
27.191732,38.3756458,0
27.1919134,38.3754144,0
</coordinates>
</LineString>
</Placemark>

<Placemark>
<name>AYT_Kurucesme_route_1 | Rota 1 | Adım 15 | Travel 231->230</name>
<styleUrl>#travel</styleUrl>
<LineString>
<tessellate>1</tessellate>
<coordinates>
27.1919134,38.3754144,0
27.1921118,38.3751886,0
</coordinates>
</LineString>
</Placemark>

<Placemark>
<name>AYT_Kurucesme_route_1 | Rota 1 | Adım 15 | Travel 230->229</name>
<styleUrl>#travel</styleUrl>
<LineString>
<tessellate>1</tessellate>
<coordinates>
27.1921118,38.3751886,0
27.1924182,38.3748001,0
</coordinates>
</LineString>
</Placemark>

<Placemark>
<name>AYT_Kurucesme_route_1 | Rota 1 | Adım 15 | Travel 229->228</name>
<styleUrl>#travel</styleUrl>
<LineString>
<tessellate>1</tessellate>
<coordinates>
27.1924182,38.3748001,0
27.1926993,38.3744204,0
</coordinates>
</LineString>
</Placemark>

<Placemark>
<name>AYT_Kurucesme_route_1 | Rota 1 | Adım 15 | Servis Edge 456 (228->309)</name>
<styleUrl>#service</styleUrl>
<LineString>
<tessellate>1</tessellate>
<coordinates>
27.1916225,38.3742708,0
27.1920201,38.3743167,0
27.1926993,38.3744204,0
</coordinates>
</LineString>
</Placemark>

<Placemark>
<name>AYT_Kurucesme_route_1 | Rota 1 | Adım 16 | Travel 309->308</name>
<styleUrl>#travel</styleUrl>
<LineString>
<tessellate>1</tessellate>
<coordinates>
27.191646,38.373526,0
27.1916039,38.3740565,0
27.1916079,38.3741863,0
27.1916225,38.3742708,0
</coordinates>
</LineString>
</Placemark>

<Placemark>
<name>AYT_Kurucesme_route_1 | Rota 1 | Adım 16 | Travel 308->307</name>
<styleUrl>#travel</styleUrl>
<LineString>
<tessellate>1</tessellate>
<coordinates>
27.1921549,38.3730764,0
27.192086,38.3732014,0
27.1920528,38.3732879,0
27.1920501,38.3733113,0
27.1920488,38.3734645,0
27.19203,38.3734961,0
27.1920025,38.3735145,0
27.1919763,38.3735224,0
27.191646,38.373526,0
</coordinates>
</LineString>
</Placemark>

<Placemark>
<name>AYT_Kurucesme_route_1 | Rota 1 | Adım 16 | Travel 307->306</name>
<styleUrl>#travel</styleUrl>
<LineString>
<tessellate>1</tessellate>
<coordinates>
27.1923756,38.3728102,0
27.1922973,38.3729572,0
27.1921549,38.3730764,0
</coordinates>
</LineString>
</Placemark>

<Placemark>
<name>AYT_Kurucesme_route_1 | Rota 1 | Adım 16 | Travel 306->305</name>
<styleUrl>#travel</styleUrl>
<LineString>
<tessellate>1</tessellate>
<coordinates>
27.1923723,38.3721617,0
27.1924132,38.3725851,0
27.1924119,38.3726451,0
27.1924172,38.3727639,0
27.1923756,38.3728102,0
</coordinates>
</LineString>
</Placemark>

<Placemark>
<name>AYT_Kurucesme_route_1 | Rota 1 | Adım 16 | Travel 305->304</name>
<styleUrl>#travel</styleUrl>
<LineString>
<tessellate>1</tessellate>
<coordinates>
27.1930836,38.3722019,0
27.1923723,38.3721617,0
</coordinates>
</LineString>
</Placemark>

<Placemark>
<name>AYT_Kurucesme_route_1 | Rota 1 | Adım 16 | Travel 304->387</name>
<styleUrl>#travel</styleUrl>
<LineString>
<tessellate>1</tessellate>
<coordinates>
27.1929382,38.3718764,0
27.1930836,38.3722019,0
</coordinates>
</LineString>
</Placemark>

<Placemark>
<name>AYT_Kurucesme_route_1 | Rota 1 | Adım 16 | Travel 387->431</name>
<styleUrl>#travel</styleUrl>
<LineString>
<tessellate>1</tessellate>
<coordinates>
27.1929382,38.3718764,0
27.1930406,38.3717709,0
27.1931398,38.3717015,0
27.1931707,38.3716679,0
27.1932693,38.3714909,0
</coordinates>
</LineString>
</Placemark>

<Placemark>
<name>AYT_Kurucesme_route_1 | Rota 1 | Adım 16 | Travel 431->432</name>
<styleUrl>#travel</styleUrl>
<LineString>
<tessellate>1</tessellate>
<coordinates>
27.1932693,38.3714909,0
27.1934038,38.3712677,0
</coordinates>
</LineString>
</Placemark>

<Placemark>
<name>AYT_Kurucesme_route_1 | Rota 1 | Adım 16 | Travel 432->433</name>
<styleUrl>#travel</styleUrl>
<LineString>
<tessellate>1</tessellate>
<coordinates>
27.1934038,38.3712677,0
27.1935796,38.3713,0
</coordinates>
</LineString>
</Placemark>

<Placemark>
<name>AYT_Kurucesme_route_1 | Rota 1 | Adım 16 | Travel 433->297</name>
<styleUrl>#travel</styleUrl>
<LineString>
<tessellate>1</tessellate>
<coordinates>
27.1937698,38.3708804,0
27.1935796,38.3713,0
</coordinates>
</LineString>
</Placemark>

<Placemark>
<name>AYT_Kurucesme_route_1 | Rota 1 | Adım 16 | Travel 297->296</name>
<styleUrl>#travel</styleUrl>
<LineString>
<tessellate>1</tessellate>
<coordinates>
27.1940191,38.3703876,0
27.1937698,38.3708804,0
</coordinates>
</LineString>
</Placemark>

<Placemark>
<name>AYT_Kurucesme_route_1 | Rota 1 | Adım 16 | Servis Edge 419 (296->295)</name>
<styleUrl>#service</styleUrl>
<LineString>
<tessellate>1</tessellate>
<coordinates>
27.1940939,38.3700976,0
27.1940191,38.3703876,0
</coordinates>
</LineString>
</Placemark>

<Placemark>
<name>AYT_Kurucesme_route_1 | Rota 1 | Adım 17 | Travel 295->296</name>
<styleUrl>#travel</styleUrl>
<LineString>
<tessellate>1</tessellate>
<coordinates>
27.1940191,38.3703876,0
27.1940939,38.3700976,0
</coordinates>
</LineString>
</Placemark>

<Placemark>
<name>AYT_Kurucesme_route_1 | Rota 1 | Adım 17 | Servis Edge 413 (296->223)</name>
<styleUrl>#service</styleUrl>
<LineString>
<tessellate>1</tessellate>
<coordinates>
27.1951875,38.3706995,0
27.1940191,38.3703876,0
</coordinates>
</LineString>
</Placemark>

<Placemark>
<name>AYT_Kurucesme_route_1 | Rota 1 | Adım 18 | Travel 223->222</name>
<styleUrl>#travel</styleUrl>
<LineString>
<tessellate>1</tessellate>
<coordinates>
27.1951875,38.3706995,0
27.1952345,38.3705726,0
27.1953047,38.3704635,0
</coordinates>
</LineString>
</Placemark>

<Placemark>
<name>AYT_Kurucesme_route_1 | Rota 1 | Adım 18 | Travel 222->220</name>
<styleUrl>#travel</styleUrl>
<LineString>
<tessellate>1</tessellate>
<coordinates>
27.1953047,38.3704635,0
27.1953004,38.3704453,0
27.1952974,38.3704335,0
27.1953024,38.3703917,0
27.1953088,38.3703749,0
27.1953222,38.370351,0
27.1953416,38.3703292,0
27.1953681,38.370311,0
27.1953999,38.3702952,0
27.1954149,38.3702872,0
</coordinates>
</LineString>
</Placemark>

<Placemark>
<name>AYT_Kurucesme_route_1 | Rota 1 | Adım 18 | Travel 220->219</name>
<styleUrl>#travel</styleUrl>
<LineString>
<tessellate>1</tessellate>
<coordinates>
27.1954149,38.3702872,0
27.1954911,38.3701157,0
27.1956915,38.3698179,0
27.1958565,38.3694769,0
</coordinates>
</LineString>
</Placemark>

<Placemark>
<name>AYT_Kurucesme_route_1 | Rota 1 | Adım 18 | Travel 219->292</name>
<styleUrl>#travel</styleUrl>
<LineString>
<tessellate>1</tessellate>
<coordinates>
27.1958565,38.3694769,0
27.1946872,38.3692405,0
</coordinates>
</LineString>
</Placemark>

<Placemark>
<name>AYT_Kurucesme_route_1 | Rota 1 | Adım 18 | Servis Edge 592 (292->291)</name>
<styleUrl>#service</styleUrl>
<LineString>
<tessellate>1</tessellate>
<coordinates>
27.1946872,38.3692405,0
27.1948077,38.3689642,0
27.1950455,38.368509,0
27.1952217,38.3681477,0
</coordinates>
</LineString>
</Placemark>

<Placemark>
<name>AYT_Kurucesme_route_1 | Rota 1 | Adım 19 | Travel 291->290</name>
<styleUrl>#travel</styleUrl>
<LineString>
<tessellate>1</tessellate>
<coordinates>
27.1953321,38.3679216,0
27.1952217,38.3681477,0
</coordinates>
</LineString>
</Placemark>

<Placemark>
<name>AYT_Kurucesme_route_1 | Rota 1 | Adım 19 | Travel 290->375</name>
<styleUrl>#travel</styleUrl>
<LineString>
<tessellate>1</tessellate>
<coordinates>
27.1951435,38.3679266,0
27.1953321,38.3679216,0
</coordinates>
</LineString>
</Placemark>

<Placemark>
<name>AYT_Kurucesme_route_1 | Rota 1 | Adım 19 | Travel 375->376</name>
<styleUrl>#travel</styleUrl>
<LineString>
<tessellate>1</tessellate>
<coordinates>
27.1939535,38.368147,0
27.1946797,38.3679995,0
27.1951435,38.3679266,0
</coordinates>
</LineString>
</Placemark>

<Placemark>
<name>AYT_Kurucesme_route_1 | Rota 1 | Adım 19 | Travel 376->415</name>
<styleUrl>#travel</styleUrl>
<LineString>
<tessellate>1</tessellate>
<coordinates>
27.1932366,38.3684319,0
27.1937208,38.3681983,0
27.1939535,38.368147,0
</coordinates>
</LineString>
</Placemark>

<Placemark>
<name>AYT_Kurucesme_route_1 | Rota 1 | Adım 19 | Travel 415->414</name>
<styleUrl>#travel</styleUrl>
<LineString>
<tessellate>1</tessellate>
<coordinates>
27.1932366,38.3684319,0
27.1930287,38.3681329,0
27.192884,38.3679674,0
</coordinates>
</LineString>
</Placemark>

<Placemark>
<name>AYT_Kurucesme_route_1 | Rota 1 | Adım 19 | Travel 414->358</name>
<styleUrl>#travel</styleUrl>
<LineString>
<tessellate>1</tessellate>
<coordinates>
27.192884,38.3679674,0
27.1926219,38.3678308,0
</coordinates>
</LineString>
</Placemark>

<Placemark>
<name>AYT_Kurucesme_route_1 | Rota 1 | Adım 19 | Travel 358->357</name>
<styleUrl>#travel</styleUrl>
<LineString>
<tessellate>1</tessellate>
<coordinates>
27.1926219,38.3678308,0
27.1923688,38.3676874,0
</coordinates>
</LineString>
</Placemark>

<Placemark>
<name>AYT_Kurucesme_route_1 | Rota 1 | Adım 19 | Travel 357->271</name>
<styleUrl>#travel</styleUrl>
<LineString>
<tessellate>1</tessellate>
<coordinates>
27.1923688,38.3676874,0
27.192495,38.3674693,0
</coordinates>
</LineString>
</Placemark>

<Placemark>
<name>AYT_Kurucesme_route_1 | Rota 1 | Adım 19 | Travel 271->270</name>
<styleUrl>#travel</styleUrl>
<LineString>
<tessellate>1</tessellate>
<coordinates>
27.192495,38.3674693,0
27.1922855,38.3673133,0
27.1918187,38.3670256,0
27.191368,38.3667887,0
</coordinates>
</LineString>
</Placemark>

<Placemark>
<name>AYT_Kurucesme_route_1 | Rota 1 | Adım 19 | Travel 270->269</name>
<styleUrl>#travel</styleUrl>
<LineString>
<tessellate>1</tessellate>
<coordinates>
27.191368,38.3667887,0
27.1912595,38.3667144,0
27.1909953,38.366501,0
27.1908376,38.3663476,0
</coordinates>
</LineString>
</Placemark>

<Placemark>
<name>AYT_Kurucesme_route_1 | Rota 1 | Adım 19 | Travel 269->268</name>
<styleUrl>#travel</styleUrl>
<LineString>
<tessellate>1</tessellate>
<coordinates>
27.1908376,38.3663476,0
27.1905914,38.3661132,0
</coordinates>
</LineString>
</Placemark>

<Placemark>
<name>AYT_Kurucesme_route_1 | Rota 1 | Adım 19 | Travel 268->205</name>
<styleUrl>#travel</styleUrl>
<LineString>
<tessellate>1</tessellate>
<coordinates>
27.1905914,38.3661132,0
27.1905241,38.3660351,0
</coordinates>
</LineString>
</Placemark>

<Placemark>
<name>AYT_Kurucesme_route_1 | Rota 1 | Adım 19 | Servis Edge 657 (205->204)</name>
<styleUrl>#service</styleUrl>
<LineString>
<tessellate>1</tessellate>
<coordinates>
27.1905241,38.3660351,0
27.1904774,38.3659835,0
27.1901037,38.3656918,0
27.1900859,38.3656803,0
27.1898828,38.3655627,0
27.1896153,38.3659436,0
</coordinates>
</LineString>
</Placemark>

<Placemark>
<name>AYT_Kurucesme_route_1 | Rota 1 | Adım 20 | Travel 204->266</name>
<styleUrl>#travel</styleUrl>
<LineString>
<tessellate>1</tessellate>
<coordinates>
27.1896153,38.3659436,0
27.1898484,38.3660635,0
27.1900014,38.3661464,0
</coordinates>
</LineString>
</Placemark>

<Placemark>
<name>AYT_Kurucesme_route_1 | Rota 1 | Adım 20 | Travel 266->265</name>
<styleUrl>#travel</styleUrl>
<LineString>
<tessellate>1</tessellate>
<coordinates>
27.1900014,38.3661464,0
27.1894878,38.3665559,0
</coordinates>
</LineString>
</Placemark>

<Placemark>
<name>AYT_Kurucesme_route_1 | Rota 1 | Adım 20 | Servis Edge 459 (265->352)</name>
<styleUrl>#service</styleUrl>
<LineString>
<tessellate>1</tessellate>
<coordinates>
27.1901568,38.3670807,0
27.1894878,38.3665559,0
</coordinates>
</LineString>
</Placemark>

<Placemark>
<name>AYT_Kurucesme_route_1 | Rota 1 | Adım 21 | Travel 352->353</name>
<styleUrl>#travel</styleUrl>
<LineString>
<tessellate>1</tessellate>
<coordinates>
27.1901568,38.3670807,0
27.1907235,38.3667934,0
</coordinates>
</LineString>
</Placemark>

<Placemark>
<name>AYT_Kurucesme_route_1 | Rota 1 | Adım 21 | Travel 353->354</name>
<styleUrl>#travel</styleUrl>
<LineString>
<tessellate>1</tessellate>
<coordinates>
27.1907235,38.3667934,0
27.1910387,38.3670973,0
</coordinates>
</LineString>
</Placemark>

<Placemark>
<name>AYT_Kurucesme_route_1 | Rota 1 | Adım 21 | Travel 354->270</name>
<styleUrl>#travel</styleUrl>
<LineString>
<tessellate>1</tessellate>
<coordinates>
27.191368,38.3667887,0
27.1910387,38.3670973,0
</coordinates>
</LineString>
</Placemark>

<Placemark>
<name>AYT_Kurucesme_route_1 | Rota 1 | Adım 21 | Servis Edge 462 (270->269)</name>
<styleUrl>#service</styleUrl>
<LineString>
<tessellate>1</tessellate>
<coordinates>
27.191368,38.3667887,0
27.1912595,38.3667144,0
27.1909953,38.366501,0
27.1908376,38.3663476,0
</coordinates>
</LineString>
</Placemark>

<Placemark>
<name>AYT_Kurucesme_route_1 | Rota 1 | Adım 22 | Travel 269->270</name>
<styleUrl>#travel</styleUrl>
<LineString>
<tessellate>1</tessellate>
<coordinates>
27.1908376,38.3663476,0
27.1909953,38.366501,0
27.1912595,38.3667144,0
27.191368,38.3667887,0
</coordinates>
</LineString>
</Placemark>

<Placemark>
<name>AYT_Kurucesme_route_1 | Rota 1 | Adım 22 | Travel 270->354</name>
<styleUrl>#travel</styleUrl>
<LineString>
<tessellate>1</tessellate>
<coordinates>
27.1910387,38.3670973,0
27.191368,38.3667887,0
</coordinates>
</LineString>
</Placemark>

<Placemark>
<name>AYT_Kurucesme_route_1 | Rota 1 | Adım 22 | Travel 354->355</name>
<styleUrl>#travel</styleUrl>
<LineString>
<tessellate>1</tessellate>
<coordinates>
27.1910387,38.3670973,0
27.1916049,38.3674365,0
</coordinates>
</LineString>
</Placemark>

<Placemark>
<name>AYT_Kurucesme_route_1 | Rota 1 | Adım 22 | Travel 355->410</name>
<styleUrl>#travel</styleUrl>
<LineString>
<tessellate>1</tessellate>
<coordinates>
27.1907697,38.3676959,0
27.1908686,38.3676716,0
27.1910825,38.3676035,0
27.1912301,38.3675656,0
27.1916049,38.3674365,0
</coordinates>
</LineString>
</Placemark>

<Placemark>
<name>AYT_Kurucesme_route_1 | Rota 1 | Adım 22 | Travel 410->409</name>
<styleUrl>#travel</styleUrl>
<LineString>
<tessellate>1</tessellate>
<coordinates>
27.1907697,38.3676959,0
27.1902147,38.3678622,0
</coordinates>
</LineString>
</Placemark>

<Placemark>
<name>AYT_Kurucesme_route_1 | Rota 1 | Adım 22 | Travel 409->427</name>
<styleUrl>#travel</styleUrl>
<LineString>
<tessellate>1</tessellate>
<coordinates>
27.1902147,38.3678622,0
27.1905182,38.3683326,0
27.1906424,38.3686026,0
</coordinates>
</LineString>
</Placemark>

<Placemark>
<name>AYT_Kurucesme_route_1 | Rota 1 | Adım 22 | Travel 427->426</name>
<styleUrl>#travel</styleUrl>
<LineString>
<tessellate>1</tessellate>
<coordinates>
27.1906424,38.3686026,0
27.1906582,38.3688202,0
</coordinates>
</LineString>
</Placemark>

<Placemark>
<name>AYT_Kurucesme_route_1 | Rota 1 | Adım 22 | Travel 426->423</name>
<styleUrl>#travel</styleUrl>
<LineString>
<tessellate>1</tessellate>
<coordinates>
27.1907015,38.3691075,0
27.1906582,38.3688202,0
</coordinates>
</LineString>
</Placemark>

<Placemark>
<name>AYT_Kurucesme_route_1 | Rota 1 | Adım 22 | Travel 423->424</name>
<styleUrl>#travel</styleUrl>
<LineString>
<tessellate>1</tessellate>
<coordinates>
27.1907015,38.3691075,0
27.1907592,38.3690815,0
</coordinates>
</LineString>
</Placemark>

<Placemark>
<name>AYT_Kurucesme_route_1 | Rota 1 | Adım 22 | Travel 424->420</name>
<styleUrl>#travel</styleUrl>
<LineString>
<tessellate>1</tessellate>
<coordinates>
27.1907592,38.3690815,0
27.1908062,38.369343,0
</coordinates>
</LineString>
</Placemark>

<Placemark>
<name>AYT_Kurucesme_route_1 | Rota 1 | Adım 22 | Servis Edge 514 (420->422)</name>
<styleUrl>#service</styleUrl>
<LineString>
<tessellate>1</tessellate>
<coordinates>
27.1899296,38.3693914,0
27.1908062,38.369343,0
</coordinates>
</LineString>
</Placemark>

<Placemark>
<name>AYT_Kurucesme_route_1 | Rota 1 | Adım 23 | Travel 422->421</name>
<styleUrl>#travel</styleUrl>
<LineString>
<tessellate>1</tessellate>
<coordinates>
27.1898779,38.3692055,0
27.1899296,38.3693914,0
</coordinates>
</LineString>
</Placemark>

<Placemark>
<name>AYT_Kurucesme_route_1 | Rota 1 | Adım 23 | Travel 421->423</name>
<styleUrl>#travel</styleUrl>
<LineString>
<tessellate>1</tessellate>
<coordinates>
27.1898779,38.3692055,0
27.1905834,38.3691305,0
27.1907015,38.3691075,0
</coordinates>
</LineString>
</Placemark>

<Placemark>
<name>AYT_Kurucesme_route_1 | Rota 1 | Adım 23 | Travel 423->424</name>
<styleUrl>#travel</styleUrl>
<LineString>
<tessellate>1</tessellate>
<coordinates>
27.1907015,38.3691075,0
27.1907592,38.3690815,0
</coordinates>
</LineString>
</Placemark>

<Placemark>
<name>AYT_Kurucesme_route_1 | Rota 1 | Adım 23 | Servis Edge 517 (424->425)</name>
<styleUrl>#service</styleUrl>
<LineString>
<tessellate>1</tessellate>
<coordinates>
27.1907592,38.3690815,0
27.1914494,38.3690218,0
27.1917682,38.3689834,0
27.1919922,38.3689603,0
27.1925811,38.3688718,0
</coordinates>
</LineString>
</Placemark>

<Placemark>
<name>AYT_Kurucesme_route_1 | Rota 1 | Adım 24 | Travel 425->418</name>
<styleUrl>#travel</styleUrl>
<LineString>
<tessellate>1</tessellate>
<coordinates>
27.1926278,38.3690486,0
27.1925811,38.3688718,0
</coordinates>
</LineString>
</Placemark>

<Placemark>
<name>AYT_Kurucesme_route_1 | Rota 1 | Adım 24 | Travel 418->419</name>
<styleUrl>#travel</styleUrl>
<LineString>
<tessellate>1</tessellate>
<coordinates>
27.1926278,38.3690486,0
27.1926499,38.3691633,0
</coordinates>
</LineString>
</Placemark>

<Placemark>
<name>AYT_Kurucesme_route_1 | Rota 1 | Adım 24 | Servis Edge 571 (419->420)</name>
<styleUrl>#service</styleUrl>
<LineString>
<tessellate>1</tessellate>
<coordinates>
27.1908062,38.369343,0
27.1913952,38.369339,0
27.1916017,38.3693222,0
27.19176,38.3692927,0
27.1926499,38.3691633,0
</coordinates>
</LineString>
</Placemark>

<Placemark>
<name>AYT_Kurucesme_route_1 | Rota 1 | Adım RETURN | Travel 420->424</name>
<styleUrl>#travel</styleUrl>
<LineString>
<tessellate>1</tessellate>
<coordinates>
27.1908062,38.369343,0
27.1907592,38.3690815,0
</coordinates>
</LineString>
</Placemark>

<Placemark>
<name>AYT_Kurucesme_route_1 | Rota 1 | Adım RETURN | Travel 424->423</name>
<styleUrl>#travel</styleUrl>
<LineString>
<tessellate>1</tessellate>
<coordinates>
27.1907592,38.3690815,0
27.1907015,38.3691075,0
</coordinates>
</LineString>
</Placemark>

<Placemark>
<name>AYT_Kurucesme_route_1 | Rota 1 | Adım RETURN | Travel 423->426</name>
<styleUrl>#travel</styleUrl>
<LineString>
<tessellate>1</tessellate>
<coordinates>
27.1906582,38.3688202,0
27.1907015,38.3691075,0
</coordinates>
</LineString>
</Placemark>

<Placemark>
<name>AYT_Kurucesme_route_1 | Rota 1 | Adım RETURN | Travel 426->427</name>
<styleUrl>#travel</styleUrl>
<LineString>
<tessellate>1</tessellate>
<coordinates>
27.1906582,38.3688202,0
27.1906424,38.3686026,0
</coordinates>
</LineString>
</Placemark>

<Placemark>
<name>AYT_Kurucesme_route_1 | Rota 1 | Adım RETURN | Travel 427->409</name>
<styleUrl>#travel</styleUrl>
<LineString>
<tessellate>1</tessellate>
<coordinates>
27.1906424,38.3686026,0
27.1905182,38.3683326,0
27.1902147,38.3678622,0
</coordinates>
</LineString>
</Placemark>

<Placemark>
<name>AYT_Kurucesme_route_1 | Rota 1 | Adım RETURN | Travel 409->408</name>
<styleUrl>#travel</styleUrl>
<LineString>
<tessellate>1</tessellate>
<coordinates>
27.1902147,38.3678622,0
27.1896651,38.3680462,0
</coordinates>
</LineString>
</Placemark>

<Placemark>
<name>AYT_Kurucesme_route_1 | Rota 1 | Adım RETURN | Travel 408->351</name>
<styleUrl>#travel</styleUrl>
<LineString>
<tessellate>1</tessellate>
<coordinates>
27.1896651,38.3680462,0
27.189235,38.3675666,0
</coordinates>
</LineString>
</Placemark>

<Placemark>
<name>AYT_Kurucesme_route_1 | Rota 1 | Adım RETURN | Travel 351->264</name>
<styleUrl>#travel</styleUrl>
<LineString>
<tessellate>1</tessellate>
<coordinates>
27.189235,38.3675666,0
27.1884095,38.3669195,0
</coordinates>
</LineString>
</Placemark>

<Placemark>
<name>AYT_Kurucesme_route_1 | Rota 1 | Adım RETURN | Travel 264->263</name>
<styleUrl>#travel</styleUrl>
<LineString>
<tessellate>1</tessellate>
<coordinates>
27.1884095,38.3669195,0
27.1882086,38.3668188,0
27.1880315,38.3667652,0
27.187416,38.3667315,0
27.187351,38.3667212,0
</coordinates>
</LineString>
</Placemark>

<Placemark>
<name>AYT_Kurucesme_route_1 | Rota 1 | Adım RETURN | Travel 263->262</name>
<styleUrl>#travel</styleUrl>
<LineString>
<tessellate>1</tessellate>
<coordinates>
27.1872888,38.3667195,0
27.187351,38.3667212,0
</coordinates>
</LineString>
</Placemark>

<Placemark>
<name>AYT_Kurucesme_route_1 | Rota 1 | Adım RETURN | Travel 262->257</name>
<styleUrl>#travel</styleUrl>
<LineString>
<tessellate>1</tessellate>
<coordinates>
27.1872888,38.3667195,0
27.1872225,38.3667221,0
27.1864022,38.3666741,0
</coordinates>
</LineString>
</Placemark>

<Placemark>
<name>AYT_Kurucesme_route_1 | Rota 1 | Adım RETURN | Travel 257->256</name>
<styleUrl>#travel</styleUrl>
<LineString>
<tessellate>1</tessellate>
<coordinates>
27.1864022,38.3666741,0
27.1862187,38.3666771,0
27.1855824,38.3666638,0
</coordinates>
</LineString>
</Placemark>

<Placemark>
<name>AYT_Kurucesme_route_1 | Rota 1 | Adım RETURN | Travel 256->255</name>
<styleUrl>#travel</styleUrl>
<LineString>
<tessellate>1</tessellate>
<coordinates>
27.1855824,38.3666638,0
27.1854256,38.3666539,0
27.1848365,38.3666534,0
27.1846424,38.3666926,0
27.1843337,38.366891,0
27.184166,38.3670711,0
</coordinates>
</LineString>
</Placemark>

<Placemark>
<name>AYT_Kurucesme_route_1 | Rota 1 | Adım RETURN | Travel 255->201</name>
<styleUrl>#travel</styleUrl>
<LineString>
<tessellate>1</tessellate>
<coordinates>
27.184166,38.3670711,0
27.1838011,38.3669392,0
27.1837062,38.3669194,0
27.1836009,38.3666883,0
27.1833686,38.3663916,0
</coordinates>
</LineString>
</Placemark>

<Placemark>
<name>AYT_Kurucesme_route_1 | Rota 1 | Adım RETURN | Travel 201->200</name>
<styleUrl>#travel</styleUrl>
<LineString>
<tessellate>1</tessellate>
<coordinates>
27.1833686,38.3663916,0
27.1828545,38.3667282,0
</coordinates>
</LineString>
</Placemark>

<Placemark>
<name>AYT_Kurucesme_route_1 | Rota 1 | Adım RETURN | Travel 200->0</name>
<styleUrl>#travel</styleUrl>
<LineString>
<tessellate>1</tessellate>
<coordinates>
27.1828545,38.3667282,0
27.1824768,38.3664713,0
27.1823374,38.3664032,0
27.1821543,38.3663532,0
27.181878,38.3663359,0
27.1812279,38.3663616,0
27.1801155,38.3664494,0
</coordinates>
</LineString>
</Placemark>

</Document>
</kml>
