<?xml version="1.0" encoding="UTF-8"?>
<kml xmlns="http://www.opengis.net/kml/2.2">
<Document>
<name>AZU_Kurucesme_route_1 GA Rota Sonucu</name>

<Style id="service">
<LineStyle>
<color>ff0000ff</color>
<width>5</width>
</LineStyle>
</Style>

<Style id="travel">
<LineStyle>
<color>ffff0000</color>
<width>4</width>
</LineStyle>
</Style>

<Placemark>
<name>AZU_Kurucesme_route_1 | Rota 1 | Adım 1 | Travel 0->200</name>
<styleUrl>#travel</styleUrl>
<LineString>
<tessellate>1</tessellate>
<coordinates>
27.1801155,38.3664494,0
27.1812279,38.3663616,0
27.181878,38.3663359,0
27.1821543,38.3663532,0
27.1823374,38.3664032,0
27.1824768,38.3664713,0
27.1828545,38.3667282,0
</coordinates>
</LineString>
</Placemark>

<Placemark>
<name>AZU_Kurucesme_route_1 | Rota 1 | Adım 1 | Travel 200->201</name>
<styleUrl>#travel</styleUrl>
<LineString>
<tessellate>1</tessellate>
<coordinates>
27.1828545,38.3667282,0
27.1833686,38.3663916,0
</coordinates>
</LineString>
</Placemark>

<Placemark>
<name>AZU_Kurucesme_route_1 | Rota 1 | Adım 1 | Travel 201->255</name>
<styleUrl>#travel</styleUrl>
<LineString>
<tessellate>1</tessellate>
<coordinates>
27.1833686,38.3663916,0
27.1836009,38.3666883,0
27.1837062,38.3669194,0
27.1838011,38.3669392,0
27.184166,38.3670711,0
</coordinates>
</LineString>
</Placemark>

<Placemark>
<name>AZU_Kurucesme_route_1 | Rota 1 | Adım 1 | Travel 255->345</name>
<styleUrl>#travel</styleUrl>
<LineString>
<tessellate>1</tessellate>
<coordinates>
27.184166,38.3670711,0
27.18462,38.3671665,0
27.1850599,38.367196,0
27.1855385,38.3672189,0
</coordinates>
</LineString>
</Placemark>

<Placemark>
<name>AZU_Kurucesme_route_1 | Rota 1 | Adım 1 | Travel 345->344</name>
<styleUrl>#travel</styleUrl>
<LineString>
<tessellate>1</tessellate>
<coordinates>
27.1854527,38.3677292,0
27.1855385,38.3672189,0
</coordinates>
</LineString>
</Placemark>

<Placemark>
<name>AZU_Kurucesme_route_1 | Rota 1 | Adım 1 | Travel 344->343</name>
<styleUrl>#travel</styleUrl>
<LineString>
<tessellate>1</tessellate>
<coordinates>
27.1854527,38.3677292,0
27.1853911,38.3687866,0
</coordinates>
</LineString>
</Placemark>

<Placemark>
<name>AZU_Kurucesme_route_1 | Rota 1 | Adım 1 | Travel 343->337</name>
<styleUrl>#travel</styleUrl>
<LineString>
<tessellate>1</tessellate>
<coordinates>
27.1853911,38.3687866,0
27.1854105,38.3694085,0
27.1853734,38.3697715,0
27.1853692,38.3698712,0
</coordinates>
</LineString>
</Placemark>

<Placemark>
<name>AZU_Kurucesme_route_1 | Rota 1 | Adım 1 | Travel 337->336</name>
<styleUrl>#travel</styleUrl>
<LineString>
<tessellate>1</tessellate>
<coordinates>
27.1853692,38.3698712,0
27.1856395,38.369926,0
27.186306,38.3700174,0
27.1865109,38.3700343,0
27.1871026,38.3700424,0
</coordinates>
</LineString>
</Placemark>

<Placemark>
<name>AZU_Kurucesme_route_1 | Rota 1 | Adım 1 | Travel 336->335</name>
<styleUrl>#travel</styleUrl>
<LineString>
<tessellate>1</tessellate>
<coordinates>
27.1871026,38.3700424,0
27.1872105,38.3700447,0
</coordinates>
</LineString>
</Placemark>

<Placemark>
<name>AZU_Kurucesme_route_1 | Rota 1 | Adım 1 | Servis Edge 702 (335->334)</name>
<styleUrl>#service</styleUrl>
<LineString>
<tessellate>1</tessellate>
<coordinates>
27.1872295,38.3700449,0
27.187251,38.3700439,0
27.1881345,38.3699727,0
</coordinates>
</LineString>
</Placemark>

<Placemark>
<name>AZU_Kurucesme_route_1 | Rota 1 | Adım 2 | Travel 334->333</name>
<styleUrl>#travel</styleUrl>
<LineString>
<tessellate>1</tessellate>
<coordinates>
27.1881345,38.3699727,0
27.1899871,38.3698061,0
</coordinates>
</LineString>
</Placemark>

<Placemark>
<name>AZU_Kurucesme_route_1 | Rota 1 | Adım 2 | Servis Edge 645 (333->435)</name>
<styleUrl>#service</styleUrl>
<LineString>
<tessellate>1</tessellate>
<coordinates>
27.1899869,38.3697981,0
27.1899871,38.3698061,0
27.1906633,38.3697984,0
27.1918499,38.3698285,0
27.1928665,38.3698343,0
</coordinates>
</LineString>
</Placemark>

<Placemark>
<name>AZU_Kurucesme_route_1 | Rota 1 | Adım 3 | Travel 435->380</name>
<styleUrl>#travel</styleUrl>
<LineString>
<tessellate>1</tessellate>
<coordinates>
27.1928665,38.3698343,0
27.1931849,38.3698567,0
27.1932836,38.3698895,0
</coordinates>
</LineString>
</Placemark>

<Placemark>
<name>AZU_Kurucesme_route_1 | Rota 1 | Adım 3 | Travel 380->379</name>
<styleUrl>#travel</styleUrl>
<LineString>
<tessellate>1</tessellate>
<coordinates>
27.1933398,38.3695486,0
27.1933092,38.3697706,0
27.1932836,38.3698895,0
</coordinates>
</LineString>
</Placemark>

<Placemark>
<name>AZU_Kurucesme_route_1 | Rota 1 | Adım 3 | Servis Edge 492 (379->417)</name>
<styleUrl>#service</styleUrl>
<LineString>
<tessellate>1</tessellate>
<coordinates>
27.1934631,38.3689645,0
27.1933398,38.3695486,0
</coordinates>
</LineString>
</Placemark>

<Placemark>
<name>AZU_Kurucesme_route_1 | Rota 1 | Adım 4 | Travel 417->377</name>
<styleUrl>#travel</styleUrl>
<LineString>
<tessellate>1</tessellate>
<coordinates>
27.1935779,38.3689644,0
27.1934631,38.3689645,0
</coordinates>
</LineString>
</Placemark>

<Placemark>
<name>AZU_Kurucesme_route_1 | Rota 1 | Adım 4 | Travel 377->376</name>
<styleUrl>#travel</styleUrl>
<LineString>
<tessellate>1</tessellate>
<coordinates>
27.1939535,38.368147,0
27.1939317,38.3682926,0
27.1938056,38.3685649,0
27.1936727,38.3688224,0
27.1935779,38.3689644,0
</coordinates>
</LineString>
</Placemark>

<Placemark>
<name>AZU_Kurucesme_route_1 | Rota 1 | Adım 4 | Servis Edge 497 (376->375)</name>
<styleUrl>#service</styleUrl>
<LineString>
<tessellate>1</tessellate>
<coordinates>
27.1951435,38.3679266,0
27.1946797,38.3679995,0
27.1939535,38.368147,0
</coordinates>
</LineString>
</Placemark>

<Placemark>
<name>AZU_Kurucesme_route_1 | Rota 1 | Adım 5 | Servis Edge 498 (375->290)</name>
<styleUrl>#service</styleUrl>
<LineString>
<tessellate>1</tessellate>
<coordinates>
27.1953321,38.3679216,0
27.1951435,38.3679266,0
</coordinates>
</LineString>
</Placemark>

<Placemark>
<name>AZU_Kurucesme_route_1 | Rota 1 | Adım 6 | Travel 290->289</name>
<styleUrl>#travel</styleUrl>
<LineString>
<tessellate>1</tessellate>
<coordinates>
27.1964399,38.3680122,0
27.1957935,38.3679238,0
27.1953321,38.3679216,0
</coordinates>
</LineString>
</Placemark>

<Placemark>
<name>AZU_Kurucesme_route_1 | Rota 1 | Adım 6 | Travel 289->217</name>
<styleUrl>#travel</styleUrl>
<LineString>
<tessellate>1</tessellate>
<coordinates>
27.1968124,38.3682279,0
27.1964399,38.3680122,0
</coordinates>
</LineString>
</Placemark>

<Placemark>
<name>AZU_Kurucesme_route_1 | Rota 1 | Adım 6 | Servis Edge 552 (217->216)</name>
<styleUrl>#service</styleUrl>
<LineString>
<tessellate>1</tessellate>
<coordinates>
27.197831,38.3664513,0
27.1982906,38.3668385,0
27.1980297,38.3670403,0
27.1977341,38.3672539,0
27.1973567,38.3675989,0
27.1968124,38.3682279,0
</coordinates>
</LineString>
</Placemark>

<Placemark>
<name>AZU_Kurucesme_route_1 | Rota 1 | Adım 7 | Travel 216->285</name>
<styleUrl>#travel</styleUrl>
<LineString>
<tessellate>1</tessellate>
<coordinates>
27.1975113,38.3667139,0
27.197831,38.3664513,0
</coordinates>
</LineString>
</Placemark>

<Placemark>
<name>AZU_Kurucesme_route_1 | Rota 1 | Adım 7 | Travel 285->286</name>
<styleUrl>#travel</styleUrl>
<LineString>
<tessellate>1</tessellate>
<coordinates>
27.1973929,38.3668142,0
27.1975113,38.3667139,0
</coordinates>
</LineString>
</Placemark>

<Placemark>
<name>AZU_Kurucesme_route_1 | Rota 1 | Adım 7 | Travel 286->287</name>
<styleUrl>#travel</styleUrl>
<LineString>
<tessellate>1</tessellate>
<coordinates>
27.1967558,38.3672805,0
27.1968517,38.3672911,0
27.1973929,38.3668142,0
</coordinates>
</LineString>
</Placemark>

<Placemark>
<name>AZU_Kurucesme_route_1 | Rota 1 | Adım 7 | Travel 287->288</name>
<styleUrl>#travel</styleUrl>
<LineString>
<tessellate>1</tessellate>
<coordinates>
27.1964923,38.3674799,0
27.1967558,38.3672805,0
</coordinates>
</LineString>
</Placemark>

<Placemark>
<name>AZU_Kurucesme_route_1 | Rota 1 | Adım 7 | Travel 288->371</name>
<styleUrl>#travel</styleUrl>
<LineString>
<tessellate>1</tessellate>
<coordinates>
27.1961103,38.3669815,0
27.1964923,38.3674799,0
</coordinates>
</LineString>
</Placemark>

<Placemark>
<name>AZU_Kurucesme_route_1 | Rota 1 | Adım 7 | Travel 371->372</name>
<styleUrl>#travel</styleUrl>
<LineString>
<tessellate>1</tessellate>
<coordinates>
27.1958813,38.366736,0
27.1961103,38.3669815,0
</coordinates>
</LineString>
</Placemark>

<Placemark>
<name>AZU_Kurucesme_route_1 | Rota 1 | Adım 7 | Travel 372->373</name>
<styleUrl>#travel</styleUrl>
<LineString>
<tessellate>1</tessellate>
<coordinates>
27.195299,38.3667084,0
27.1956218,38.3667419,0
27.1958813,38.366736,0
</coordinates>
</LineString>
</Placemark>

<Placemark>
<name>AZU_Kurucesme_route_1 | Rota 1 | Adım 7 | Travel 373->363</name>
<styleUrl>#travel</styleUrl>
<LineString>
<tessellate>1</tessellate>
<coordinates>
27.195299,38.3667084,0
27.1949985,38.3666759,0
</coordinates>
</LineString>
</Placemark>

<Placemark>
<name>AZU_Kurucesme_route_1 | Rota 1 | Adım 7 | Travel 363->362</name>
<styleUrl>#travel</styleUrl>
<LineString>
<tessellate>1</tessellate>
<coordinates>
27.1949985,38.3666759,0
27.1949096,38.3666688,0
27.1947001,38.3666816,0
27.1944016,38.3667041,0
</coordinates>
</LineString>
</Placemark>

<Placemark>
<name>AZU_Kurucesme_route_1 | Rota 1 | Adım 7 | Travel 362->361</name>
<styleUrl>#travel</styleUrl>
<LineString>
<tessellate>1</tessellate>
<coordinates>
27.1944016,38.3667041,0
27.1938364,38.3669421,0
</coordinates>
</LineString>
</Placemark>

<Placemark>
<name>AZU_Kurucesme_route_1 | Rota 1 | Adım 7 | Travel 361->360</name>
<styleUrl>#travel</styleUrl>
<LineString>
<tessellate>1</tessellate>
<coordinates>
27.1938364,38.3669421,0
27.1932668,38.3672133,0
</coordinates>
</LineString>
</Placemark>

<Placemark>
<name>AZU_Kurucesme_route_1 | Rota 1 | Adım 7 | Travel 360->359</name>
<styleUrl>#travel</styleUrl>
<LineString>
<tessellate>1</tessellate>
<coordinates>
27.1930366,38.3673984,0
27.1932668,38.3672133,0
</coordinates>
</LineString>
</Placemark>

<Placemark>
<name>AZU_Kurucesme_route_1 | Rota 1 | Adım 7 | Servis Edge 576 (359->358)</name>
<styleUrl>#service</styleUrl>
<LineString>
<tessellate>1</tessellate>
<coordinates>
27.1930366,38.3673984,0
27.1928936,38.3675453,0
27.1926219,38.3678308,0
</coordinates>
</LineString>
</Placemark>

<Placemark>
<name>AZU_Kurucesme_route_1 | Rota 1 | Adım 8 | Travel 358->414</name>
<styleUrl>#travel</styleUrl>
<LineString>
<tessellate>1</tessellate>
<coordinates>
27.1926219,38.3678308,0
27.192884,38.3679674,0
</coordinates>
</LineString>
</Placemark>

<Placemark>
<name>AZU_Kurucesme_route_1 | Rota 1 | Adım 8 | Travel 414->413</name>
<styleUrl>#travel</styleUrl>
<LineString>
<tessellate>1</tessellate>
<coordinates>
27.192884,38.3679674,0
27.1925862,38.3681519,0
27.1921633,38.3683595,0
</coordinates>
</LineString>
</Placemark>

<Placemark>
<name>AZU_Kurucesme_route_1 | Rota 1 | Adım 8 | Travel 413->425</name>
<styleUrl>#travel</styleUrl>
<LineString>
<tessellate>1</tessellate>
<coordinates>
27.1921633,38.3683595,0
27.1924449,38.3686765,0
27.1925811,38.3688718,0
</coordinates>
</LineString>
</Placemark>

<Placemark>
<name>AZU_Kurucesme_route_1 | Rota 1 | Adım 8 | Travel 425->418</name>
<styleUrl>#travel</styleUrl>
<LineString>
<tessellate>1</tessellate>
<coordinates>
27.1926278,38.3690486,0
27.1925811,38.3688718,0
</coordinates>
</LineString>
</Placemark>

<Placemark>
<name>AZU_Kurucesme_route_1 | Rota 1 | Adım 8 | Travel 418->419</name>
<styleUrl>#travel</styleUrl>
<LineString>
<tessellate>1</tessellate>
<coordinates>
27.1926278,38.3690486,0
27.1926499,38.3691633,0
</coordinates>
</LineString>
</Placemark>

<Placemark>
<name>AZU_Kurucesme_route_1 | Rota 1 | Adım 8 | Travel 419->435</name>
<styleUrl>#travel</styleUrl>
<LineString>
<tessellate>1</tessellate>
<coordinates>
27.1926499,38.3691633,0
27.1927099,38.3693638,0
27.1927709,38.3695294,0
27.1927897,38.3695636,0
27.1928044,38.3695956,0
27.1928664,38.3698356,0
</coordinates>
</LineString>
</Placemark>

<Placemark>
<name>AZU_Kurucesme_route_1 | Rota 1 | Adım 8 | Servis Edge 591 (435->380)</name>
<styleUrl>#service</styleUrl>
<LineString>
<tessellate>1</tessellate>
<coordinates>
27.1928665,38.3698343,0
27.1931849,38.3698567,0
27.1932836,38.3698895,0
</coordinates>
</LineString>
</Placemark>

<Placemark>
<name>AZU_Kurucesme_route_1 | Rota 1 | Adım 9 | Travel 380->294</name>
<styleUrl>#travel</styleUrl>
<LineString>
<tessellate>1</tessellate>
<coordinates>
27.1932836,38.3698895,0
27.1934951,38.3699413,0
27.1941147,38.3700212,0
</coordinates>
</LineString>
</Placemark>

<Placemark>
<name>AZU_Kurucesme_route_1 | Rota 1 | Adım 9 | Travel 294->220</name>
<styleUrl>#travel</styleUrl>
<LineString>
<tessellate>1</tessellate>
<coordinates>
27.1941147,38.3700212,0
27.1950317,38.3702754,0
27.1953421,38.3703227,0
27.1953673,38.3703091,0
27.1953891,38.3702983,0
27.1954149,38.3702872,0
</coordinates>
</LineString>
</Placemark>

<Placemark>
<name>AZU_Kurucesme_route_1 | Rota 1 | Adım 9 | Travel 220->221</name>
<styleUrl>#travel</styleUrl>
<LineString>
<tessellate>1</tessellate>
<coordinates>
27.1954149,38.3702872,0
27.1954876,38.3702755,0
27.1955513,38.370286,0
27.1955711,38.3702923,0
27.1956036,38.3703083,0
27.1956345,38.3703338,0
27.1956687,38.3703806,0
27.1956729,38.3704439,0
27.1956615,38.3704793,0
27.19564,38.3705085,0
27.1956172,38.3705301,0
27.195564,38.3705649,0
</coordinates>
</LineString>
</Placemark>

<Placemark>
<name>AZU_Kurucesme_route_1 | Rota 1 | Adım 9 | Travel 221->222</name>
<styleUrl>#travel</styleUrl>
<LineString>
<tessellate>1</tessellate>
<coordinates>
27.195564,38.3705649,0
27.1955399,38.3705659,0
27.1955154,38.3705698,0
27.1954899,38.3705698,0
27.1954644,38.3705698,0
27.1954158,38.3705593,0
27.1953927,38.3705525,0
27.1953645,38.3705341,0
27.1953474,38.3705235,0
27.1953317,38.3705096,0
27.1953142,38.3704875,0
27.1953047,38.3704635,0
</coordinates>
</LineString>
</Placemark>

<Placemark>
<name>AZU_Kurucesme_route_1 | Rota 1 | Adım 9 | Travel 222->295</name>
<styleUrl>#travel</styleUrl>
<LineString>
<tessellate>1</tessellate>
<coordinates>
27.1940939,38.3700976,0
27.1952926,38.3704221,0
27.1953047,38.3704635,0
</coordinates>
</LineString>
</Placemark>

<Placemark>
<name>AZU_Kurucesme_route_1 | Rota 1 | Adım 9 | Travel 295->296</name>
<styleUrl>#travel</styleUrl>
<LineString>
<tessellate>1</tessellate>
<coordinates>
27.1940191,38.3703876,0
27.1940939,38.3700976,0
</coordinates>
</LineString>
</Placemark>

<Placemark>
<name>AZU_Kurucesme_route_1 | Rota 1 | Adım 9 | Travel 296->297</name>
<styleUrl>#travel</styleUrl>
<LineString>
<tessellate>1</tessellate>
<coordinates>
27.1937698,38.3708804,0
27.1940191,38.3703876,0
</coordinates>
</LineString>
</Placemark>

<Placemark>
<name>AZU_Kurucesme_route_1 | Rota 1 | Adım 9 | Travel 297->433</name>
<styleUrl>#travel</styleUrl>
<LineString>
<tessellate>1</tessellate>
<coordinates>
27.1935796,38.3713,0
27.1937698,38.3708804,0
</coordinates>
</LineString>
</Placemark>

<Placemark>
<name>AZU_Kurucesme_route_1 | Rota 1 | Adım 9 | Travel 433->432</name>
<styleUrl>#travel</styleUrl>
<LineString>
<tessellate>1</tessellate>
<coordinates>
27.1935796,38.3713,0
27.1934038,38.3712677,0
</coordinates>
</LineString>
</Placemark>

<Placemark>
<name>AZU_Kurucesme_route_1 | Rota 1 | Adım 9 | Travel 432->431</name>
<styleUrl>#travel</styleUrl>
<LineString>
<tessellate>1</tessellate>
<coordinates>
27.1934038,38.3712677,0
27.1932693,38.3714909,0
</coordinates>
</LineString>
</Placemark>

<Placemark>
<name>AZU_Kurucesme_route_1 | Rota 1 | Adım 9 | Travel 431->387</name>
<styleUrl>#travel</styleUrl>
<LineString>
<tessellate>1</tessellate>
<coordinates>
27.1932693,38.3714909,0
27.1931707,38.3716679,0
27.1931398,38.3717015,0
27.1930406,38.3717709,0
27.1929382,38.3718764,0
</coordinates>
</LineString>
</Placemark>

<Placemark>
<name>AZU_Kurucesme_route_1 | Rota 1 | Adım 9 | Travel 387->304</name>
<styleUrl>#travel</styleUrl>
<LineString>
<tessellate>1</tessellate>
<coordinates>
27.1930836,38.3722019,0
27.1929382,38.3718764,0
</coordinates>
</LineString>
</Placemark>

<Placemark>
<name>AZU_Kurucesme_route_1 | Rota 1 | Adım 9 | Travel 304->305</name>
<styleUrl>#travel</styleUrl>
<LineString>
<tessellate>1</tessellate>
<coordinates>
27.1923723,38.3721617,0
27.1930836,38.3722019,0
</coordinates>
</LineString>
</Placemark>

<Placemark>
<name>AZU_Kurucesme_route_1 | Rota 1 | Adım 9 | Travel 305->391</name>
<styleUrl>#travel</styleUrl>
<LineString>
<tessellate>1</tessellate>
<coordinates>
27.1916028,38.3721771,0
27.1918564,38.372147,0
27.1920247,38.3721412,0
27.1923723,38.3721617,0
</coordinates>
</LineString>
</Placemark>

<Placemark>
<name>AZU_Kurucesme_route_1 | Rota 1 | Adım 9 | Travel 391->392</name>
<styleUrl>#travel</styleUrl>
<LineString>
<tessellate>1</tessellate>
<coordinates>
27.1911572,38.3722752,0
27.1916028,38.3721771,0
</coordinates>
</LineString>
</Placemark>

<Placemark>
<name>AZU_Kurucesme_route_1 | Rota 1 | Adım 9 | Travel 392->318</name>
<styleUrl>#travel</styleUrl>
<LineString>
<tessellate>1</tessellate>
<coordinates>
27.1911572,38.3722752,0
27.1907788,38.3723874,0
</coordinates>
</LineString>
</Placemark>

<Placemark>
<name>AZU_Kurucesme_route_1 | Rota 1 | Adım 9 | Travel 318->319</name>
<styleUrl>#travel</styleUrl>
<LineString>
<tessellate>1</tessellate>
<coordinates>
27.1904724,38.3724412,0
27.1907788,38.3723874,0
</coordinates>
</LineString>
</Placemark>

<Placemark>
<name>AZU_Kurucesme_route_1 | Rota 1 | Adım 9 | Servis Edge 603 (319->239)</name>
<styleUrl>#service</styleUrl>
<LineString>
<tessellate>1</tessellate>
<coordinates>
27.1904724,38.3724412,0
27.1901952,38.3725082,0
27.1898988,38.3725508,0
27.1894308,38.3725928,0
27.1886211,38.3726431,0
</coordinates>
</LineString>
</Placemark>

<Placemark>
<name>AZU_Kurucesme_route_1 | Rota 1 | Adım 10 | Travel 239->319</name>
<styleUrl>#travel</styleUrl>
<LineString>
<tessellate>1</tessellate>
<coordinates>
27.1886211,38.3726431,0
27.1894308,38.3725928,0
27.1898988,38.3725508,0
27.1901952,38.3725082,0
27.1904724,38.3724412,0
</coordinates>
</LineString>
</Placemark>

<Placemark>
<name>AZU_Kurucesme_route_1 | Rota 1 | Adım 10 | Travel 319->318</name>
<styleUrl>#travel</styleUrl>
<LineString>
<tessellate>1</tessellate>
<coordinates>
27.1907788,38.3723874,0
27.1904724,38.3724412,0
</coordinates>
</LineString>
</Placemark>

<Placemark>
<name>AZU_Kurucesme_route_1 | Rota 1 | Adım 10 | Travel 318->392</name>
<styleUrl>#travel</styleUrl>
<LineString>
<tessellate>1</tessellate>
<coordinates>
27.1907788,38.3723874,0
27.1911572,38.3722752,0
</coordinates>
</LineString>
</Placemark>

<Placemark>
<name>AZU_Kurucesme_route_1 | Rota 1 | Adım 10 | Travel 392->391</name>
<styleUrl>#travel</styleUrl>
<LineString>
<tessellate>1</tessellate>
<coordinates>
27.1916028,38.3721771,0
27.1911572,38.3722752,0
</coordinates>
</LineString>
</Placemark>

<Placemark>
<name>AZU_Kurucesme_route_1 | Rota 1 | Adım 10 | Servis Edge 606 (391->305)</name>
<styleUrl>#service</styleUrl>
<LineString>
<tessellate>1</tessellate>
<coordinates>
27.1923723,38.3721617,0
27.1920247,38.3721412,0
27.1918564,38.372147,0
27.1916028,38.3721771,0
</coordinates>
</LineString>
</Placemark>

<Placemark>
<name>AZU_Kurucesme_route_1 | Rota 1 | Adım 11 | Travel 305->306</name>
<styleUrl>#travel</styleUrl>
<LineString>
<tessellate>1</tessellate>
<coordinates>
27.1923756,38.3728102,0
27.1924172,38.3727639,0
27.1924119,38.3726451,0
27.1924132,38.3725851,0
27.1923723,38.3721617,0
</coordinates>
</LineString>
</Placemark>

<Placemark>
<name>AZU_Kurucesme_route_1 | Rota 1 | Adım 11 | Travel 306->307</name>
<styleUrl>#travel</styleUrl>
<LineString>
<tessellate>1</tessellate>
<coordinates>
27.1921549,38.3730764,0
27.1922973,38.3729572,0
27.1923756,38.3728102,0
</coordinates>
</LineString>
</Placemark>

<Placemark>
<name>AZU_Kurucesme_route_1 | Rota 1 | Adım 11 | Travel 307->308</name>
<styleUrl>#travel</styleUrl>
<LineString>
<tessellate>1</tessellate>
<coordinates>
27.191646,38.373526,0
27.1919763,38.3735224,0
27.1920025,38.3735145,0
27.19203,38.3734961,0
27.1920488,38.3734645,0
27.1920501,38.3733113,0
27.1920528,38.3732879,0
27.192086,38.3732014,0
27.1921549,38.3730764,0
</coordinates>
</LineString>
</Placemark>

<Placemark>
<name>AZU_Kurucesme_route_1 | Rota 1 | Adım 11 | Travel 308->309</name>
<styleUrl>#travel</styleUrl>
<LineString>
<tessellate>1</tessellate>
<coordinates>
27.1916225,38.3742708,0
27.1916079,38.3741863,0
27.1916039,38.3740565,0
27.191646,38.373526,0
</coordinates>
</LineString>
</Placemark>

<Placemark>
<name>AZU_Kurucesme_route_1 | Rota 1 | Adım 11 | Travel 309->395</name>
<styleUrl>#travel</styleUrl>
<LineString>
<tessellate>1</tessellate>
<coordinates>
27.1916225,38.3742708,0
27.1910047,38.3743078,0
</coordinates>
</LineString>
</Placemark>

<Placemark>
<name>AZU_Kurucesme_route_1 | Rota 1 | Adım 11 | Travel 395->313</name>
<styleUrl>#travel</styleUrl>
<LineString>
<tessellate>1</tessellate>
<coordinates>
27.1910047,38.3743078,0
27.1908748,38.3743479,0
27.1907569,38.3743922,0
27.1904977,38.3745089,0
</coordinates>
</LineString>
</Placemark>

<Placemark>
<name>AZU_Kurucesme_route_1 | Rota 1 | Adım 11 | Travel 313->312</name>
<styleUrl>#travel</styleUrl>
<LineString>
<tessellate>1</tessellate>
<coordinates>
27.1906826,38.3749247,0
27.1904977,38.3745089,0
</coordinates>
</LineString>
</Placemark>

<Placemark>
<name>AZU_Kurucesme_route_1 | Rota 1 | Adım 11 | Travel 312->236</name>
<styleUrl>#travel</styleUrl>
<LineString>
<tessellate>1</tessellate>
<coordinates>
27.1906826,38.3749247,0
27.1903816,38.3749991,0
</coordinates>
</LineString>
</Placemark>

<Placemark>
<name>AZU_Kurucesme_route_1 | Rota 1 | Adım 11 | Travel 236->235</name>
<styleUrl>#travel</styleUrl>
<LineString>
<tessellate>1</tessellate>
<coordinates>
27.1903816,38.3749991,0
27.1902636,38.375049,0
</coordinates>
</LineString>
</Placemark>

<Placemark>
<name>AZU_Kurucesme_route_1 | Rota 1 | Adım 11 | Travel 235->234</name>
<styleUrl>#travel</styleUrl>
<LineString>
<tessellate>1</tessellate>
<coordinates>
27.1904429,38.375328,0
27.1902636,38.375049,0
</coordinates>
</LineString>
</Placemark>

<Placemark>
<name>AZU_Kurucesme_route_1 | Rota 1 | Adım 11 | Travel 234->233</name>
<styleUrl>#travel</styleUrl>
<LineString>
<tessellate>1</tessellate>
<coordinates>
27.1909492,38.3762262,0
27.1908156,38.3760035,0
27.19069,38.3757782,0
27.1904429,38.375328,0
</coordinates>
</LineString>
</Placemark>

<Placemark>
<name>AZU_Kurucesme_route_1 | Rota 1 | Adım 11 | Servis Edge 609 (233->232)</name>
<styleUrl>#service</styleUrl>
<LineString>
<tessellate>1</tessellate>
<coordinates>
27.1909492,38.3762262,0
27.1911615,38.3761205,0
27.1912705,38.376055,0
27.1913795,38.3759801,0
27.1914996,38.3759037,0
27.1915422,38.3758773,0
27.1916109,38.3758225,0
</coordinates>
</LineString>
</Placemark>

<Placemark>
<name>AZU_Kurucesme_route_1 | Rota 1 | Adım 12 | Travel 232->231</name>
<styleUrl>#travel</styleUrl>
<LineString>
<tessellate>1</tessellate>
<coordinates>
27.1916109,38.3758225,0
27.191732,38.3756458,0
27.1919134,38.3754144,0
</coordinates>
</LineString>
</Placemark>

<Placemark>
<name>AZU_Kurucesme_route_1 | Rota 1 | Adım 12 | Travel 231->230</name>
<styleUrl>#travel</styleUrl>
<LineString>
<tessellate>1</tessellate>
<coordinates>
27.1919134,38.3754144,0
27.1921118,38.3751886,0
</coordinates>
</LineString>
</Placemark>

<Placemark>
<name>AZU_Kurucesme_route_1 | Rota 1 | Adım 12 | Travel 230->229</name>
<styleUrl>#travel</styleUrl>
<LineString>
<tessellate>1</tessellate>
<coordinates>
27.1921118,38.3751886,0
27.1924182,38.3748001,0
</coordinates>
</LineString>
</Placemark>

<Placemark>
<name>AZU_Kurucesme_route_1 | Rota 1 | Adım 12 | Travel 229->228</name>
<styleUrl>#travel</styleUrl>
<LineString>
<tessellate>1</tessellate>
<coordinates>
27.1924182,38.3748001,0
27.1926993,38.3744204,0
</coordinates>
</LineString>
</Placemark>

<Placemark>
<name>AZU_Kurucesme_route_1 | Rota 1 | Adım 12 | Servis Edge 616 (228->227)</name>
<styleUrl>#service</styleUrl>
<LineString>
<tessellate>1</tessellate>
<coordinates>
27.1927222,38.3744048,0
27.1934267,38.3734856,0
27.194115,38.3726168,0
</coordinates>
</LineString>
</Placemark>

<Placemark>
<name>AZU_Kurucesme_route_1 | Rota 1 | Adım 13 | Travel 227->226</name>
<styleUrl>#travel</styleUrl>
<LineString>
<tessellate>1</tessellate>
<coordinates>
27.194115,38.3726168,0
27.1943937,38.3722698,0
</coordinates>
</LineString>
</Placemark>

<Placemark>
<name>AZU_Kurucesme_route_1 | Rota 1 | Adım 13 | Travel 226->222</name>
<styleUrl>#travel</styleUrl>
<LineString>
<tessellate>1</tessellate>
<coordinates>
27.1943937,38.3722698,0
27.1945495,38.3720926,0
27.194646,38.3719412,0
27.1948311,38.3715985,0
27.1950376,38.3711001,0
27.1953047,38.3704635,0
</coordinates>
</LineString>
</Placemark>

<Placemark>
<name>AZU_Kurucesme_route_1 | Rota 1 | Adım 13 | Travel 222->220</name>
<styleUrl>#travel</styleUrl>
<LineString>
<tessellate>1</tessellate>
<coordinates>
27.1953047,38.3704635,0
27.1953004,38.3704453,0
27.1952974,38.3704335,0
27.1953024,38.3703917,0
27.1953088,38.3703749,0
27.1953222,38.370351,0
27.1953416,38.3703292,0
27.1953681,38.370311,0
27.1953999,38.3702952,0
27.1954149,38.3702872,0
</coordinates>
</LineString>
</Placemark>

<Placemark>
<name>AZU_Kurucesme_route_1 | Rota 1 | Adım 13 | Travel 220->219</name>
<styleUrl>#travel</styleUrl>
<LineString>
<tessellate>1</tessellate>
<coordinates>
27.1954149,38.3702872,0
27.1954911,38.3701157,0
27.1956915,38.3698179,0
27.1958565,38.3694769,0
</coordinates>
</LineString>
</Placemark>

<Placemark>
<name>AZU_Kurucesme_route_1 | Rota 1 | Adım 13 | Servis Edge 619 (219->218)</name>
<styleUrl>#service</styleUrl>
<LineString>
<tessellate>1</tessellate>
<coordinates>
27.1958565,38.3694769,0
27.1960224,38.3692281,0
27.1962407,38.368953,0
27.1966503,38.3684406,0
</coordinates>
</LineString>
</Placemark>

<Placemark>
<name>AZU_Kurucesme_route_1 | Rota 1 | Adım 14 | Travel 218->291</name>
<styleUrl>#travel</styleUrl>
<LineString>
<tessellate>1</tessellate>
<coordinates>
27.1952217,38.3681477,0
27.1959615,38.3682949,0
27.1964886,38.3684,0
27.1966503,38.3684406,0
</coordinates>
</LineString>
</Placemark>

<Placemark>
<name>AZU_Kurucesme_route_1 | Rota 1 | Adım 14 | Travel 291->292</name>
<styleUrl>#travel</styleUrl>
<LineString>
<tessellate>1</tessellate>
<coordinates>
27.1952217,38.3681477,0
27.1950455,38.368509,0
27.1948077,38.3689642,0
27.1946872,38.3692405,0
</coordinates>
</LineString>
</Placemark>

<Placemark>
<name>AZU_Kurucesme_route_1 | Rota 1 | Adım 14 | Travel 292->293</name>
<styleUrl>#travel</styleUrl>
<LineString>
<tessellate>1</tessellate>
<coordinates>
27.194522,38.3692078,0
27.1946872,38.3692405,0
</coordinates>
</LineString>
</Placemark>

<Placemark>
<name>AZU_Kurucesme_route_1 | Rota 1 | Adım 14 | Travel 293->294</name>
<styleUrl>#travel</styleUrl>
<LineString>
<tessellate>1</tessellate>
<coordinates>
27.1941147,38.3700212,0
27.1942487,38.3697612,0
27.1944158,38.369446,0
27.194522,38.3692078,0
</coordinates>
</LineString>
</Placemark>

<Placemark>
<name>AZU_Kurucesme_route_1 | Rota 1 | Adım 14 | Servis Edge 624 (294->220)</name>
<styleUrl>#service</styleUrl>
<LineString>
<tessellate>1</tessellate>
<coordinates>
27.1941147,38.3700212,0
27.1950317,38.3702754,0
27.1953421,38.3703227,0
27.1953673,38.3703091,0
27.1953891,38.3702983,0
27.1954149,38.3702872,0
</coordinates>
</LineString>
</Placemark>

<Placemark>
<name>AZU_Kurucesme_route_1 | Rota 1 | Adım 15 | Travel 220->221</name>
<styleUrl>#travel</styleUrl>
<LineString>
<tessellate>1</tessellate>
<coordinates>
27.1954149,38.3702872,0
27.1954876,38.3702755,0
27.1955513,38.370286,0
27.1955711,38.3702923,0
27.1956036,38.3703083,0
27.1956345,38.3703338,0
27.1956687,38.3703806,0
27.1956729,38.3704439,0
27.1956615,38.3704793,0
27.19564,38.3705085,0
27.1956172,38.3705301,0
27.195564,38.3705649,0
</coordinates>
</LineString>
</Placemark>

<Placemark>
<name>AZU_Kurucesme_route_1 | Rota 1 | Adım 15 | Travel 221->222</name>
<styleUrl>#travel</styleUrl>
<LineString>
<tessellate>1</tessellate>
<coordinates>
27.195564,38.3705649,0
27.1955399,38.3705659,0
27.1955154,38.3705698,0
27.1954899,38.3705698,0
27.1954644,38.3705698,0
27.1954158,38.3705593,0
27.1953927,38.3705525,0
27.1953645,38.3705341,0
27.1953474,38.3705235,0
27.1953317,38.3705096,0
27.1953142,38.3704875,0
27.1953047,38.3704635,0
</coordinates>
</LineString>
</Placemark>

<Placemark>
<name>AZU_Kurucesme_route_1 | Rota 1 | Adım 15 | Travel 222->295</name>
<styleUrl>#travel</styleUrl>
<LineString>
<tessellate>1</tessellate>
<coordinates>
27.1940939,38.3700976,0
27.1952926,38.3704221,0
27.1953047,38.3704635,0
</coordinates>
</LineString>
</Placemark>

<Placemark>
<name>AZU_Kurucesme_route_1 | Rota 1 | Adım 15 | Travel 295->296</name>
<styleUrl>#travel</styleUrl>
<LineString>
<tessellate>1</tessellate>
<coordinates>
27.1940191,38.3703876,0
27.1940939,38.3700976,0
</coordinates>
</LineString>
</Placemark>

<Placemark>
<name>AZU_Kurucesme_route_1 | Rota 1 | Adım 15 | Travel 296->297</name>
<styleUrl>#travel</styleUrl>
<LineString>
<tessellate>1</tessellate>
<coordinates>
27.1937698,38.3708804,0
27.1940191,38.3703876,0
</coordinates>
</LineString>
</Placemark>

<Placemark>
<name>AZU_Kurucesme_route_1 | Rota 1 | Adım 15 | Travel 297->433</name>
<styleUrl>#travel</styleUrl>
<LineString>
<tessellate>1</tessellate>
<coordinates>
27.1935796,38.3713,0
27.1937698,38.3708804,0
</coordinates>
</LineString>
</Placemark>

<Placemark>
<name>AZU_Kurucesme_route_1 | Rota 1 | Adım 15 | Travel 433->432</name>
<styleUrl>#travel</styleUrl>
<LineString>
<tessellate>1</tessellate>
<coordinates>
27.1935796,38.3713,0
27.1934038,38.3712677,0
</coordinates>
</LineString>
</Placemark>

<Placemark>
<name>AZU_Kurucesme_route_1 | Rota 1 | Adım 15 | Travel 432->431</name>
<styleUrl>#travel</styleUrl>
<LineString>
<tessellate>1</tessellate>
<coordinates>
27.1934038,38.3712677,0
27.1932693,38.3714909,0
</coordinates>
</LineString>
</Placemark>

<Placemark>
<name>AZU_Kurucesme_route_1 | Rota 1 | Adım 15 | Travel 431->387</name>
<styleUrl>#travel</styleUrl>
<LineString>
<tessellate>1</tessellate>
<coordinates>
27.1932693,38.3714909,0
27.1931707,38.3716679,0
27.1931398,38.3717015,0
27.1930406,38.3717709,0
27.1929382,38.3718764,0
</coordinates>
</LineString>
</Placemark>

<Placemark>
<name>AZU_Kurucesme_route_1 | Rota 1 | Adım 15 | Travel 387->304</name>
<styleUrl>#travel</styleUrl>
<LineString>
<tessellate>1</tessellate>
<coordinates>
27.1930836,38.3722019,0
27.1929382,38.3718764,0
</coordinates>
</LineString>
</Placemark>

<Placemark>
<name>AZU_Kurucesme_route_1 | Rota 1 | Adım 15 | Travel 304->303</name>
<styleUrl>#travel</styleUrl>
<LineString>
<tessellate>1</tessellate>
<coordinates>
27.193272,38.3722172,0
27.1930836,38.3722019,0
</coordinates>
</LineString>
</Placemark>

<Placemark>
<name>AZU_Kurucesme_route_1 | Rota 1 | Adım 15 | Travel 303->302</name>
<styleUrl>#travel</styleUrl>
<LineString>
<tessellate>1</tessellate>
<coordinates>
27.1939465,38.3722495,0
27.193272,38.3722172,0
</coordinates>
</LineString>
</Placemark>

<Placemark>
<name>AZU_Kurucesme_route_1 | Rota 1 | Adım 15 | Servis Edge 633 (302->226)</name>
<styleUrl>#service</styleUrl>
<LineString>
<tessellate>1</tessellate>
<coordinates>
27.1939465,38.3722495,0
27.1940756,38.372271,0
27.1942071,38.3722844,0
27.1943029,38.3722833,0
27.1943937,38.3722698,0
</coordinates>
</LineString>
</Placemark>

<Placemark>
<name>AZU_Kurucesme_route_1 | Rota 1 | Adım 16 | Travel 226->225</name>
<styleUrl>#travel</styleUrl>
<LineString>
<tessellate>1</tessellate>
<coordinates>
27.1943937,38.3722698,0
27.1945362,38.3721028,0
27.1946309,38.3719761,0
27.1947172,38.3718257,0
</coordinates>
</LineString>
</Placemark>

<Placemark>
<name>AZU_Kurucesme_route_1 | Rota 1 | Adım 16 | Travel 225->300</name>
<styleUrl>#travel</styleUrl>
<LineString>
<tessellate>1</tessellate>
<coordinates>
27.1942095,38.371591,0
27.1947172,38.3718257,0
</coordinates>
</LineString>
</Placemark>

<Placemark>
<name>AZU_Kurucesme_route_1 | Rota 1 | Adım 16 | Travel 300->301</name>
<styleUrl>#travel</styleUrl>
<LineString>
<tessellate>1</tessellate>
<coordinates>
27.1939287,38.3717595,0
27.1942095,38.371591,0
</coordinates>
</LineString>
</Placemark>

<Placemark>
<name>AZU_Kurucesme_route_1 | Rota 1 | Adım 16 | Travel 301->303</name>
<styleUrl>#travel</styleUrl>
<LineString>
<tessellate>1</tessellate>
<coordinates>
27.193272,38.3722172,0
27.1934735,38.3720196,0
27.1939287,38.3717595,0
</coordinates>
</LineString>
</Placemark>

<Placemark>
<name>AZU_Kurucesme_route_1 | Rota 1 | Adım 16 | Servis Edge 410 (303->304)</name>
<styleUrl>#service</styleUrl>
<LineString>
<tessellate>1</tessellate>
<coordinates>
27.1930836,38.3722019,0
27.193272,38.3722172,0
</coordinates>
</LineString>
</Placemark>

<Placemark>
<name>AZU_Kurucesme_route_1 | Rota 1 | Adım 17 | Travel 304->387</name>
<styleUrl>#travel</styleUrl>
<LineString>
<tessellate>1</tessellate>
<coordinates>
27.1929382,38.3718764,0
27.1930836,38.3722019,0
</coordinates>
</LineString>
</Placemark>

<Placemark>
<name>AZU_Kurucesme_route_1 | Rota 1 | Adım 17 | Travel 387->388</name>
<styleUrl>#travel</styleUrl>
<LineString>
<tessellate>1</tessellate>
<coordinates>
27.1917686,38.3716146,0
27.1919534,38.3716625,0
27.1922833,38.3717303,0
27.192569,38.3718191,0
27.1929382,38.3718764,0
</coordinates>
</LineString>
</Placemark>

<Placemark>
<name>AZU_Kurucesme_route_1 | Rota 1 | Adım 17 | Travel 388->389</name>
<styleUrl>#travel</styleUrl>
<LineString>
<tessellate>1</tessellate>
<coordinates>
27.1916525,38.3716274,0
27.1917686,38.3716146,0
</coordinates>
</LineString>
</Placemark>

<Placemark>
<name>AZU_Kurucesme_route_1 | Rota 1 | Adım 17 | Travel 389->396</name>
<styleUrl>#travel</styleUrl>
<LineString>
<tessellate>1</tessellate>
<coordinates>
27.1905215,38.3717006,0
27.1912415,38.3716695,0
27.1916525,38.3716274,0
</coordinates>
</LineString>
</Placemark>

<Placemark>
<name>AZU_Kurucesme_route_1 | Rota 1 | Adım 17 | Travel 396->322</name>
<styleUrl>#travel</styleUrl>
<LineString>
<tessellate>1</tessellate>
<coordinates>
27.1905215,38.3717006,0
27.190119,38.3717152,0
</coordinates>
</LineString>
</Placemark>

<Placemark>
<name>AZU_Kurucesme_route_1 | Rota 1 | Adım 17 | Travel 322->323</name>
<styleUrl>#travel</styleUrl>
<LineString>
<tessellate>1</tessellate>
<coordinates>
27.1898017,38.3715976,0
27.1898569,38.371656,0
27.18992,38.3716985,0
27.1899421,38.3717038,0
27.190119,38.3717152,0
</coordinates>
</LineString>
</Placemark>

<Placemark>
<name>AZU_Kurucesme_route_1 | Rota 1 | Adım 17 | Travel 323->324</name>
<styleUrl>#travel</styleUrl>
<LineString>
<tessellate>1</tessellate>
<coordinates>
27.1893497,38.3716901,0
27.1898017,38.3715976,0
</coordinates>
</LineString>
</Placemark>

<Placemark>
<name>AZU_Kurucesme_route_1 | Rota 1 | Adım 17 | Travel 324->325</name>
<styleUrl>#travel</styleUrl>
<LineString>
<tessellate>1</tessellate>
<coordinates>
27.1885429,38.3714498,0
27.1886933,38.3717971,0
27.1887105,38.3718229,0
27.1887255,38.3718366,0
27.188739,38.3718419,0
27.1887544,38.3718447,0
27.1887738,38.3718434,0
27.1891799,38.3717387,0
27.1893497,38.3716901,0
</coordinates>
</LineString>
</Placemark>

<Placemark>
<name>AZU_Kurucesme_route_1 | Rota 1 | Adım 17 | Travel 325->329</name>
<styleUrl>#travel</styleUrl>
<LineString>
<tessellate>1</tessellate>
<coordinates>
27.1883487,38.3709165,0
27.1885429,38.3714498,0
</coordinates>
</LineString>
</Placemark>

<Placemark>
<name>AZU_Kurucesme_route_1 | Rota 1 | Adım 17 | Travel 329->246</name>
<styleUrl>#travel</styleUrl>
<LineString>
<tessellate>1</tessellate>
<coordinates>
27.1883487,38.3709165,0
27.1883022,38.3708236,0
</coordinates>
</LineString>
</Placemark>

<Placemark>
<name>AZU_Kurucesme_route_1 | Rota 1 | Adım 17 | Travel 246->247</name>
<styleUrl>#travel</styleUrl>
<LineString>
<tessellate>1</tessellate>
<coordinates>
27.1880545,38.3700672,0
27.1880797,38.3702481,0
27.1883022,38.3708236,0
</coordinates>
</LineString>
</Placemark>

<Placemark>
<name>AZU_Kurucesme_route_1 | Rota 1 | Adım 17 | Travel 247->248</name>
<styleUrl>#travel</styleUrl>
<LineString>
<tessellate>1</tessellate>
<coordinates>
27.1871977,38.3701313,0
27.1880545,38.3700672,0
</coordinates>
</LineString>
</Placemark>

<Placemark>
<name>AZU_Kurucesme_route_1 | Rota 1 | Adım 17 | Travel 248->249</name>
<styleUrl>#travel</styleUrl>
<LineString>
<tessellate>1</tessellate>
<coordinates>
27.1870867,38.3701333,0
27.1871977,38.3701313,0
</coordinates>
</LineString>
</Placemark>

<Placemark>
<name>AZU_Kurucesme_route_1 | Rota 1 | Adım 17 | Travel 249->336</name>
<styleUrl>#travel</styleUrl>
<LineString>
<tessellate>1</tessellate>
<coordinates>
27.1871026,38.3700424,0
27.1870867,38.3701333,0
</coordinates>
</LineString>
</Placemark>

<Placemark>
<name>AZU_Kurucesme_route_1 | Rota 1 | Adım 17 | Travel 336->335</name>
<styleUrl>#travel</styleUrl>
<LineString>
<tessellate>1</tessellate>
<coordinates>
27.1871026,38.3700424,0
27.1872105,38.3700447,0
</coordinates>
</LineString>
</Placemark>

<Placemark>
<name>AZU_Kurucesme_route_1 | Rota 1 | Adım 17 | Travel 335->334</name>
<styleUrl>#travel</styleUrl>
<LineString>
<tessellate>1</tessellate>
<coordinates>
27.1872295,38.3700449,0
27.187251,38.3700439,0
27.1881345,38.3699727,0
</coordinates>
</LineString>
</Placemark>

<Placemark>
<name>AZU_Kurucesme_route_1 | Rota 1 | Adım 17 | Servis Edge 649 (334->333)</name>
<styleUrl>#service</styleUrl>
<LineString>
<tessellate>1</tessellate>
<coordinates>
27.1881345,38.3699727,0
27.1899871,38.3698061,0
</coordinates>
</LineString>
</Placemark>

<Placemark>
<name>AZU_Kurucesme_route_1 | Rota 1 | Adım 18 | Travel 333->438</name>
<styleUrl>#travel</styleUrl>
<LineString>
<tessellate>1</tessellate>
<coordinates>
27.1897909,38.3687934,0
27.1899249,38.3693649,0
27.1899329,38.3694364,0
27.1899869,38.3697981,0
</coordinates>
</LineString>
</Placemark>

<Placemark>
<name>AZU_Kurucesme_route_1 | Rota 1 | Adım 18 | Servis Edge 651 (438->407)</name>
<styleUrl>#service</styleUrl>
<LineString>
<tessellate>1</tessellate>
<coordinates>
27.1897909,38.3687934,0
27.1881757,38.368877,0
</coordinates>
</LineString>
</Placemark>

<Placemark>
<name>AZU_Kurucesme_route_1 | Rota 1 | Adım 19 | Travel 407->404</name>
<styleUrl>#travel</styleUrl>
<LineString>
<tessellate>1</tessellate>
<coordinates>
27.1881757,38.368877,0
27.1872732,38.3688782,0
</coordinates>
</LineString>
</Placemark>

<Placemark>
<name>AZU_Kurucesme_route_1 | Rota 1 | Adım 19 | Travel 404->403</name>
<styleUrl>#travel</styleUrl>
<LineString>
<tessellate>1</tessellate>
<coordinates>
27.1872732,38.3688782,0
27.1872028,38.3688781,0
</coordinates>
</LineString>
</Placemark>

<Placemark>
<name>AZU_Kurucesme_route_1 | Rota 1 | Adım 19 | Travel 403->405</name>
<styleUrl>#travel</styleUrl>
<LineString>
<tessellate>1</tessellate>
<coordinates>
27.1872632,38.3679373,0
27.1872728,38.3682454,0
27.1872028,38.3688781,0
</coordinates>
</LineString>
</Placemark>

<Placemark>
<name>AZU_Kurucesme_route_1 | Rota 1 | Adım 19 | Travel 405->346</name>
<styleUrl>#travel</styleUrl>
<LineString>
<tessellate>1</tessellate>
<coordinates>
27.1870712,38.3677853,0
27.1870771,38.3678188,0
27.1871083,38.3678716,0
27.1871566,38.3679068,0
27.1872632,38.3679373,0
</coordinates>
</LineString>
</Placemark>

<Placemark>
<name>AZU_Kurucesme_route_1 | Rota 1 | Adım 19 | Travel 346->344</name>
<styleUrl>#travel</styleUrl>
<LineString>
<tessellate>1</tessellate>
<coordinates>
27.1870712,38.3677853,0
27.1854527,38.3677292,0
</coordinates>
</LineString>
</Placemark>

<Placemark>
<name>AZU_Kurucesme_route_1 | Rota 1 | Adım 19 | Servis Edge 689 (344->254)</name>
<styleUrl>#service</styleUrl>
<LineString>
<tessellate>1</tessellate>
<coordinates>
27.1854527,38.3677292,0
27.1841114,38.3676887,0
</coordinates>
</LineString>
</Placemark>

<Placemark>
<name>AZU_Kurucesme_route_1 | Rota 1 | Adım 20 | Travel 254->344</name>
<styleUrl>#travel</styleUrl>
<LineString>
<tessellate>1</tessellate>
<coordinates>
27.1841114,38.3676887,0
27.1854527,38.3677292,0
</coordinates>
</LineString>
</Placemark>

<Placemark>
<name>AZU_Kurucesme_route_1 | Rota 1 | Adım 20 | Travel 344->343</name>
<styleUrl>#travel</styleUrl>
<LineString>
<tessellate>1</tessellate>
<coordinates>
27.1854527,38.3677292,0
27.1853911,38.3687866,0
</coordinates>
</LineString>
</Placemark>

<Placemark>
<name>AZU_Kurucesme_route_1 | Rota 1 | Adım 20 | Travel 343->337</name>
<styleUrl>#travel</styleUrl>
<LineString>
<tessellate>1</tessellate>
<coordinates>
27.1853911,38.3687866,0
27.1854105,38.3694085,0
27.1853734,38.3697715,0
27.1853692,38.3698712,0
</coordinates>
</LineString>
</Placemark>

<Placemark>
<name>AZU_Kurucesme_route_1 | Rota 1 | Adım 20 | Servis Edge 670 (337->336)</name>
<styleUrl>#service</styleUrl>
<LineString>
<tessellate>1</tessellate>
<coordinates>
27.1853692,38.3698712,0
27.1856395,38.369926,0
27.186306,38.3700174,0
27.1865109,38.3700343,0
27.1871026,38.3700424,0
</coordinates>
</LineString>
</Placemark>

<Placemark>
<name>AZU_Kurucesme_route_1 | Rota 1 | Adım 21 | Travel 336->403</name>
<styleUrl>#travel</styleUrl>
<LineString>
<tessellate>1</tessellate>
<coordinates>
27.1871026,38.3700424,0
27.1871381,38.3698517,0
27.187181,38.36951,0
27.187181,38.3691714,0
27.1872028,38.3688781,0
</coordinates>
</LineString>
</Placemark>

<Placemark>
<name>AZU_Kurucesme_route_1 | Rota 1 | Adım 21 | Travel 403->343</name>
<styleUrl>#travel</styleUrl>
<LineString>
<tessellate>1</tessellate>
<coordinates>
27.1872028,38.3688781,0
27.1870466,38.3688768,0
27.1853911,38.3687866,0
</coordinates>
</LineString>
</Placemark>

<Placemark>
<name>AZU_Kurucesme_route_1 | Rota 1 | Adım 21 | Servis Edge 693 (343->342)</name>
<styleUrl>#service</styleUrl>
<LineString>
<tessellate>1</tessellate>
<coordinates>
27.1853911,38.3687866,0
27.1840652,38.3687246,0
27.1835355,38.3686804,0
</coordinates>
</LineString>
</Placemark>

<Placemark>
<name>AZU_Kurucesme_route_1 | Rota 1 | Adım 22 | Travel 342->339</name>
<styleUrl>#travel</styleUrl>
<LineString>
<tessellate>1</tessellate>
<coordinates>
27.1835355,38.3686804,0
27.1829417,38.3686884,0
</coordinates>
</LineString>
</Placemark>

<Placemark>
<name>AZU_Kurucesme_route_1 | Rota 1 | Adım 22 | Servis Edge 727 (339->338)</name>
<styleUrl>#service</styleUrl>
<LineString>
<tessellate>1</tessellate>
<coordinates>
27.1829417,38.3686884,0
27.1828693,38.3695281,0
</coordinates>
</LineString>
</Placemark>

<Placemark>
<name>AZU_Kurucesme_route_1 | Rota 1 | Adım 23 | Travel 338->339</name>
<styleUrl>#travel</styleUrl>
<LineString>
<tessellate>1</tessellate>
<coordinates>
27.1828693,38.3695281,0
27.1829417,38.3686884,0
</coordinates>
</LineString>
</Placemark>

<Placemark>
<name>AZU_Kurucesme_route_1 | Rota 1 | Adım 23 | Travel 339->340</name>
<styleUrl>#travel</styleUrl>
<LineString>
<tessellate>1</tessellate>
<coordinates>
27.1829332,38.3684797,0
27.1829417,38.3686884,0
</coordinates>
</LineString>
</Placemark>

<Placemark>
<name>AZU_Kurucesme_route_1 | Rota 1 | Adım 23 | Travel 340->251</name>
<styleUrl>#travel</styleUrl>
<LineString>
<tessellate>1</tessellate>
<coordinates>
27.1829332,38.3684797,0
27.1828726,38.3684609,0
27.1826281,38.3683349,0
27.1821539,38.368054,0
</coordinates>
</LineString>
</Placemark>

<Placemark>
<name>AZU_Kurucesme_route_1 | Rota 1 | Adım 23 | Servis Edge 701 (251->250)</name>
<styleUrl>#service</styleUrl>
<LineString>
<tessellate>1</tessellate>
<coordinates>
27.181763,38.3696115,0
27.1817508,38.3695388,0
27.1817198,38.3694325,0
27.1816618,38.3692619,0
27.1816618,38.3690274,0
27.1816819,38.3687109,0
27.18171,38.36861,0
27.1817721,38.3684725,0
27.1818597,38.3682213,0
27.1819517,38.3681845,0
27.1820262,38.3681455,0
27.1821539,38.368054,0
</coordinates>
</LineString>
</Placemark>

<Placemark>
<name>AZU_Kurucesme_route_1 | Rota 1 | Adım 24 | Travel 250->338</name>
<styleUrl>#travel</styleUrl>
<LineString>
<tessellate>1</tessellate>
<coordinates>
27.181763,38.3696115,0
27.182872,38.3695284,0
</coordinates>
</LineString>
</Placemark>

<Placemark>
<name>AZU_Kurucesme_route_1 | Rota 1 | Adım 24 | Travel 338->339</name>
<styleUrl>#travel</styleUrl>
<LineString>
<tessellate>1</tessellate>
<coordinates>
27.1828693,38.3695281,0
27.1829417,38.3686884,0
</coordinates>
</LineString>
</Placemark>

<Placemark>
<name>AZU_Kurucesme_route_1 | Rota 1 | Adım 24 | Travel 339->342</name>
<styleUrl>#travel</styleUrl>
<LineString>
<tessellate>1</tessellate>
<coordinates>
27.1829417,38.3686884,0
27.1835355,38.3686804,0
</coordinates>
</LineString>
</Placemark>

<Placemark>
<name>AZU_Kurucesme_route_1 | Rota 1 | Adım 24 | Travel 342->343</name>
<styleUrl>#travel</styleUrl>
<LineString>
<tessellate>1</tessellate>
<coordinates>
27.1835355,38.3686804,0
27.1840652,38.3687246,0
27.1853911,38.3687866,0
</coordinates>
</LineString>
</Placemark>

<Placemark>
<name>AZU_Kurucesme_route_1 | Rota 1 | Adım 24 | Travel 343->403</name>
<styleUrl>#travel</styleUrl>
<LineString>
<tessellate>1</tessellate>
<coordinates>
27.1853911,38.3687866,0
27.1870466,38.3688768,0
27.1872028,38.3688781,0
</coordinates>
</LineString>
</Placemark>

<Placemark>
<name>AZU_Kurucesme_route_1 | Rota 1 | Adım 24 | Travel 403->404</name>
<styleUrl>#travel</styleUrl>
<LineString>
<tessellate>1</tessellate>
<coordinates>
27.1872028,38.3688781,0
27.1872732,38.3688782,0
</coordinates>
</LineString>
</Placemark>

<Placemark>
<name>AZU_Kurucesme_route_1 | Rota 1 | Adım 24 | Servis Edge 706 (404->407)</name>
<styleUrl>#service</styleUrl>
<LineString>
<tessellate>1</tessellate>
<coordinates>
27.1872732,38.3688782,0
27.1881757,38.368877,0
</coordinates>
</LineString>
</Placemark>

<Placemark>
<name>AZU_Kurucesme_route_1 | Rota 1 | Adım 25 | Travel 407->404</name>
<styleUrl>#travel</styleUrl>
<LineString>
<tessellate>1</tessellate>
<coordinates>
27.1881757,38.368877,0
27.1872732,38.3688782,0
</coordinates>
</LineString>
</Placemark>

<Placemark>
<name>AZU_Kurucesme_route_1 | Rota 1 | Adım 25 | Servis Edge 707 (404->335)</name>
<styleUrl>#service</styleUrl>
<LineString>
<tessellate>1</tessellate>
<coordinates>
27.1872732,38.3688782,0
27.1872476,38.3691622,0
27.1872496,38.3695176,0
27.1872105,38.3700447,0
</coordinates>
</LineString>
</Placemark>

<Placemark>
<name>AZU_Kurucesme_route_1 | Rota 1 | Adım 26 | Travel 335->248</name>
<styleUrl>#travel</styleUrl>
<LineString>
<tessellate>1</tessellate>
<coordinates>
27.1871977,38.3701313,0
27.1872105,38.3700447,0
</coordinates>
</LineString>
</Placemark>

<Placemark>
<name>AZU_Kurucesme_route_1 | Rota 1 | Adım 26 | Travel 248->249</name>
<styleUrl>#travel</styleUrl>
<LineString>
<tessellate>1</tessellate>
<coordinates>
27.1870867,38.3701333,0
27.1871977,38.3701313,0
</coordinates>
</LineString>
</Placemark>

<Placemark>
<name>AZU_Kurucesme_route_1 | Rota 1 | Adım 26 | Travel 249->336</name>
<styleUrl>#travel</styleUrl>
<LineString>
<tessellate>1</tessellate>
<coordinates>
27.1871026,38.3700424,0
27.1870867,38.3701333,0
</coordinates>
</LineString>
</Placemark>

<Placemark>
<name>AZU_Kurucesme_route_1 | Rota 1 | Adım 26 | Servis Edge 709 (336->403)</name>
<styleUrl>#service</styleUrl>
<LineString>
<tessellate>1</tessellate>
<coordinates>
27.1871026,38.3700424,0
27.1871381,38.3698517,0
27.187181,38.36951,0
27.187181,38.3691714,0
27.1872028,38.3688781,0
</coordinates>
</LineString>
</Placemark>

<Placemark>
<name>AZU_Kurucesme_route_1 | Rota 1 | Adım 27 | Travel 403->405</name>
<styleUrl>#travel</styleUrl>
<LineString>
<tessellate>1</tessellate>
<coordinates>
27.1872632,38.3679373,0
27.1872728,38.3682454,0
27.1872028,38.3688781,0
</coordinates>
</LineString>
</Placemark>

<Placemark>
<name>AZU_Kurucesme_route_1 | Rota 1 | Adım 27 | Travel 405->346</name>
<styleUrl>#travel</styleUrl>
<LineString>
<tessellate>1</tessellate>
<coordinates>
27.1870712,38.3677853,0
27.1870771,38.3678188,0
27.1871083,38.3678716,0
27.1871566,38.3679068,0
27.1872632,38.3679373,0
</coordinates>
</LineString>
</Placemark>

<Placemark>
<name>AZU_Kurucesme_route_1 | Rota 1 | Adım 27 | Servis Edge 710 (346->344)</name>
<styleUrl>#service</styleUrl>
<LineString>
<tessellate>1</tessellate>
<coordinates>
27.1870712,38.3677853,0
27.1854527,38.3677292,0
</coordinates>
</LineString>
</Placemark>

<Placemark>
<name>AZU_Kurucesme_route_1 | Rota 1 | Adım 28 | Travel 344->346</name>
<styleUrl>#travel</styleUrl>
<LineString>
<tessellate>1</tessellate>
<coordinates>
27.1854527,38.3677292,0
27.1870712,38.3677853,0
</coordinates>
</LineString>
</Placemark>

<Placemark>
<name>AZU_Kurucesme_route_1 | Rota 1 | Adım 28 | Travel 346->347</name>
<styleUrl>#travel</styleUrl>
<LineString>
<tessellate>1</tessellate>
<coordinates>
27.1870712,38.3677853,0
27.1870717,38.3677604,0
27.1870824,38.3677299,0
27.1870978,38.3677023,0
27.1871216,38.3676758,0
27.1871471,38.3676576,0
27.1871806,38.36764,0
27.1872152,38.3676298,0
27.1872497,38.3676241,0
</coordinates>
</LineString>
</Placemark>

<Placemark>
<name>AZU_Kurucesme_route_1 | Rota 1 | Adım 28 | Travel 347->348</name>
<styleUrl>#travel</styleUrl>
<LineString>
<tessellate>1</tessellate>
<coordinates>
27.1872497,38.3676241,0
27.1873245,38.3676283,0
</coordinates>
</LineString>
</Placemark>

<Placemark>
<name>AZU_Kurucesme_route_1 | Rota 1 | Adım 28 | Travel 348->349</name>
<styleUrl>#travel</styleUrl>
<LineString>
<tessellate>1</tessellate>
<coordinates>
27.1873245,38.3676283,0
27.1873931,38.3676557,0
27.187422,38.3676743,0
27.1874458,38.3676983,0
27.1874608,38.3677251,0
27.1874686,38.3677487,0
27.1874741,38.36778,0
</coordinates>
</LineString>
</Placemark>

<Placemark>
<name>AZU_Kurucesme_route_1 | Rota 1 | Adım 28 | Servis Edge 714 (349->350)</name>
<styleUrl>#service</styleUrl>
<LineString>
<tessellate>1</tessellate>
<coordinates>
27.1874741,38.36778,0
27.1882209,38.3678127,0
</coordinates>
</LineString>
</Placemark>

<Placemark>
<name>AZU_Kurucesme_route_1 | Rota 1 | Adım 29 | Travel 350->349</name>
<styleUrl>#travel</styleUrl>
<LineString>
<tessellate>1</tessellate>
<coordinates>
27.1882209,38.3678127,0
27.1874741,38.36778,0
</coordinates>
</LineString>
</Placemark>

<Placemark>
<name>AZU_Kurucesme_route_1 | Rota 1 | Adım 29 | Travel 349->406</name>
<styleUrl>#travel</styleUrl>
<LineString>
<tessellate>1</tessellate>
<coordinates>
27.1873437,38.3679289,0
27.1874041,38.3679017,0
27.1874316,38.3678801,0
27.1874484,38.367857,0
27.1874638,38.3678252,0
27.1874741,38.36778,0
</coordinates>
</LineString>
</Placemark>

<Placemark>
<name>AZU_Kurucesme_route_1 | Rota 1 | Adım 29 | Servis Edge 719 (406->404)</name>
<styleUrl>#service</styleUrl>
<LineString>
<tessellate>1</tessellate>
<coordinates>
27.1872732,38.3688782,0
27.1873184,38.3682481,0
27.1873437,38.3679289,0
</coordinates>
</LineString>
</Placemark>

<Placemark>
<name>AZU_Kurucesme_route_1 | Rota 1 | Adım 30 | Travel 404->403</name>
<styleUrl>#travel</styleUrl>
<LineString>
<tessellate>1</tessellate>
<coordinates>
27.1872732,38.3688782,0
27.1872028,38.3688781,0
</coordinates>
</LineString>
</Placemark>

<Placemark>
<name>AZU_Kurucesme_route_1 | Rota 1 | Adım 30 | Travel 403->343</name>
<styleUrl>#travel</styleUrl>
<LineString>
<tessellate>1</tessellate>
<coordinates>
27.1872028,38.3688781,0
27.1870466,38.3688768,0
27.1853911,38.3687866,0
</coordinates>
</LineString>
</Placemark>

<Placemark>
<name>AZU_Kurucesme_route_1 | Rota 1 | Adım 30 | Travel 343->342</name>
<styleUrl>#travel</styleUrl>
<LineString>
<tessellate>1</tessellate>
<coordinates>
27.1853911,38.3687866,0
27.1840652,38.3687246,0
27.1835355,38.3686804,0
</coordinates>
</LineString>
</Placemark>

<Placemark>
<name>AZU_Kurucesme_route_1 | Rota 1 | Adım 30 | Travel 342->341</name>
<styleUrl>#travel</styleUrl>
<LineString>
<tessellate>1</tessellate>
<coordinates>
27.1835352,38.3685473,0
27.183538,38.3686288,0
27.1835355,38.3686804,0
</coordinates>
</LineString>
</Placemark>

<Placemark>
<name>AZU_Kurucesme_route_1 | Rota 1 | Adım 30 | Travel 341->253</name>
<styleUrl>#travel</styleUrl>
<LineString>
<tessellate>1</tessellate>
<coordinates>
27.1835352,38.3685473,0
27.1835749,38.3676875,0
</coordinates>
</LineString>
</Placemark>

<Placemark>
<name>AZU_Kurucesme_route_1 | Rota 1 | Adım 30 | Travel 253->252</name>
<styleUrl>#travel</styleUrl>
<LineString>
<tessellate>1</tessellate>
<coordinates>
27.1835749,38.3676875,0
27.1832447,38.3676606,0
27.1825753,38.3676263,0
</coordinates>
</LineString>
</Placemark>

<Placemark>
<name>AZU_Kurucesme_route_1 | Rota 1 | Adım 30 | Servis Edge 682 (252->200)</name>
<styleUrl>#service</styleUrl>
<LineString>
<tessellate>1</tessellate>
<coordinates>
27.1825753,38.3676263,0
27.1825996,38.367557,0
27.1826117,38.3674928,0
27.1826222,38.3672806,0
27.1826973,38.366972,0
27.1827409,38.3668737,0
27.1828545,38.3667282,0
</coordinates>
</LineString>
</Placemark>

<Placemark>
<name>AZU_Kurucesme_route_1 | Rota 1 | Adım RETURN | Travel 200->0</name>
<styleUrl>#travel</styleUrl>
<LineString>
<tessellate>1</tessellate>
<coordinates>
27.1828545,38.3667282,0
27.1824768,38.3664713,0
27.1823374,38.3664032,0
27.1821543,38.3663532,0
27.181878,38.3663359,0
27.1812279,38.3663616,0
27.1801155,38.3664494,0
</coordinates>
</LineString>
</Placemark>

</Document>
</kml>
