<?xml version="1.0" encoding="UTF-8"?>
<kml xmlns="http://www.opengis.net/kml/2.2">
<Document>
<name>AZU_Ataturk_route_1 GA Rota Sonucu</name>

<Style id="service">
<LineStyle>
<color>ff0000ff</color>
<width>5</width>
</LineStyle>
</Style>

<Style id="travel">
<LineStyle>
<color>ffff0000</color>
<width>4</width>
</LineStyle>
</Style>

<Placemark>
<name>AZU_Ataturk_route_1 | Rota 1 | Adım 1 | Travel 0->46</name>
<styleUrl>#travel</styleUrl>
<LineString>
<tessellate>1</tessellate>
<coordinates>
27.18011,38.36644,0
27.1796535,38.367388,0
27.1793907,38.3679853,0
27.1790312,38.3688096,0
27.178865,38.3694825,0
27.1787899,38.3697643,0
27.1787416,38.3700756,0
27.1787322,38.3701381,0
27.1787054,38.3701649,0
27.1786115,38.3702573,0
</coordinates>
</LineString>
</Placemark>

<Placemark>
<name>AZU_Ataturk_route_1 | Rota 1 | Adım 1 | Travel 46->47</name>
<styleUrl>#travel</styleUrl>
<LineString>
<tessellate>1</tessellate>
<coordinates>
27.1782188,38.3727672,0
27.1782613,38.3718972,0
27.1782774,38.3716764,0
27.1783176,38.3714514,0
27.1784525,38.3708543,0
27.1785105,38.3705537,0
27.1786115,38.3702573,0
</coordinates>
</LineString>
</Placemark>

<Placemark>
<name>AZU_Ataturk_route_1 | Rota 1 | Adım 1 | Travel 47->44</name>
<styleUrl>#travel</styleUrl>
<LineString>
<tessellate>1</tessellate>
<coordinates>
27.1782188,38.3727672,0
27.1798443,38.3725061,0
27.1814644,38.3722786,0
</coordinates>
</LineString>
</Placemark>

<Placemark>
<name>AZU_Ataturk_route_1 | Rota 1 | Adım 1 | Travel 44->116</name>
<styleUrl>#travel</styleUrl>
<LineString>
<tessellate>1</tessellate>
<coordinates>
27.1814644,38.3722828,0
27.1814448,38.3725482,0
27.1814119,38.3728305,0
27.1814602,38.3735161,0
27.1815916,38.37421,0
27.181742,38.3747023,0
27.1818897,38.3751292,0
27.1819515,38.3751693,0
</coordinates>
</LineString>
</Placemark>

<Placemark>
<name>AZU_Ataturk_route_1 | Rota 1 | Adım 1 | Travel 116->114</name>
<styleUrl>#travel</styleUrl>
<LineString>
<tessellate>1</tessellate>
<coordinates>
27.1819515,38.3751693,0
27.1817831,38.3752117,0
27.1816214,38.3752626,0
</coordinates>
</LineString>
</Placemark>

<Placemark>
<name>AZU_Ataturk_route_1 | Rota 1 | Adım 1 | Servis Edge 72 (114->67)</name>
<styleUrl>#service</styleUrl>
<LineString>
<tessellate>1</tessellate>
<coordinates>
27.1816214,38.3752626,0
27.1805038,38.3758144,0
27.1800611,38.3759386,0
</coordinates>
</LineString>
</Placemark>

<Placemark>
<name>AZU_Ataturk_route_1 | Rota 1 | Adım 2 | Travel 67->108</name>
<styleUrl>#travel</styleUrl>
<LineString>
<tessellate>1</tessellate>
<coordinates>
27.1788964,38.3761689,0
27.1793065,38.3760954,0
27.1796766,38.3760134,0
27.1800611,38.3759386,0
</coordinates>
</LineString>
</Placemark>

<Placemark>
<name>AZU_Ataturk_route_1 | Rota 1 | Adım 2 | Travel 108->105</name>
<styleUrl>#travel</styleUrl>
<LineString>
<tessellate>1</tessellate>
<coordinates>
27.1788964,38.3761689,0
27.1785201,38.3763189,0
</coordinates>
</LineString>
</Placemark>

<Placemark>
<name>AZU_Ataturk_route_1 | Rota 1 | Adım 2 | Servis Edge 69 (105->102)</name>
<styleUrl>#service</styleUrl>
<LineString>
<tessellate>1</tessellate>
<coordinates>
27.1785201,38.3763189,0
27.1780854,38.376585,0
27.1778614,38.3767112,0
27.177744,38.3767817,0
</coordinates>
</LineString>
</Placemark>

<Placemark>
<name>AZU_Ataturk_route_1 | Rota 1 | Adım 3 | Servis Edge 68 (102->101)</name>
<styleUrl>#service</styleUrl>
<LineString>
<tessellate>1</tessellate>
<coordinates>
27.177744,38.3767817,0
27.1774951,38.376936,0
27.1772564,38.3770596,0
27.1770781,38.3771484,0
27.1766965,38.3773692,0
27.1765325,38.3774757,0
</coordinates>
</LineString>
</Placemark>

<Placemark>
<name>AZU_Ataturk_route_1 | Rota 1 | Adım 4 | Travel 101->100</name>
<styleUrl>#travel</styleUrl>
<LineString>
<tessellate>1</tessellate>
<coordinates>
27.1765325,38.3774757,0
27.1762161,38.3776813,0
27.1761943,38.3777201,0
</coordinates>
</LineString>
</Placemark>

<Placemark>
<name>AZU_Ataturk_route_1 | Rota 1 | Adım 4 | Travel 100->71</name>
<styleUrl>#travel</styleUrl>
<LineString>
<tessellate>1</tessellate>
<coordinates>
27.1761943,38.3777201,0
27.1762972,38.3777752,0
27.1763317,38.3778065,0
27.176375,38.3778693,0
27.1765943,38.3782851,0
27.1767121,38.3784888,0
27.1768258,38.3786789,0
</coordinates>
</LineString>
</Placemark>

<Placemark>
<name>AZU_Ataturk_route_1 | Rota 1 | Adım 4 | Travel 71->72</name>
<styleUrl>#travel</styleUrl>
<LineString>
<tessellate>1</tessellate>
<coordinates>
27.1768258,38.3786789,0
27.1770165,38.3789512,0
27.1774452,38.3798368,0
</coordinates>
</LineString>
</Placemark>

<Placemark>
<name>AZU_Ataturk_route_1 | Rota 1 | Adım 4 | Travel 72->79</name>
<styleUrl>#travel</styleUrl>
<LineString>
<tessellate>1</tessellate>
<coordinates>
27.1779029,38.3806187,0
27.1774452,38.3798368,0
</coordinates>
</LineString>
</Placemark>

<Placemark>
<name>AZU_Ataturk_route_1 | Rota 1 | Adım 4 | Travel 79->78</name>
<styleUrl>#travel</styleUrl>
<LineString>
<tessellate>1</tessellate>
<coordinates>
27.1779029,38.3806187,0
27.1780251,38.3808883,0
27.1781204,38.3811073,0
</coordinates>
</LineString>
</Placemark>

<Placemark>
<name>AZU_Ataturk_route_1 | Rota 1 | Adım 4 | Travel 78->68</name>
<styleUrl>#travel</styleUrl>
<LineString>
<tessellate>1</tessellate>
<coordinates>
27.1781204,38.3811073,0
27.1782774,38.3813498,0
27.178483,38.3815762,0
</coordinates>
</LineString>
</Placemark>

<Placemark>
<name>AZU_Ataturk_route_1 | Rota 1 | Adım 4 | Travel 68->69</name>
<styleUrl>#travel</styleUrl>
<LineString>
<tessellate>1</tessellate>
<coordinates>
27.178483,38.3815762,0
27.178654,38.381539,0
27.1797103,38.3812604,0
</coordinates>
</LineString>
</Placemark>

<Placemark>
<name>AZU_Ataturk_route_1 | Rota 1 | Adım 4 | Servis Edge 128 (69->70)</name>
<styleUrl>#service</styleUrl>
<LineString>
<tessellate>1</tessellate>
<coordinates>
27.1799714,38.3811295,0
27.1798135,38.3811923,0
27.1797103,38.3812604,0
</coordinates>
</LineString>
</Placemark>

<Placemark>
<name>AZU_Ataturk_route_1 | Rota 1 | Adım 5 | Travel 70->198</name>
<styleUrl>#travel</styleUrl>
<LineString>
<tessellate>1</tessellate>
<coordinates>
27.1799714,38.3811295,0
27.180563,38.3809485,0
</coordinates>
</LineString>
</Placemark>

<Placemark>
<name>AZU_Ataturk_route_1 | Rota 1 | Adım 5 | Travel 198->199</name>
<styleUrl>#travel</styleUrl>
<LineString>
<tessellate>1</tessellate>
<coordinates>
27.180563,38.3809485,0
27.1806801,38.3809701,0
</coordinates>
</LineString>
</Placemark>

<Placemark>
<name>AZU_Ataturk_route_1 | Rota 1 | Adım 5 | Servis Edge 131 (199->195)</name>
<styleUrl>#service</styleUrl>
<LineString>
<tessellate>1</tessellate>
<coordinates>
27.1812373,38.3807717,0
27.1806801,38.3809701,0
</coordinates>
</LineString>
</Placemark>

<Placemark>
<name>AZU_Ataturk_route_1 | Rota 1 | Adım 6 | Travel 195->194</name>
<styleUrl>#travel</styleUrl>
<LineString>
<tessellate>1</tessellate>
<coordinates>
27.1821689,38.3804459,0
27.182046,38.3804999,0
27.1816929,38.3806384,0
27.1813405,38.3807422,0
27.1813218,38.3807487,0
27.1812373,38.3807717,0
</coordinates>
</LineString>
</Placemark>

<Placemark>
<name>AZU_Ataturk_route_1 | Rota 1 | Adım 6 | Travel 194->99</name>
<styleUrl>#travel</styleUrl>
<LineString>
<tessellate>1</tessellate>
<coordinates>
27.1821716,38.3804459,0
27.1824743,38.3802955,0
27.1826366,38.3802408,0
27.1827935,38.3801631,0
27.182874,38.3801284,0
27.1830174,38.3800411,0
27.1832146,38.3799065,0
27.1835498,38.3796962,0
27.1840405,38.3794268,0
</coordinates>
</LineString>
</Placemark>

<Placemark>
<name>AZU_Ataturk_route_1 | Rota 1 | Adım 6 | Servis Edge 150 (99->98)</name>
<styleUrl>#service</styleUrl>
<LineString>
<tessellate>1</tessellate>
<coordinates>
27.1855427,38.3791153,0
27.1853799,38.3791491,0
27.1852189,38.3791786,0
27.1845832,38.3792332,0
27.1843821,38.3792753,0
27.1843258,38.3792984,0
27.1840378,38.3794268,0
</coordinates>
</LineString>
</Placemark>

<Placemark>
<name>AZU_Ataturk_route_1 | Rota 1 | Adım 7 | Travel 98->97</name>
<styleUrl>#travel</styleUrl>
<LineString>
<tessellate>1</tessellate>
<coordinates>
27.1855427,38.3791153,0
27.185735,38.3791159,0
27.1863892,38.3785954,0
27.1867298,38.3783468,0
27.186778,38.3783072,0
27.1869067,38.3782235,0
27.187081,38.3781275,0
</coordinates>
</LineString>
</Placemark>

<Placemark>
<name>AZU_Ataturk_route_1 | Rota 1 | Adım 7 | Travel 97->96</name>
<styleUrl>#travel</styleUrl>
<LineString>
<tessellate>1</tessellate>
<coordinates>
27.187081,38.3781275,0
27.1879362,38.377643,0
27.1880019,38.3776041,0
27.1886649,38.3773089,0
</coordinates>
</LineString>
</Placemark>

<Placemark>
<name>AZU_Ataturk_route_1 | Rota 1 | Adım 7 | Servis Edge 279 (96->95)</name>
<styleUrl>#service</styleUrl>
<LineString>
<tessellate>1</tessellate>
<coordinates>
27.1886649,38.3773089,0
27.1897965,38.3768046,0
</coordinates>
</LineString>
</Placemark>

<Placemark>
<name>AZU_Ataturk_route_1 | Rota 1 | Adım 8 | Travel 95->94</name>
<styleUrl>#travel</styleUrl>
<LineString>
<tessellate>1</tessellate>
<coordinates>
27.1897965,38.3768046,0
27.1898597,38.3767239,0
27.1899125,38.3766854,0
27.1899902,38.3766671,0
27.190072,38.3766752,0
</coordinates>
</LineString>
</Placemark>

<Placemark>
<name>AZU_Ataturk_route_1 | Rota 1 | Adım 8 | Servis Edge 281 (94->93)</name>
<styleUrl>#service</styleUrl>
<LineString>
<tessellate>1</tessellate>
<coordinates>
27.190072,38.3766752,0
27.1905442,38.3764268,0
</coordinates>
</LineString>
</Placemark>

<Placemark>
<name>AZU_Ataturk_route_1 | Rota 1 | Adım 9 | Travel 93->145</name>
<styleUrl>#travel</styleUrl>
<LineString>
<tessellate>1</tessellate>
<coordinates>
27.18983,38.37529,0
27.19054,38.37642,0
</coordinates>
</LineString>
</Placemark>

<Placemark>
<name>AZU_Ataturk_route_1 | Rota 1 | Adım 9 | Travel 145->143</name>
<styleUrl>#travel</styleUrl>
<LineString>
<tessellate>1</tessellate>
<coordinates>
27.18983,38.37529,0
27.1894666,38.3746673,0
27.1892439,38.3743666,0
27.18903,38.37413,0
</coordinates>
</LineString>
</Placemark>

<Placemark>
<name>AZU_Ataturk_route_1 | Rota 1 | Adım 9 | Travel 143->142</name>
<styleUrl>#travel</styleUrl>
<LineString>
<tessellate>1</tessellate>
<coordinates>
27.18903,38.37413,0
27.1888984,38.3739874,0
27.1888312,38.373914,0
27.18876,38.37385,0
</coordinates>
</LineString>
</Placemark>

<Placemark>
<name>AZU_Ataturk_route_1 | Rota 1 | Adım 9 | Travel 142->155</name>
<styleUrl>#travel</styleUrl>
<LineString>
<tessellate>1</tessellate>
<coordinates>
27.1885891,38.3736462,0
27.1887614,38.3738374,0
27.18876,38.37385,0
</coordinates>
</LineString>
</Placemark>

<Placemark>
<name>AZU_Ataturk_route_1 | Rota 1 | Adım 9 | Travel 155->140</name>
<styleUrl>#travel</styleUrl>
<LineString>
<tessellate>1</tessellate>
<coordinates>
27.1885891,38.3736462,0
27.1884745,38.3734992,0
</coordinates>
</LineString>
</Placemark>

<Placemark>
<name>AZU_Ataturk_route_1 | Rota 1 | Adım 9 | Travel 140->63</name>
<styleUrl>#travel</styleUrl>
<LineString>
<tessellate>1</tessellate>
<coordinates>
27.1884745,38.3734992,0
27.18791,38.37275,0
</coordinates>
</LineString>
</Placemark>

<Placemark>
<name>AZU_Ataturk_route_1 | Rota 1 | Adım 9 | Servis Edge 207 (63->136)</name>
<styleUrl>#service</styleUrl>
<LineString>
<tessellate>1</tessellate>
<coordinates>
27.1864157,38.3732754,0
27.1866309,38.3732177,0
27.1871787,38.3730318,0
27.1879149,38.3727503,0
</coordinates>
</LineString>
</Placemark>

<Placemark>
<name>AZU_Ataturk_route_1 | Rota 1 | Adım 10 | Travel 136->134</name>
<styleUrl>#travel</styleUrl>
<LineString>
<tessellate>1</tessellate>
<coordinates>
27.1864157,38.3732754,0
27.1862993,38.3733118,0
27.1859902,38.373429,0
27.1856992,38.3735771,0
</coordinates>
</LineString>
</Placemark>

<Placemark>
<name>AZU_Ataturk_route_1 | Rota 1 | Adım 10 | Servis Edge 198 (134->131)</name>
<styleUrl>#service</styleUrl>
<LineString>
<tessellate>1</tessellate>
<coordinates>
27.1856992,38.3735771,0
27.1851031,38.3739326,0
27.1848933,38.3740515,0
</coordinates>
</LineString>
</Placemark>

<Placemark>
<name>AZU_Ataturk_route_1 | Rota 1 | Adım 11 | Servis Edge 166 (131->65)</name>
<styleUrl>#service</styleUrl>
<LineString>
<tessellate>1</tessellate>
<coordinates>
27.1848933,38.3740515,0
27.1842692,38.3743224,0
27.1836504,38.3745702,0
</coordinates>
</LineString>
</Placemark>

<Placemark>
<name>AZU_Ataturk_route_1 | Rota 1 | Adım RETURN | Travel 65->64</name>
<styleUrl>#travel</styleUrl>
<LineString>
<tessellate>1</tessellate>
<coordinates>
27.1836504,38.3745702,0
27.1832791,38.3747228,0
</coordinates>
</LineString>
</Placemark>

<Placemark>
<name>AZU_Ataturk_route_1 | Rota 1 | Adım RETURN | Travel 64->66</name>
<styleUrl>#travel</styleUrl>
<LineString>
<tessellate>1</tessellate>
<coordinates>
27.1832791,38.3747228,0
27.1829867,38.3748465,0
</coordinates>
</LineString>
</Placemark>

<Placemark>
<name>AZU_Ataturk_route_1 | Rota 1 | Adım RETURN | Travel 66->116</name>
<styleUrl>#travel</styleUrl>
<LineString>
<tessellate>1</tessellate>
<coordinates>
27.1829867,38.3748465,0
27.1826901,38.3749619,0
27.1824668,38.3750481,0
27.1822368,38.3751253,0
27.182031,38.3751574,0
27.1819515,38.3751693,0
</coordinates>
</LineString>
</Placemark>

<Placemark>
<name>AZU_Ataturk_route_1 | Rota 1 | Adım RETURN | Travel 116->44</name>
<styleUrl>#travel</styleUrl>
<LineString>
<tessellate>1</tessellate>
<coordinates>
27.1819515,38.3751693,0
27.1818897,38.3751292,0
27.181742,38.3747023,0
27.1815916,38.37421,0
27.1814602,38.3735161,0
27.1814119,38.3728305,0
27.1814448,38.3725482,0
27.1814644,38.3722828,0
</coordinates>
</LineString>
</Placemark>

<Placemark>
<name>AZU_Ataturk_route_1 | Rota 1 | Adım RETURN | Travel 44->40</name>
<styleUrl>#travel</styleUrl>
<LineString>
<tessellate>1</tessellate>
<coordinates>
27.1814644,38.3722786,0
27.181467,38.3716103,0
27.1814617,38.3714021,0
27.181458,38.3713246,0
27.1815026,38.3711798,0
27.1815341,38.3709574,0
27.1815529,38.3705478,0
27.1815569,38.3704303,0
27.1815797,38.3703086,0
27.1816034,38.3700211,0
27.1815965,38.3698585,0
27.1815788,38.3697294,0
</coordinates>
</LineString>
</Placemark>

<Placemark>
<name>AZU_Ataturk_route_1 | Rota 1 | Adım RETURN | Travel 40->46</name>
<styleUrl>#travel</styleUrl>
<LineString>
<tessellate>1</tessellate>
<coordinates>
27.1815788,38.3697294,0
27.1796817,38.3700432,0
27.1794496,38.3700616,0
27.1791881,38.3700926,0
27.1789689,38.3701294,0
27.1787415,38.3701609,0
27.1786115,38.3702573,0
</coordinates>
</LineString>
</Placemark>

<Placemark>
<name>AZU_Ataturk_route_1 | Rota 1 | Adım RETURN | Travel 46->0</name>
<styleUrl>#travel</styleUrl>
<LineString>
<tessellate>1</tessellate>
<coordinates>
27.1786115,38.3702573,0
27.1787054,38.3701649,0
27.1787322,38.3701381,0
27.1787416,38.3700756,0
27.1787899,38.3697643,0
27.178865,38.3694825,0
27.1790312,38.3688096,0
27.1793907,38.3679853,0
27.1796535,38.367388,0
27.18011,38.36644,0
</coordinates>
</LineString>
</Placemark>

</Document>
</kml>
