<?xml version="1.0" encoding="UTF-8"?>
<kml xmlns="http://www.opengis.net/kml/2.2">
<Document>
<name>TEK_AZU_Ataturk_Kurucesme_route_1 GA Rota Sonucu</name>

<Style id="service">
<LineStyle>
<color>ff0000ff</color>
<width>5</width>
</LineStyle>
</Style>

<Style id="travel">
<LineStyle>
<color>ffff0000</color>
<width>4</width>
</LineStyle>
</Style>

<Placemark>
<name>TEK_AZU_Ataturk_Kurucesme_route_1 | Rota 1 | Adım 1 | Travel 0->46</name>
<styleUrl>#travel</styleUrl>
<LineString>
<tessellate>1</tessellate>
<coordinates>
27.18011,38.36644,0
27.1796535,38.367388,0
27.1793907,38.3679853,0
27.1790312,38.3688096,0
27.178865,38.3694825,0
27.1787899,38.3697643,0
27.1787416,38.3700756,0
27.1787322,38.3701381,0
27.1787054,38.3701649,0
27.1786115,38.3702573,0
</coordinates>
</LineString>
</Placemark>

<Placemark>
<name>TEK_AZU_Ataturk_Kurucesme_route_1 | Rota 1 | Adım 1 | Travel 46->47</name>
<styleUrl>#travel</styleUrl>
<LineString>
<tessellate>1</tessellate>
<coordinates>
27.1782188,38.3727672,0
27.1782613,38.3718972,0
27.1782774,38.3716764,0
27.1783176,38.3714514,0
27.1784525,38.3708543,0
27.1785105,38.3705537,0
27.1786115,38.3702573,0
</coordinates>
</LineString>
</Placemark>

<Placemark>
<name>TEK_AZU_Ataturk_Kurucesme_route_1 | Rota 1 | Adım 1 | Travel 47->48</name>
<styleUrl>#travel</styleUrl>
<LineString>
<tessellate>1</tessellate>
<coordinates>
27.1781992,38.3736308,0
27.1782188,38.3727672,0
</coordinates>
</LineString>
</Placemark>

<Placemark>
<name>TEK_AZU_Ataturk_Kurucesme_route_1 | Rota 1 | Adım 1 | Travel 48->45</name>
<styleUrl>#travel</styleUrl>
<LineString>
<tessellate>1</tessellate>
<coordinates>
27.1769799,38.3762664,0
27.1773494,38.3758234,0
27.1777511,38.3754014,0
27.1780086,38.374964,0
27.1781722,38.3744257,0
27.1781992,38.3736308,0
</coordinates>
</LineString>
</Placemark>

<Placemark>
<name>TEK_AZU_Ataturk_Kurucesme_route_1 | Rota 1 | Adım 1 | Travel 45->102</name>
<styleUrl>#travel</styleUrl>
<LineString>
<tessellate>1</tessellate>
<coordinates>
27.1769799,38.3762664,0
27.1770975,38.376307,0
27.1772097,38.3763645,0
27.1774233,38.3764836,0
27.1778346,38.3767217,0
27.177744,38.3767817,0
</coordinates>
</LineString>
</Placemark>

<Placemark>
<name>TEK_AZU_Ataturk_Kurucesme_route_1 | Rota 1 | Adım 1 | Servis Edge 68 (102->101)</name>
<styleUrl>#service</styleUrl>
<LineString>
<tessellate>1</tessellate>
<coordinates>
27.177744,38.3767817,0
27.1774951,38.376936,0
27.1772564,38.3770596,0
27.1770781,38.3771484,0
27.1766965,38.3773692,0
27.1765325,38.3774757,0
</coordinates>
</LineString>
</Placemark>

<Placemark>
<name>TEK_AZU_Ataturk_Kurucesme_route_1 | Rota 1 | Adım 2 | Travel 101->102</name>
<styleUrl>#travel</styleUrl>
<LineString>
<tessellate>1</tessellate>
<coordinates>
27.1765325,38.3774757,0
27.1766965,38.3773692,0
27.1770781,38.3771484,0
27.1772564,38.3770596,0
27.1774951,38.376936,0
27.177744,38.3767817,0
</coordinates>
</LineString>
</Placemark>

<Placemark>
<name>TEK_AZU_Ataturk_Kurucesme_route_1 | Rota 1 | Adım 2 | Servis Edge 69 (102->105)</name>
<styleUrl>#service</styleUrl>
<LineString>
<tessellate>1</tessellate>
<coordinates>
27.177744,38.3767817,0
27.1778614,38.3767112,0
27.1780854,38.376585,0
27.1785201,38.3763189,0
</coordinates>
</LineString>
</Placemark>

<Placemark>
<name>TEK_AZU_Ataturk_Kurucesme_route_1 | Rota 1 | Adım 3 | Travel 105->108</name>
<styleUrl>#travel</styleUrl>
<LineString>
<tessellate>1</tessellate>
<coordinates>
27.1785201,38.3763189,0
27.1788964,38.3761689,0
</coordinates>
</LineString>
</Placemark>

<Placemark>
<name>TEK_AZU_Ataturk_Kurucesme_route_1 | Rota 1 | Adım 3 | Travel 108->67</name>
<styleUrl>#travel</styleUrl>
<LineString>
<tessellate>1</tessellate>
<coordinates>
27.1800611,38.3759386,0
27.1796766,38.3760134,0
27.1793065,38.3760954,0
27.1788964,38.3761689,0
</coordinates>
</LineString>
</Placemark>

<Placemark>
<name>TEK_AZU_Ataturk_Kurucesme_route_1 | Rota 1 | Adım 3 | Servis Edge 72 (67->114)</name>
<styleUrl>#service</styleUrl>
<LineString>
<tessellate>1</tessellate>
<coordinates>
27.1800611,38.3759386,0
27.1805038,38.3758144,0
27.1816214,38.3752626,0
</coordinates>
</LineString>
</Placemark>

<Placemark>
<name>TEK_AZU_Ataturk_Kurucesme_route_1 | Rota 1 | Adım 4 | Travel 114->113</name>
<styleUrl>#travel</styleUrl>
<LineString>
<tessellate>1</tessellate>
<coordinates>
27.18184,38.3759827,0
27.1818641,38.3757801,0
27.1818728,38.3756804,0
27.1818694,38.375588,0
27.1816214,38.3752626,0
</coordinates>
</LineString>
</Placemark>

<Placemark>
<name>TEK_AZU_Ataturk_Kurucesme_route_1 | Rota 1 | Adım 4 | Travel 113->181</name>
<styleUrl>#travel</styleUrl>
<LineString>
<tessellate>1</tessellate>
<coordinates>
27.1816922,38.3767725,0
27.1817968,38.3765017,0
27.1818222,38.376343,0
27.1818344,38.3762936,0
27.1818281,38.3762098,0
27.1818392,38.3761313,0
27.18184,38.3759827,0
</coordinates>
</LineString>
</Placemark>

<Placemark>
<name>TEK_AZU_Ataturk_Kurucesme_route_1 | Rota 1 | Adım 4 | Travel 181->180</name>
<styleUrl>#travel</styleUrl>
<LineString>
<tessellate>1</tessellate>
<coordinates>
27.1816922,38.3767725,0
27.1816998,38.3769268,0
</coordinates>
</LineString>
</Placemark>

<Placemark>
<name>TEK_AZU_Ataturk_Kurucesme_route_1 | Rota 1 | Adım 4 | Travel 180->60</name>
<styleUrl>#travel</styleUrl>
<LineString>
<tessellate>1</tessellate>
<coordinates>
27.1816998,38.3769268,0
27.18194,38.3776121,0
27.1819476,38.3777771,0
</coordinates>
</LineString>
</Placemark>

<Placemark>
<name>TEK_AZU_Ataturk_Kurucesme_route_1 | Rota 1 | Adım 4 | Travel 60->61</name>
<styleUrl>#travel</styleUrl>
<LineString>
<tessellate>1</tessellate>
<coordinates>
27.1819476,38.3777771,0
27.1817739,38.3777723,0
27.181445,38.3779457,0
</coordinates>
</LineString>
</Placemark>

<Placemark>
<name>TEK_AZU_Ataturk_Kurucesme_route_1 | Rota 1 | Adım 4 | Travel 61->189</name>
<styleUrl>#travel</styleUrl>
<LineString>
<tessellate>1</tessellate>
<coordinates>
27.180677,38.3784182,0
27.181445,38.3779457,0
</coordinates>
</LineString>
</Placemark>

<Placemark>
<name>TEK_AZU_Ataturk_Kurucesme_route_1 | Rota 1 | Adım 4 | Travel 189->190</name>
<styleUrl>#travel</styleUrl>
<LineString>
<tessellate>1</tessellate>
<coordinates>
27.180677,38.3784182,0
27.1806476,38.3785396,0
27.1805707,38.3787837,0
</coordinates>
</LineString>
</Placemark>

<Placemark>
<name>TEK_AZU_Ataturk_Kurucesme_route_1 | Rota 1 | Adım 4 | Travel 190->192</name>
<styleUrl>#travel</styleUrl>
<LineString>
<tessellate>1</tessellate>
<coordinates>
27.1805707,38.3787837,0
27.1804664,38.3791153,0
27.1804297,38.3793658,0
</coordinates>
</LineString>
</Placemark>

<Placemark>
<name>TEK_AZU_Ataturk_Kurucesme_route_1 | Rota 1 | Adım 4 | Travel 192->88</name>
<styleUrl>#travel</styleUrl>
<LineString>
<tessellate>1</tessellate>
<coordinates>
27.1804297,38.3793658,0
27.1803819,38.379518,0
</coordinates>
</LineString>
</Placemark>

<Placemark>
<name>TEK_AZU_Ataturk_Kurucesme_route_1 | Rota 1 | Adım 4 | Travel 88->196</name>
<styleUrl>#travel</styleUrl>
<LineString>
<tessellate>1</tessellate>
<coordinates>
27.1803819,38.379518,0
27.1803746,38.3795565,0
27.1803861,38.3795746,0
27.1804768,38.3797007,0
27.1805635,38.3798189,0
27.1806461,38.3799445,0
27.1807113,38.3800543,0
</coordinates>
</LineString>
</Placemark>

<Placemark>
<name>TEK_AZU_Ataturk_Kurucesme_route_1 | Rota 1 | Adım 4 | Travel 196->195</name>
<styleUrl>#travel</styleUrl>
<LineString>
<tessellate>1</tessellate>
<coordinates>
27.1807113,38.3800543,0
27.1811008,38.3806495,0
27.1811356,38.3806905,0
27.1811759,38.3807263,0
27.1812373,38.3807717,0
</coordinates>
</LineString>
</Placemark>

<Placemark>
<name>TEK_AZU_Ataturk_Kurucesme_route_1 | Rota 1 | Adım 4 | Travel 195->199</name>
<styleUrl>#travel</styleUrl>
<LineString>
<tessellate>1</tessellate>
<coordinates>
27.1806801,38.3809701,0
27.1812373,38.3807717,0
</coordinates>
</LineString>
</Placemark>

<Placemark>
<name>TEK_AZU_Ataturk_Kurucesme_route_1 | Rota 1 | Adım 4 | Travel 199->57</name>
<styleUrl>#travel</styleUrl>
<LineString>
<tessellate>1</tessellate>
<coordinates>
27.1806801,38.3809701,0
27.1804365,38.3810681,0
</coordinates>
</LineString>
</Placemark>

<Placemark>
<name>TEK_AZU_Ataturk_Kurucesme_route_1 | Rota 1 | Adım 4 | Travel 57->56</name>
<styleUrl>#travel</styleUrl>
<LineString>
<tessellate>1</tessellate>
<coordinates>
27.1804365,38.3810681,0
27.18001,38.3811955,0
</coordinates>
</LineString>
</Placemark>

<Placemark>
<name>TEK_AZU_Ataturk_Kurucesme_route_1 | Rota 1 | Adım 4 | Travel 56->69</name>
<styleUrl>#travel</styleUrl>
<LineString>
<tessellate>1</tessellate>
<coordinates>
27.18001,38.3811955,0
27.1798092,38.3812463,0
27.1797103,38.3812604,0
</coordinates>
</LineString>
</Placemark>

<Placemark>
<name>TEK_AZU_Ataturk_Kurucesme_route_1 | Rota 1 | Adım 4 | Servis Edge 128 (69->70)</name>
<styleUrl>#service</styleUrl>
<LineString>
<tessellate>1</tessellate>
<coordinates>
27.1799714,38.3811295,0
27.1798135,38.3811923,0
27.1797103,38.3812604,0
</coordinates>
</LineString>
</Placemark>

<Placemark>
<name>TEK_AZU_Ataturk_Kurucesme_route_1 | Rota 1 | Adım 5 | Travel 70->198</name>
<styleUrl>#travel</styleUrl>
<LineString>
<tessellate>1</tessellate>
<coordinates>
27.1799714,38.3811295,0
27.180563,38.3809485,0
</coordinates>
</LineString>
</Placemark>

<Placemark>
<name>TEK_AZU_Ataturk_Kurucesme_route_1 | Rota 1 | Adım 5 | Travel 198->199</name>
<styleUrl>#travel</styleUrl>
<LineString>
<tessellate>1</tessellate>
<coordinates>
27.180563,38.3809485,0
27.1806801,38.3809701,0
</coordinates>
</LineString>
</Placemark>

<Placemark>
<name>TEK_AZU_Ataturk_Kurucesme_route_1 | Rota 1 | Adım 5 | Servis Edge 131 (199->195)</name>
<styleUrl>#service</styleUrl>
<LineString>
<tessellate>1</tessellate>
<coordinates>
27.1812373,38.3807717,0
27.1806801,38.3809701,0
</coordinates>
</LineString>
</Placemark>

<Placemark>
<name>TEK_AZU_Ataturk_Kurucesme_route_1 | Rota 1 | Adım 6 | Travel 195->194</name>
<styleUrl>#travel</styleUrl>
<LineString>
<tessellate>1</tessellate>
<coordinates>
27.1821689,38.3804459,0
27.182046,38.3804999,0
27.1816929,38.3806384,0
27.1813405,38.3807422,0
27.1813218,38.3807487,0
27.1812373,38.3807717,0
</coordinates>
</LineString>
</Placemark>

<Placemark>
<name>TEK_AZU_Ataturk_Kurucesme_route_1 | Rota 1 | Adım 6 | Travel 194->99</name>
<styleUrl>#travel</styleUrl>
<LineString>
<tessellate>1</tessellate>
<coordinates>
27.1821716,38.3804459,0
27.1824743,38.3802955,0
27.1826366,38.3802408,0
27.1827935,38.3801631,0
27.182874,38.3801284,0
27.1830174,38.3800411,0
27.1832146,38.3799065,0
27.1835498,38.3796962,0
27.1840405,38.3794268,0
</coordinates>
</LineString>
</Placemark>

<Placemark>
<name>TEK_AZU_Ataturk_Kurucesme_route_1 | Rota 1 | Adım 6 | Servis Edge 150 (99->98)</name>
<styleUrl>#service</styleUrl>
<LineString>
<tessellate>1</tessellate>
<coordinates>
27.1855427,38.3791153,0
27.1853799,38.3791491,0
27.1852189,38.3791786,0
27.1845832,38.3792332,0
27.1843821,38.3792753,0
27.1843258,38.3792984,0
27.1840378,38.3794268,0
</coordinates>
</LineString>
</Placemark>

<Placemark>
<name>TEK_AZU_Ataturk_Kurucesme_route_1 | Rota 1 | Adım 7 | Travel 98->89</name>
<styleUrl>#travel</styleUrl>
<LineString>
<tessellate>1</tessellate>
<coordinates>
27.1855427,38.3791153,0
27.184977,38.3782523,0
</coordinates>
</LineString>
</Placemark>

<Placemark>
<name>TEK_AZU_Ataturk_Kurucesme_route_1 | Rota 1 | Adım 7 | Travel 89->90</name>
<styleUrl>#travel</styleUrl>
<LineString>
<tessellate>1</tessellate>
<coordinates>
27.1846412,38.3777365,0
27.184977,38.3782523,0
</coordinates>
</LineString>
</Placemark>

<Placemark>
<name>TEK_AZU_Ataturk_Kurucesme_route_1 | Rota 1 | Adım 7 | Travel 90->176</name>
<styleUrl>#travel</styleUrl>
<LineString>
<tessellate>1</tessellate>
<coordinates>
27.1846412,38.3777365,0
27.1842617,38.3771462,0
</coordinates>
</LineString>
</Placemark>

<Placemark>
<name>TEK_AZU_Ataturk_Kurucesme_route_1 | Rota 1 | Adım 7 | Travel 176->175</name>
<styleUrl>#travel</styleUrl>
<LineString>
<tessellate>1</tessellate>
<coordinates>
27.1847842,38.376946,0
27.1846262,38.3769904,0
27.184582,38.3770062,0
27.1842617,38.3771462,0
</coordinates>
</LineString>
</Placemark>

<Placemark>
<name>TEK_AZU_Ataturk_Kurucesme_route_1 | Rota 1 | Adım 7 | Travel 175->91</name>
<styleUrl>#travel</styleUrl>
<LineString>
<tessellate>1</tessellate>
<coordinates>
27.1847842,38.376946,0
27.1853908,38.3767979,0
</coordinates>
</LineString>
</Placemark>

<Placemark>
<name>TEK_AZU_Ataturk_Kurucesme_route_1 | Rota 1 | Adım 7 | Travel 91->169</name>
<styleUrl>#travel</styleUrl>
<LineString>
<tessellate>1</tessellate>
<coordinates>
27.1853908,38.3767979,0
27.1851387,38.376284,0
</coordinates>
</LineString>
</Placemark>

<Placemark>
<name>TEK_AZU_Ataturk_Kurucesme_route_1 | Rota 1 | Adım 7 | Travel 169->170</name>
<styleUrl>#travel</styleUrl>
<LineString>
<tessellate>1</tessellate>
<coordinates>
27.1851387,38.376284,0
27.1849454,38.375969,0
27.1848313,38.3758886,0
</coordinates>
</LineString>
</Placemark>

<Placemark>
<name>TEK_AZU_Ataturk_Kurucesme_route_1 | Rota 1 | Adım 7 | Travel 170->171</name>
<styleUrl>#travel</styleUrl>
<LineString>
<tessellate>1</tessellate>
<coordinates>
27.1848313,38.3758886,0
27.1845354,38.3755058,0
</coordinates>
</LineString>
</Placemark>

<Placemark>
<name>TEK_AZU_Ataturk_Kurucesme_route_1 | Rota 1 | Adım 7 | Travel 171->124</name>
<styleUrl>#travel</styleUrl>
<LineString>
<tessellate>1</tessellate>
<coordinates>
27.1841513,38.3751339,0
27.1843117,38.3752603,0
27.1844351,38.3754064,0
27.1845354,38.3755058,0
</coordinates>
</LineString>
</Placemark>

<Placemark>
<name>TEK_AZU_Ataturk_Kurucesme_route_1 | Rota 1 | Adım 7 | Travel 124->126</name>
<styleUrl>#travel</styleUrl>
<LineString>
<tessellate>1</tessellate>
<coordinates>
27.1838918,38.374894,0
27.184094,38.3751575,0
27.1841513,38.3751339,0
</coordinates>
</LineString>
</Placemark>

<Placemark>
<name>TEK_AZU_Ataturk_Kurucesme_route_1 | Rota 1 | Adım 7 | Travel 126->65</name>
<styleUrl>#travel</styleUrl>
<LineString>
<tessellate>1</tessellate>
<coordinates>
27.1838918,38.374894,0
27.1836504,38.3745702,0
</coordinates>
</LineString>
</Placemark>

<Placemark>
<name>TEK_AZU_Ataturk_Kurucesme_route_1 | Rota 1 | Adım 7 | Servis Edge 166 (65->131)</name>
<styleUrl>#service</styleUrl>
<LineString>
<tessellate>1</tessellate>
<coordinates>
27.1836504,38.3745702,0
27.1842692,38.3743224,0
27.1848933,38.3740515,0
</coordinates>
</LineString>
</Placemark>

<Placemark>
<name>TEK_AZU_Ataturk_Kurucesme_route_1 | Rota 1 | Adım 8 | Servis Edge 198 (131->134)</name>
<styleUrl>#service</styleUrl>
<LineString>
<tessellate>1</tessellate>
<coordinates>
27.1848933,38.3740515,0
27.1851031,38.3739326,0
27.1856992,38.3735771,0
</coordinates>
</LineString>
</Placemark>

<Placemark>
<name>TEK_AZU_Ataturk_Kurucesme_route_1 | Rota 1 | Adım 9 | Travel 134->136</name>
<styleUrl>#travel</styleUrl>
<LineString>
<tessellate>1</tessellate>
<coordinates>
27.1856992,38.3735771,0
27.1859902,38.373429,0
27.1862993,38.3733118,0
27.1864157,38.3732754,0
</coordinates>
</LineString>
</Placemark>

<Placemark>
<name>TEK_AZU_Ataturk_Kurucesme_route_1 | Rota 1 | Adım 9 | Servis Edge 207 (136->63)</name>
<styleUrl>#service</styleUrl>
<LineString>
<tessellate>1</tessellate>
<coordinates>
27.1879149,38.3727503,0
27.1871787,38.3730318,0
27.1866309,38.3732177,0
27.1864157,38.3732754,0
</coordinates>
</LineString>
</Placemark>

<Placemark>
<name>TEK_AZU_Ataturk_Kurucesme_route_1 | Rota 1 | Adım 10 | Travel 63->140</name>
<styleUrl>#travel</styleUrl>
<LineString>
<tessellate>1</tessellate>
<coordinates>
27.18791,38.37275,0
27.1884745,38.3734992,0
</coordinates>
</LineString>
</Placemark>

<Placemark>
<name>TEK_AZU_Ataturk_Kurucesme_route_1 | Rota 1 | Adım 10 | Travel 140->155</name>
<styleUrl>#travel</styleUrl>
<LineString>
<tessellate>1</tessellate>
<coordinates>
27.1884745,38.3734992,0
27.1885891,38.3736462,0
</coordinates>
</LineString>
</Placemark>

<Placemark>
<name>TEK_AZU_Ataturk_Kurucesme_route_1 | Rota 1 | Adım 10 | Travel 155->142</name>
<styleUrl>#travel</styleUrl>
<LineString>
<tessellate>1</tessellate>
<coordinates>
27.18876,38.37385,0
27.1887614,38.3738374,0
27.1885891,38.3736462,0
</coordinates>
</LineString>
</Placemark>

<Placemark>
<name>TEK_AZU_Ataturk_Kurucesme_route_1 | Rota 1 | Adım 10 | Travel 142->141</name>
<styleUrl>#travel</styleUrl>
<LineString>
<tessellate>1</tessellate>
<coordinates>
27.1887679,38.3738529,0
27.1879869,38.3743129,0
</coordinates>
</LineString>
</Placemark>

<Placemark>
<name>TEK_AZU_Ataturk_Kurucesme_route_1 | Rota 1 | Adım 10 | Travel 141->144</name>
<styleUrl>#travel</styleUrl>
<LineString>
<tessellate>1</tessellate>
<coordinates>
27.1881403,38.3745161,0
27.1879869,38.3743129,0
</coordinates>
</LineString>
</Placemark>

<Placemark>
<name>TEK_AZU_Ataturk_Kurucesme_route_1 | Rota 1 | Adım 10 | Travel 144->150</name>
<styleUrl>#travel</styleUrl>
<LineString>
<tessellate>1</tessellate>
<coordinates>
27.1877726,38.3746604,0
27.1879538,38.3745714,0
27.1881403,38.3745161,0
</coordinates>
</LineString>
</Placemark>

<Placemark>
<name>TEK_AZU_Ataturk_Kurucesme_route_1 | Rota 1 | Adım 10 | Travel 150->149</name>
<styleUrl>#travel</styleUrl>
<LineString>
<tessellate>1</tessellate>
<coordinates>
27.1877726,38.3746604,0
27.1880705,38.3750881,0
</coordinates>
</LineString>
</Placemark>

<Placemark>
<name>TEK_AZU_Ataturk_Kurucesme_route_1 | Rota 1 | Adım 10 | Travel 149->59</name>
<styleUrl>#travel</styleUrl>
<LineString>
<tessellate>1</tessellate>
<coordinates>
27.1877184,38.3753969,0
27.187815,38.3752921,0
27.1878941,38.3752233,0
27.1880705,38.3750881,0
</coordinates>
</LineString>
</Placemark>

<Placemark>
<name>TEK_AZU_Ataturk_Kurucesme_route_1 | Rota 1 | Adım 10 | Travel 59->161</name>
<styleUrl>#travel</styleUrl>
<LineString>
<tessellate>1</tessellate>
<coordinates>
27.1874529,38.3756618,0
27.1877184,38.3753969,0
</coordinates>
</LineString>
</Placemark>

<Placemark>
<name>TEK_AZU_Ataturk_Kurucesme_route_1 | Rota 1 | Adım 10 | Travel 161->160</name>
<styleUrl>#travel</styleUrl>
<LineString>
<tessellate>1</tessellate>
<coordinates>
27.1874529,38.3756618,0
27.1877063,38.376007,0
</coordinates>
</LineString>
</Placemark>

<Placemark>
<name>TEK_AZU_Ataturk_Kurucesme_route_1 | Rota 1 | Adım 10 | Travel 160->92</name>
<styleUrl>#travel</styleUrl>
<LineString>
<tessellate>1</tessellate>
<coordinates>
27.1877063,38.376007,0
27.1880159,38.3764656,0
27.1881195,38.3766158,0
</coordinates>
</LineString>
</Placemark>

<Placemark>
<name>TEK_AZU_Ataturk_Kurucesme_route_1 | Rota 1 | Adım 10 | Travel 92->96</name>
<styleUrl>#travel</styleUrl>
<LineString>
<tessellate>1</tessellate>
<coordinates>
27.1881195,38.3766158,0
27.1886649,38.3773089,0
</coordinates>
</LineString>
</Placemark>

<Placemark>
<name>TEK_AZU_Ataturk_Kurucesme_route_1 | Rota 1 | Adım 10 | Servis Edge 279 (96->95)</name>
<styleUrl>#service</styleUrl>
<LineString>
<tessellate>1</tessellate>
<coordinates>
27.1886649,38.3773089,0
27.1897965,38.3768046,0
</coordinates>
</LineString>
</Placemark>

<Placemark>
<name>TEK_AZU_Ataturk_Kurucesme_route_1 | Rota 1 | Adım 11 | Travel 95->94</name>
<styleUrl>#travel</styleUrl>
<LineString>
<tessellate>1</tessellate>
<coordinates>
27.1897965,38.3768046,0
27.1898597,38.3767239,0
27.1899125,38.3766854,0
27.1899902,38.3766671,0
27.190072,38.3766752,0
</coordinates>
</LineString>
</Placemark>

<Placemark>
<name>TEK_AZU_Ataturk_Kurucesme_route_1 | Rota 1 | Adım 11 | Servis Edge 281 (94->93)</name>
<styleUrl>#service</styleUrl>
<LineString>
<tessellate>1</tessellate>
<coordinates>
27.190072,38.3766752,0
27.1905442,38.3764268,0
</coordinates>
</LineString>
</Placemark>

<Placemark>
<name>TEK_AZU_Ataturk_Kurucesme_route_1 | Rota 1 | Adım 12 | Travel 93->145</name>
<styleUrl>#travel</styleUrl>
<LineString>
<tessellate>1</tessellate>
<coordinates>
27.18983,38.37529,0
27.19054,38.37642,0
</coordinates>
</LineString>
</Placemark>

<Placemark>
<name>TEK_AZU_Ataturk_Kurucesme_route_1 | Rota 1 | Adım 12 | Travel 145->143</name>
<styleUrl>#travel</styleUrl>
<LineString>
<tessellate>1</tessellate>
<coordinates>
27.18983,38.37529,0
27.1894666,38.3746673,0
27.1892439,38.3743666,0
27.18903,38.37413,0
</coordinates>
</LineString>
</Placemark>

<Placemark>
<name>TEK_AZU_Ataturk_Kurucesme_route_1 | Rota 1 | Adım 12 | Travel 143->142</name>
<styleUrl>#travel</styleUrl>
<LineString>
<tessellate>1</tessellate>
<coordinates>
27.18903,38.37413,0
27.1888984,38.3739874,0
27.1888312,38.373914,0
27.18876,38.37385,0
</coordinates>
</LineString>
</Placemark>

<Placemark>
<name>TEK_AZU_Ataturk_Kurucesme_route_1 | Rota 1 | Adım 12 | Travel 142->155</name>
<styleUrl>#travel</styleUrl>
<LineString>
<tessellate>1</tessellate>
<coordinates>
27.1885891,38.3736462,0
27.1887614,38.3738374,0
27.18876,38.37385,0
</coordinates>
</LineString>
</Placemark>

<Placemark>
<name>TEK_AZU_Ataturk_Kurucesme_route_1 | Rota 1 | Adım 12 | Travel 155->140</name>
<styleUrl>#travel</styleUrl>
<LineString>
<tessellate>1</tessellate>
<coordinates>
27.1885891,38.3736462,0
27.1884745,38.3734992,0
</coordinates>
</LineString>
</Placemark>

<Placemark>
<name>TEK_AZU_Ataturk_Kurucesme_route_1 | Rota 1 | Adım 12 | Travel 140->63</name>
<styleUrl>#travel</styleUrl>
<LineString>
<tessellate>1</tessellate>
<coordinates>
27.1884745,38.3734992,0
27.18791,38.37275,0
</coordinates>
</LineString>
</Placemark>

<Placemark>
<name>TEK_AZU_Ataturk_Kurucesme_route_1 | Rota 1 | Adım 12 | Travel 63->239</name>
<styleUrl>#travel</styleUrl>
<LineString>
<tessellate>1</tessellate>
<coordinates>
27.18791,38.37275,0
27.1886211,38.3726431,0
</coordinates>
</LineString>
</Placemark>

<Placemark>
<name>TEK_AZU_Ataturk_Kurucesme_route_1 | Rota 1 | Adım 12 | Servis Edge 603 (239->319)</name>
<styleUrl>#service</styleUrl>
<LineString>
<tessellate>1</tessellate>
<coordinates>
27.1886211,38.3726431,0
27.1894308,38.3725928,0
27.1898988,38.3725508,0
27.1901952,38.3725082,0
27.1904724,38.3724412,0
</coordinates>
</LineString>
</Placemark>

<Placemark>
<name>TEK_AZU_Ataturk_Kurucesme_route_1 | Rota 1 | Adım 13 | Travel 319->318</name>
<styleUrl>#travel</styleUrl>
<LineString>
<tessellate>1</tessellate>
<coordinates>
27.1907788,38.3723874,0
27.1904724,38.3724412,0
</coordinates>
</LineString>
</Placemark>

<Placemark>
<name>TEK_AZU_Ataturk_Kurucesme_route_1 | Rota 1 | Adım 13 | Travel 318->392</name>
<styleUrl>#travel</styleUrl>
<LineString>
<tessellate>1</tessellate>
<coordinates>
27.1907788,38.3723874,0
27.1911572,38.3722752,0
</coordinates>
</LineString>
</Placemark>

<Placemark>
<name>TEK_AZU_Ataturk_Kurucesme_route_1 | Rota 1 | Adım 13 | Travel 392->391</name>
<styleUrl>#travel</styleUrl>
<LineString>
<tessellate>1</tessellate>
<coordinates>
27.1916028,38.3721771,0
27.1911572,38.3722752,0
</coordinates>
</LineString>
</Placemark>

<Placemark>
<name>TEK_AZU_Ataturk_Kurucesme_route_1 | Rota 1 | Adım 13 | Travel 391->305</name>
<styleUrl>#travel</styleUrl>
<LineString>
<tessellate>1</tessellate>
<coordinates>
27.1923723,38.3721617,0
27.1920247,38.3721412,0
27.1918564,38.372147,0
27.1916028,38.3721771,0
</coordinates>
</LineString>
</Placemark>

<Placemark>
<name>TEK_AZU_Ataturk_Kurucesme_route_1 | Rota 1 | Adım 13 | Travel 305->304</name>
<styleUrl>#travel</styleUrl>
<LineString>
<tessellate>1</tessellate>
<coordinates>
27.1930836,38.3722019,0
27.1923723,38.3721617,0
</coordinates>
</LineString>
</Placemark>

<Placemark>
<name>TEK_AZU_Ataturk_Kurucesme_route_1 | Rota 1 | Adım 13 | Servis Edge 410 (304->303)</name>
<styleUrl>#service</styleUrl>
<LineString>
<tessellate>1</tessellate>
<coordinates>
27.193272,38.3722172,0
27.1930836,38.3722019,0
</coordinates>
</LineString>
</Placemark>

<Placemark>
<name>TEK_AZU_Ataturk_Kurucesme_route_1 | Rota 1 | Adım 14 | Travel 303->301</name>
<styleUrl>#travel</styleUrl>
<LineString>
<tessellate>1</tessellate>
<coordinates>
27.1939287,38.3717595,0
27.1934735,38.3720196,0
27.193272,38.3722172,0
</coordinates>
</LineString>
</Placemark>

<Placemark>
<name>TEK_AZU_Ataturk_Kurucesme_route_1 | Rota 1 | Adım 14 | Travel 301->300</name>
<styleUrl>#travel</styleUrl>
<LineString>
<tessellate>1</tessellate>
<coordinates>
27.1942095,38.371591,0
27.1939287,38.3717595,0
</coordinates>
</LineString>
</Placemark>

<Placemark>
<name>TEK_AZU_Ataturk_Kurucesme_route_1 | Rota 1 | Adım 14 | Travel 300->299</name>
<styleUrl>#travel</styleUrl>
<LineString>
<tessellate>1</tessellate>
<coordinates>
27.1942095,38.371591,0
27.1942413,38.3714726,0
</coordinates>
</LineString>
</Placemark>

<Placemark>
<name>TEK_AZU_Ataturk_Kurucesme_route_1 | Rota 1 | Adım 14 | Travel 299->298</name>
<styleUrl>#travel</styleUrl>
<LineString>
<tessellate>1</tessellate>
<coordinates>
27.1943795,38.3710345,0
27.1942413,38.3714726,0
</coordinates>
</LineString>
</Placemark>

<Placemark>
<name>TEK_AZU_Ataturk_Kurucesme_route_1 | Rota 1 | Adım 14 | Travel 298->224</name>
<styleUrl>#travel</styleUrl>
<LineString>
<tessellate>1</tessellate>
<coordinates>
27.1950147,38.3711632,0
27.1943782,38.3710312,0
</coordinates>
</LineString>
</Placemark>

<Placemark>
<name>TEK_AZU_Ataturk_Kurucesme_route_1 | Rota 1 | Adım 14 | Travel 224->223</name>
<styleUrl>#travel</styleUrl>
<LineString>
<tessellate>1</tessellate>
<coordinates>
27.1950147,38.3711632,0
27.1951875,38.3706995,0
</coordinates>
</LineString>
</Placemark>

<Placemark>
<name>TEK_AZU_Ataturk_Kurucesme_route_1 | Rota 1 | Adım 14 | Travel 223->222</name>
<styleUrl>#travel</styleUrl>
<LineString>
<tessellate>1</tessellate>
<coordinates>
27.1951875,38.3706995,0
27.1952345,38.3705726,0
27.1953047,38.3704635,0
</coordinates>
</LineString>
</Placemark>

<Placemark>
<name>TEK_AZU_Ataturk_Kurucesme_route_1 | Rota 1 | Adım 14 | Travel 222->220</name>
<styleUrl>#travel</styleUrl>
<LineString>
<tessellate>1</tessellate>
<coordinates>
27.1953047,38.3704635,0
27.1953004,38.3704453,0
27.1952974,38.3704335,0
27.1953024,38.3703917,0
27.1953088,38.3703749,0
27.1953222,38.370351,0
27.1953416,38.3703292,0
27.1953681,38.370311,0
27.1953999,38.3702952,0
27.1954149,38.3702872,0
</coordinates>
</LineString>
</Placemark>

<Placemark>
<name>TEK_AZU_Ataturk_Kurucesme_route_1 | Rota 1 | Adım 14 | Travel 220->219</name>
<styleUrl>#travel</styleUrl>
<LineString>
<tessellate>1</tessellate>
<coordinates>
27.1954149,38.3702872,0
27.1954911,38.3701157,0
27.1956915,38.3698179,0
27.1958565,38.3694769,0
</coordinates>
</LineString>
</Placemark>

<Placemark>
<name>TEK_AZU_Ataturk_Kurucesme_route_1 | Rota 1 | Adım 14 | Travel 219->292</name>
<styleUrl>#travel</styleUrl>
<LineString>
<tessellate>1</tessellate>
<coordinates>
27.1958565,38.3694769,0
27.1946872,38.3692405,0
</coordinates>
</LineString>
</Placemark>

<Placemark>
<name>TEK_AZU_Ataturk_Kurucesme_route_1 | Rota 1 | Adım 14 | Travel 292->293</name>
<styleUrl>#travel</styleUrl>
<LineString>
<tessellate>1</tessellate>
<coordinates>
27.194522,38.3692078,0
27.1946872,38.3692405,0
</coordinates>
</LineString>
</Placemark>

<Placemark>
<name>TEK_AZU_Ataturk_Kurucesme_route_1 | Rota 1 | Adım 14 | Travel 293->378</name>
<styleUrl>#travel</styleUrl>
<LineString>
<tessellate>1</tessellate>
<coordinates>
27.1941069,38.3690691,0
27.194522,38.3692078,0
</coordinates>
</LineString>
</Placemark>

<Placemark>
<name>TEK_AZU_Ataturk_Kurucesme_route_1 | Rota 1 | Adım 14 | Travel 378->377</name>
<styleUrl>#travel</styleUrl>
<LineString>
<tessellate>1</tessellate>
<coordinates>
27.1941069,38.3690691,0
27.1935779,38.3689644,0
</coordinates>
</LineString>
</Placemark>

<Placemark>
<name>TEK_AZU_Ataturk_Kurucesme_route_1 | Rota 1 | Adım 14 | Travel 377->417</name>
<styleUrl>#travel</styleUrl>
<LineString>
<tessellate>1</tessellate>
<coordinates>
27.1934631,38.3689645,0
27.1935779,38.3689644,0
</coordinates>
</LineString>
</Placemark>

<Placemark>
<name>TEK_AZU_Ataturk_Kurucesme_route_1 | Rota 1 | Adım 14 | Servis Edge 492 (417->379)</name>
<styleUrl>#service</styleUrl>
<LineString>
<tessellate>1</tessellate>
<coordinates>
27.1933398,38.3695486,0
27.1934631,38.3689645,0
</coordinates>
</LineString>
</Placemark>

<Placemark>
<name>TEK_AZU_Ataturk_Kurucesme_route_1 | Rota 1 | Adım 15 | Travel 379->417</name>
<styleUrl>#travel</styleUrl>
<LineString>
<tessellate>1</tessellate>
<coordinates>
27.1934631,38.3689645,0
27.1933398,38.3695486,0
</coordinates>
</LineString>
</Placemark>

<Placemark>
<name>TEK_AZU_Ataturk_Kurucesme_route_1 | Rota 1 | Adım 15 | Travel 417->377</name>
<styleUrl>#travel</styleUrl>
<LineString>
<tessellate>1</tessellate>
<coordinates>
27.1935779,38.3689644,0
27.1934631,38.3689645,0
</coordinates>
</LineString>
</Placemark>

<Placemark>
<name>TEK_AZU_Ataturk_Kurucesme_route_1 | Rota 1 | Adım 15 | Travel 377->376</name>
<styleUrl>#travel</styleUrl>
<LineString>
<tessellate>1</tessellate>
<coordinates>
27.1939535,38.368147,0
27.1939317,38.3682926,0
27.1938056,38.3685649,0
27.1936727,38.3688224,0
27.1935779,38.3689644,0
</coordinates>
</LineString>
</Placemark>

<Placemark>
<name>TEK_AZU_Ataturk_Kurucesme_route_1 | Rota 1 | Adım 15 | Servis Edge 497 (376->375)</name>
<styleUrl>#service</styleUrl>
<LineString>
<tessellate>1</tessellate>
<coordinates>
27.1951435,38.3679266,0
27.1946797,38.3679995,0
27.1939535,38.368147,0
</coordinates>
</LineString>
</Placemark>

<Placemark>
<name>TEK_AZU_Ataturk_Kurucesme_route_1 | Rota 1 | Adım 16 | Servis Edge 498 (375->290)</name>
<styleUrl>#service</styleUrl>
<LineString>
<tessellate>1</tessellate>
<coordinates>
27.1953321,38.3679216,0
27.1951435,38.3679266,0
</coordinates>
</LineString>
</Placemark>

<Placemark>
<name>TEK_AZU_Ataturk_Kurucesme_route_1 | Rota 1 | Adım 17 | Travel 290->289</name>
<styleUrl>#travel</styleUrl>
<LineString>
<tessellate>1</tessellate>
<coordinates>
27.1964399,38.3680122,0
27.1957935,38.3679238,0
27.1953321,38.3679216,0
</coordinates>
</LineString>
</Placemark>

<Placemark>
<name>TEK_AZU_Ataturk_Kurucesme_route_1 | Rota 1 | Adım 17 | Travel 289->217</name>
<styleUrl>#travel</styleUrl>
<LineString>
<tessellate>1</tessellate>
<coordinates>
27.1968124,38.3682279,0
27.1964399,38.3680122,0
</coordinates>
</LineString>
</Placemark>

<Placemark>
<name>TEK_AZU_Ataturk_Kurucesme_route_1 | Rota 1 | Adım 17 | Servis Edge 552 (217->216)</name>
<styleUrl>#service</styleUrl>
<LineString>
<tessellate>1</tessellate>
<coordinates>
27.197831,38.3664513,0
27.1982906,38.3668385,0
27.1980297,38.3670403,0
27.1977341,38.3672539,0
27.1973567,38.3675989,0
27.1968124,38.3682279,0
</coordinates>
</LineString>
</Placemark>

<Placemark>
<name>TEK_AZU_Ataturk_Kurucesme_route_1 | Rota 1 | Adım 18 | Travel 216->285</name>
<styleUrl>#travel</styleUrl>
<LineString>
<tessellate>1</tessellate>
<coordinates>
27.1975113,38.3667139,0
27.197831,38.3664513,0
</coordinates>
</LineString>
</Placemark>

<Placemark>
<name>TEK_AZU_Ataturk_Kurucesme_route_1 | Rota 1 | Adım 18 | Travel 285->286</name>
<styleUrl>#travel</styleUrl>
<LineString>
<tessellate>1</tessellate>
<coordinates>
27.1973929,38.3668142,0
27.1975113,38.3667139,0
</coordinates>
</LineString>
</Placemark>

<Placemark>
<name>TEK_AZU_Ataturk_Kurucesme_route_1 | Rota 1 | Adım 18 | Travel 286->287</name>
<styleUrl>#travel</styleUrl>
<LineString>
<tessellate>1</tessellate>
<coordinates>
27.1967558,38.3672805,0
27.1968517,38.3672911,0
27.1973929,38.3668142,0
</coordinates>
</LineString>
</Placemark>

<Placemark>
<name>TEK_AZU_Ataturk_Kurucesme_route_1 | Rota 1 | Adım 18 | Travel 287->288</name>
<styleUrl>#travel</styleUrl>
<LineString>
<tessellate>1</tessellate>
<coordinates>
27.1964923,38.3674799,0
27.1967558,38.3672805,0
</coordinates>
</LineString>
</Placemark>

<Placemark>
<name>TEK_AZU_Ataturk_Kurucesme_route_1 | Rota 1 | Adım 18 | Travel 288->371</name>
<styleUrl>#travel</styleUrl>
<LineString>
<tessellate>1</tessellate>
<coordinates>
27.1961103,38.3669815,0
27.1964923,38.3674799,0
</coordinates>
</LineString>
</Placemark>

<Placemark>
<name>TEK_AZU_Ataturk_Kurucesme_route_1 | Rota 1 | Adım 18 | Travel 371->372</name>
<styleUrl>#travel</styleUrl>
<LineString>
<tessellate>1</tessellate>
<coordinates>
27.1958813,38.366736,0
27.1961103,38.3669815,0
</coordinates>
</LineString>
</Placemark>

<Placemark>
<name>TEK_AZU_Ataturk_Kurucesme_route_1 | Rota 1 | Adım 18 | Travel 372->373</name>
<styleUrl>#travel</styleUrl>
<LineString>
<tessellate>1</tessellate>
<coordinates>
27.195299,38.3667084,0
27.1956218,38.3667419,0
27.1958813,38.366736,0
</coordinates>
</LineString>
</Placemark>

<Placemark>
<name>TEK_AZU_Ataturk_Kurucesme_route_1 | Rota 1 | Adım 18 | Travel 373->363</name>
<styleUrl>#travel</styleUrl>
<LineString>
<tessellate>1</tessellate>
<coordinates>
27.195299,38.3667084,0
27.1949985,38.3666759,0
</coordinates>
</LineString>
</Placemark>

<Placemark>
<name>TEK_AZU_Ataturk_Kurucesme_route_1 | Rota 1 | Adım 18 | Travel 363->362</name>
<styleUrl>#travel</styleUrl>
<LineString>
<tessellate>1</tessellate>
<coordinates>
27.1949985,38.3666759,0
27.1949096,38.3666688,0
27.1947001,38.3666816,0
27.1944016,38.3667041,0
</coordinates>
</LineString>
</Placemark>

<Placemark>
<name>TEK_AZU_Ataturk_Kurucesme_route_1 | Rota 1 | Adım 18 | Travel 362->361</name>
<styleUrl>#travel</styleUrl>
<LineString>
<tessellate>1</tessellate>
<coordinates>
27.1944016,38.3667041,0
27.1938364,38.3669421,0
</coordinates>
</LineString>
</Placemark>

<Placemark>
<name>TEK_AZU_Ataturk_Kurucesme_route_1 | Rota 1 | Adım 18 | Travel 361->360</name>
<styleUrl>#travel</styleUrl>
<LineString>
<tessellate>1</tessellate>
<coordinates>
27.1938364,38.3669421,0
27.1932668,38.3672133,0
</coordinates>
</LineString>
</Placemark>

<Placemark>
<name>TEK_AZU_Ataturk_Kurucesme_route_1 | Rota 1 | Adım 18 | Travel 360->359</name>
<styleUrl>#travel</styleUrl>
<LineString>
<tessellate>1</tessellate>
<coordinates>
27.1930366,38.3673984,0
27.1932668,38.3672133,0
</coordinates>
</LineString>
</Placemark>

<Placemark>
<name>TEK_AZU_Ataturk_Kurucesme_route_1 | Rota 1 | Adım 18 | Servis Edge 576 (359->358)</name>
<styleUrl>#service</styleUrl>
<LineString>
<tessellate>1</tessellate>
<coordinates>
27.1930366,38.3673984,0
27.1928936,38.3675453,0
27.1926219,38.3678308,0
</coordinates>
</LineString>
</Placemark>

<Placemark>
<name>TEK_AZU_Ataturk_Kurucesme_route_1 | Rota 1 | Adım 19 | Travel 358->414</name>
<styleUrl>#travel</styleUrl>
<LineString>
<tessellate>1</tessellate>
<coordinates>
27.1926219,38.3678308,0
27.192884,38.3679674,0
</coordinates>
</LineString>
</Placemark>

<Placemark>
<name>TEK_AZU_Ataturk_Kurucesme_route_1 | Rota 1 | Adım 19 | Travel 414->413</name>
<styleUrl>#travel</styleUrl>
<LineString>
<tessellate>1</tessellate>
<coordinates>
27.192884,38.3679674,0
27.1925862,38.3681519,0
27.1921633,38.3683595,0
</coordinates>
</LineString>
</Placemark>

<Placemark>
<name>TEK_AZU_Ataturk_Kurucesme_route_1 | Rota 1 | Adım 19 | Travel 413->426</name>
<styleUrl>#travel</styleUrl>
<LineString>
<tessellate>1</tessellate>
<coordinates>
27.1906582,38.3688202,0
27.1908208,38.3688013,0
27.1910521,38.3687519,0
27.1911386,38.368725,0
27.1913874,38.3686362,0
27.1915771,38.3685542,0
27.1920921,38.3683765,0
27.1921633,38.3683595,0
</coordinates>
</LineString>
</Placemark>

<Placemark>
<name>TEK_AZU_Ataturk_Kurucesme_route_1 | Rota 1 | Adım 19 | Travel 426->423</name>
<styleUrl>#travel</styleUrl>
<LineString>
<tessellate>1</tessellate>
<coordinates>
27.1907015,38.3691075,0
27.1906582,38.3688202,0
</coordinates>
</LineString>
</Placemark>

<Placemark>
<name>TEK_AZU_Ataturk_Kurucesme_route_1 | Rota 1 | Adım 19 | Travel 423->421</name>
<styleUrl>#travel</styleUrl>
<LineString>
<tessellate>1</tessellate>
<coordinates>
27.1907015,38.3691075,0
27.1905834,38.3691305,0
27.1898779,38.3692055,0
</coordinates>
</LineString>
</Placemark>

<Placemark>
<name>TEK_AZU_Ataturk_Kurucesme_route_1 | Rota 1 | Adım 19 | Travel 421->422</name>
<styleUrl>#travel</styleUrl>
<LineString>
<tessellate>1</tessellate>
<coordinates>
27.1899296,38.3693914,0
27.1898779,38.3692055,0
</coordinates>
</LineString>
</Placemark>

<Placemark>
<name>TEK_AZU_Ataturk_Kurucesme_route_1 | Rota 1 | Adım 19 | Travel 422->333</name>
<styleUrl>#travel</styleUrl>
<LineString>
<tessellate>1</tessellate>
<coordinates>
27.1899296,38.3693914,0
27.1899871,38.3698061,0
</coordinates>
</LineString>
</Placemark>

<Placemark>
<name>TEK_AZU_Ataturk_Kurucesme_route_1 | Rota 1 | Adım 19 | Servis Edge 645 (333->435)</name>
<styleUrl>#service</styleUrl>
<LineString>
<tessellate>1</tessellate>
<coordinates>
27.1899869,38.3697981,0
27.1899871,38.3698061,0
27.1906633,38.3697984,0
27.1918499,38.3698285,0
27.1928665,38.3698343,0
</coordinates>
</LineString>
</Placemark>

<Placemark>
<name>TEK_AZU_Ataturk_Kurucesme_route_1 | Rota 1 | Adım 20 | Servis Edge 591 (435->380)</name>
<styleUrl>#service</styleUrl>
<LineString>
<tessellate>1</tessellate>
<coordinates>
27.1928665,38.3698343,0
27.1931849,38.3698567,0
27.1932836,38.3698895,0
</coordinates>
</LineString>
</Placemark>

<Placemark>
<name>TEK_AZU_Ataturk_Kurucesme_route_1 | Rota 1 | Adım 21 | Travel 380->294</name>
<styleUrl>#travel</styleUrl>
<LineString>
<tessellate>1</tessellate>
<coordinates>
27.1932836,38.3698895,0
27.1934951,38.3699413,0
27.1941147,38.3700212,0
</coordinates>
</LineString>
</Placemark>

<Placemark>
<name>TEK_AZU_Ataturk_Kurucesme_route_1 | Rota 1 | Adım 21 | Travel 294->220</name>
<styleUrl>#travel</styleUrl>
<LineString>
<tessellate>1</tessellate>
<coordinates>
27.1941147,38.3700212,0
27.1950317,38.3702754,0
27.1953421,38.3703227,0
27.1953673,38.3703091,0
27.1953891,38.3702983,0
27.1954149,38.3702872,0
</coordinates>
</LineString>
</Placemark>

<Placemark>
<name>TEK_AZU_Ataturk_Kurucesme_route_1 | Rota 1 | Adım 21 | Travel 220->221</name>
<styleUrl>#travel</styleUrl>
<LineString>
<tessellate>1</tessellate>
<coordinates>
27.1954149,38.3702872,0
27.1954876,38.3702755,0
27.1955513,38.370286,0
27.1955711,38.3702923,0
27.1956036,38.3703083,0
27.1956345,38.3703338,0
27.1956687,38.3703806,0
27.1956729,38.3704439,0
27.1956615,38.3704793,0
27.19564,38.3705085,0
27.1956172,38.3705301,0
27.195564,38.3705649,0
</coordinates>
</LineString>
</Placemark>

<Placemark>
<name>TEK_AZU_Ataturk_Kurucesme_route_1 | Rota 1 | Adım 21 | Travel 221->222</name>
<styleUrl>#travel</styleUrl>
<LineString>
<tessellate>1</tessellate>
<coordinates>
27.195564,38.3705649,0
27.1955399,38.3705659,0
27.1955154,38.3705698,0
27.1954899,38.3705698,0
27.1954644,38.3705698,0
27.1954158,38.3705593,0
27.1953927,38.3705525,0
27.1953645,38.3705341,0
27.1953474,38.3705235,0
27.1953317,38.3705096,0
27.1953142,38.3704875,0
27.1953047,38.3704635,0
</coordinates>
</LineString>
</Placemark>

<Placemark>
<name>TEK_AZU_Ataturk_Kurucesme_route_1 | Rota 1 | Adım 21 | Travel 222->295</name>
<styleUrl>#travel</styleUrl>
<LineString>
<tessellate>1</tessellate>
<coordinates>
27.1940939,38.3700976,0
27.1952926,38.3704221,0
27.1953047,38.3704635,0
</coordinates>
</LineString>
</Placemark>

<Placemark>
<name>TEK_AZU_Ataturk_Kurucesme_route_1 | Rota 1 | Adım 21 | Travel 295->296</name>
<styleUrl>#travel</styleUrl>
<LineString>
<tessellate>1</tessellate>
<coordinates>
27.1940191,38.3703876,0
27.1940939,38.3700976,0
</coordinates>
</LineString>
</Placemark>

<Placemark>
<name>TEK_AZU_Ataturk_Kurucesme_route_1 | Rota 1 | Adım 21 | Travel 296->297</name>
<styleUrl>#travel</styleUrl>
<LineString>
<tessellate>1</tessellate>
<coordinates>
27.1937698,38.3708804,0
27.1940191,38.3703876,0
</coordinates>
</LineString>
</Placemark>

<Placemark>
<name>TEK_AZU_Ataturk_Kurucesme_route_1 | Rota 1 | Adım 21 | Travel 297->433</name>
<styleUrl>#travel</styleUrl>
<LineString>
<tessellate>1</tessellate>
<coordinates>
27.1935796,38.3713,0
27.1937698,38.3708804,0
</coordinates>
</LineString>
</Placemark>

<Placemark>
<name>TEK_AZU_Ataturk_Kurucesme_route_1 | Rota 1 | Adım 21 | Travel 433->432</name>
<styleUrl>#travel</styleUrl>
<LineString>
<tessellate>1</tessellate>
<coordinates>
27.1935796,38.3713,0
27.1934038,38.3712677,0
</coordinates>
</LineString>
</Placemark>

<Placemark>
<name>TEK_AZU_Ataturk_Kurucesme_route_1 | Rota 1 | Adım 21 | Travel 432->431</name>
<styleUrl>#travel</styleUrl>
<LineString>
<tessellate>1</tessellate>
<coordinates>
27.1934038,38.3712677,0
27.1932693,38.3714909,0
</coordinates>
</LineString>
</Placemark>

<Placemark>
<name>TEK_AZU_Ataturk_Kurucesme_route_1 | Rota 1 | Adım 21 | Travel 431->387</name>
<styleUrl>#travel</styleUrl>
<LineString>
<tessellate>1</tessellate>
<coordinates>
27.1932693,38.3714909,0
27.1931707,38.3716679,0
27.1931398,38.3717015,0
27.1930406,38.3717709,0
27.1929382,38.3718764,0
</coordinates>
</LineString>
</Placemark>

<Placemark>
<name>TEK_AZU_Ataturk_Kurucesme_route_1 | Rota 1 | Adım 21 | Travel 387->304</name>
<styleUrl>#travel</styleUrl>
<LineString>
<tessellate>1</tessellate>
<coordinates>
27.1930836,38.3722019,0
27.1929382,38.3718764,0
</coordinates>
</LineString>
</Placemark>

<Placemark>
<name>TEK_AZU_Ataturk_Kurucesme_route_1 | Rota 1 | Adım 21 | Travel 304->305</name>
<styleUrl>#travel</styleUrl>
<LineString>
<tessellate>1</tessellate>
<coordinates>
27.1923723,38.3721617,0
27.1930836,38.3722019,0
</coordinates>
</LineString>
</Placemark>

<Placemark>
<name>TEK_AZU_Ataturk_Kurucesme_route_1 | Rota 1 | Adım 21 | Servis Edge 606 (305->391)</name>
<styleUrl>#service</styleUrl>
<LineString>
<tessellate>1</tessellate>
<coordinates>
27.1916028,38.3721771,0
27.1918564,38.372147,0
27.1920247,38.3721412,0
27.1923723,38.3721617,0
</coordinates>
</LineString>
</Placemark>

<Placemark>
<name>TEK_AZU_Ataturk_Kurucesme_route_1 | Rota 1 | Adım 22 | Travel 391->392</name>
<styleUrl>#travel</styleUrl>
<LineString>
<tessellate>1</tessellate>
<coordinates>
27.1911572,38.3722752,0
27.1916028,38.3721771,0
</coordinates>
</LineString>
</Placemark>

<Placemark>
<name>TEK_AZU_Ataturk_Kurucesme_route_1 | Rota 1 | Adım 22 | Travel 392->318</name>
<styleUrl>#travel</styleUrl>
<LineString>
<tessellate>1</tessellate>
<coordinates>
27.1911572,38.3722752,0
27.1907788,38.3723874,0
</coordinates>
</LineString>
</Placemark>

<Placemark>
<name>TEK_AZU_Ataturk_Kurucesme_route_1 | Rota 1 | Adım 22 | Travel 318->317</name>
<styleUrl>#travel</styleUrl>
<LineString>
<tessellate>1</tessellate>
<coordinates>
27.1907788,38.3723874,0
27.1908645,38.3728826,0
</coordinates>
</LineString>
</Placemark>

<Placemark>
<name>TEK_AZU_Ataturk_Kurucesme_route_1 | Rota 1 | Adım 22 | Travel 317->316</name>
<styleUrl>#travel</styleUrl>
<LineString>
<tessellate>1</tessellate>
<coordinates>
27.1908645,38.3728826,0
27.1909014,38.3731472,0
</coordinates>
</LineString>
</Placemark>

<Placemark>
<name>TEK_AZU_Ataturk_Kurucesme_route_1 | Rota 1 | Adım 22 | Travel 316->393</name>
<styleUrl>#travel</styleUrl>
<LineString>
<tessellate>1</tessellate>
<coordinates>
27.190902,38.3732095,0
27.1909014,38.3731472,0
</coordinates>
</LineString>
</Placemark>

<Placemark>
<name>TEK_AZU_Ataturk_Kurucesme_route_1 | Rota 1 | Adım 22 | Travel 393->394</name>
<styleUrl>#travel</styleUrl>
<LineString>
<tessellate>1</tessellate>
<coordinates>
27.1909069,38.3735748,0
27.190902,38.3732095,0
</coordinates>
</LineString>
</Placemark>

<Placemark>
<name>TEK_AZU_Ataturk_Kurucesme_route_1 | Rota 1 | Adım 22 | Travel 394->395</name>
<styleUrl>#travel</styleUrl>
<LineString>
<tessellate>1</tessellate>
<coordinates>
27.1909069,38.3735748,0
27.1909478,38.3739445,0
27.1910047,38.3743078,0
</coordinates>
</LineString>
</Placemark>

<Placemark>
<name>TEK_AZU_Ataturk_Kurucesme_route_1 | Rota 1 | Adım 22 | Travel 395->313</name>
<styleUrl>#travel</styleUrl>
<LineString>
<tessellate>1</tessellate>
<coordinates>
27.1910047,38.3743078,0
27.1908748,38.3743479,0
27.1907569,38.3743922,0
27.1904977,38.3745089,0
</coordinates>
</LineString>
</Placemark>

<Placemark>
<name>TEK_AZU_Ataturk_Kurucesme_route_1 | Rota 1 | Adım 22 | Travel 313->312</name>
<styleUrl>#travel</styleUrl>
<LineString>
<tessellate>1</tessellate>
<coordinates>
27.1906826,38.3749247,0
27.1904977,38.3745089,0
</coordinates>
</LineString>
</Placemark>

<Placemark>
<name>TEK_AZU_Ataturk_Kurucesme_route_1 | Rota 1 | Adım 22 | Travel 312->236</name>
<styleUrl>#travel</styleUrl>
<LineString>
<tessellate>1</tessellate>
<coordinates>
27.1906826,38.3749247,0
27.1903816,38.3749991,0
</coordinates>
</LineString>
</Placemark>

<Placemark>
<name>TEK_AZU_Ataturk_Kurucesme_route_1 | Rota 1 | Adım 22 | Travel 236->235</name>
<styleUrl>#travel</styleUrl>
<LineString>
<tessellate>1</tessellate>
<coordinates>
27.1903816,38.3749991,0
27.1902636,38.375049,0
</coordinates>
</LineString>
</Placemark>

<Placemark>
<name>TEK_AZU_Ataturk_Kurucesme_route_1 | Rota 1 | Adım 22 | Travel 235->234</name>
<styleUrl>#travel</styleUrl>
<LineString>
<tessellate>1</tessellate>
<coordinates>
27.1904429,38.375328,0
27.1902636,38.375049,0
</coordinates>
</LineString>
</Placemark>

<Placemark>
<name>TEK_AZU_Ataturk_Kurucesme_route_1 | Rota 1 | Adım 22 | Travel 234->233</name>
<styleUrl>#travel</styleUrl>
<LineString>
<tessellate>1</tessellate>
<coordinates>
27.1909492,38.3762262,0
27.1908156,38.3760035,0
27.19069,38.3757782,0
27.1904429,38.375328,0
</coordinates>
</LineString>
</Placemark>

<Placemark>
<name>TEK_AZU_Ataturk_Kurucesme_route_1 | Rota 1 | Adım 22 | Servis Edge 609 (233->232)</name>
<styleUrl>#service</styleUrl>
<LineString>
<tessellate>1</tessellate>
<coordinates>
27.1909492,38.3762262,0
27.1911615,38.3761205,0
27.1912705,38.376055,0
27.1913795,38.3759801,0
27.1914996,38.3759037,0
27.1915422,38.3758773,0
27.1916109,38.3758225,0
</coordinates>
</LineString>
</Placemark>

<Placemark>
<name>TEK_AZU_Ataturk_Kurucesme_route_1 | Rota 1 | Adım 23 | Travel 232->231</name>
<styleUrl>#travel</styleUrl>
<LineString>
<tessellate>1</tessellate>
<coordinates>
27.1916109,38.3758225,0
27.191732,38.3756458,0
27.1919134,38.3754144,0
</coordinates>
</LineString>
</Placemark>

<Placemark>
<name>TEK_AZU_Ataturk_Kurucesme_route_1 | Rota 1 | Adım 23 | Travel 231->230</name>
<styleUrl>#travel</styleUrl>
<LineString>
<tessellate>1</tessellate>
<coordinates>
27.1919134,38.3754144,0
27.1921118,38.3751886,0
</coordinates>
</LineString>
</Placemark>

<Placemark>
<name>TEK_AZU_Ataturk_Kurucesme_route_1 | Rota 1 | Adım 23 | Travel 230->229</name>
<styleUrl>#travel</styleUrl>
<LineString>
<tessellate>1</tessellate>
<coordinates>
27.1921118,38.3751886,0
27.1924182,38.3748001,0
</coordinates>
</LineString>
</Placemark>

<Placemark>
<name>TEK_AZU_Ataturk_Kurucesme_route_1 | Rota 1 | Adım 23 | Travel 229->228</name>
<styleUrl>#travel</styleUrl>
<LineString>
<tessellate>1</tessellate>
<coordinates>
27.1924182,38.3748001,0
27.1926993,38.3744204,0
</coordinates>
</LineString>
</Placemark>

<Placemark>
<name>TEK_AZU_Ataturk_Kurucesme_route_1 | Rota 1 | Adım 23 | Servis Edge 616 (228->227)</name>
<styleUrl>#service</styleUrl>
<LineString>
<tessellate>1</tessellate>
<coordinates>
27.1927222,38.3744048,0
27.1934267,38.3734856,0
27.194115,38.3726168,0
</coordinates>
</LineString>
</Placemark>

<Placemark>
<name>TEK_AZU_Ataturk_Kurucesme_route_1 | Rota 1 | Adım 24 | Travel 227->302</name>
<styleUrl>#travel</styleUrl>
<LineString>
<tessellate>1</tessellate>
<coordinates>
27.1939465,38.3722495,0
27.1940138,38.3722963,0
27.1941005,38.3723883,0
27.194133,38.3724676,0
27.1941295,38.3725363,0
27.194115,38.3726168,0
</coordinates>
</LineString>
</Placemark>

<Placemark>
<name>TEK_AZU_Ataturk_Kurucesme_route_1 | Rota 1 | Adım 24 | Servis Edge 633 (302->226)</name>
<styleUrl>#service</styleUrl>
<LineString>
<tessellate>1</tessellate>
<coordinates>
27.1939465,38.3722495,0
27.1940756,38.372271,0
27.1942071,38.3722844,0
27.1943029,38.3722833,0
27.1943937,38.3722698,0
</coordinates>
</LineString>
</Placemark>

<Placemark>
<name>TEK_AZU_Ataturk_Kurucesme_route_1 | Rota 1 | Adım 25 | Travel 226->222</name>
<styleUrl>#travel</styleUrl>
<LineString>
<tessellate>1</tessellate>
<coordinates>
27.1943937,38.3722698,0
27.1945495,38.3720926,0
27.194646,38.3719412,0
27.1948311,38.3715985,0
27.1950376,38.3711001,0
27.1953047,38.3704635,0
</coordinates>
</LineString>
</Placemark>

<Placemark>
<name>TEK_AZU_Ataturk_Kurucesme_route_1 | Rota 1 | Adım 25 | Travel 222->220</name>
<styleUrl>#travel</styleUrl>
<LineString>
<tessellate>1</tessellate>
<coordinates>
27.1953047,38.3704635,0
27.1953004,38.3704453,0
27.1952974,38.3704335,0
27.1953024,38.3703917,0
27.1953088,38.3703749,0
27.1953222,38.370351,0
27.1953416,38.3703292,0
27.1953681,38.370311,0
27.1953999,38.3702952,0
27.1954149,38.3702872,0
</coordinates>
</LineString>
</Placemark>

<Placemark>
<name>TEK_AZU_Ataturk_Kurucesme_route_1 | Rota 1 | Adım 25 | Travel 220->219</name>
<styleUrl>#travel</styleUrl>
<LineString>
<tessellate>1</tessellate>
<coordinates>
27.1954149,38.3702872,0
27.1954911,38.3701157,0
27.1956915,38.3698179,0
27.1958565,38.3694769,0
</coordinates>
</LineString>
</Placemark>

<Placemark>
<name>TEK_AZU_Ataturk_Kurucesme_route_1 | Rota 1 | Adım 25 | Servis Edge 619 (219->218)</name>
<styleUrl>#service</styleUrl>
<LineString>
<tessellate>1</tessellate>
<coordinates>
27.1958565,38.3694769,0
27.1960224,38.3692281,0
27.1962407,38.368953,0
27.1966503,38.3684406,0
</coordinates>
</LineString>
</Placemark>

<Placemark>
<name>TEK_AZU_Ataturk_Kurucesme_route_1 | Rota 1 | Adım 26 | Travel 218->291</name>
<styleUrl>#travel</styleUrl>
<LineString>
<tessellate>1</tessellate>
<coordinates>
27.1952217,38.3681477,0
27.1959615,38.3682949,0
27.1964886,38.3684,0
27.1966503,38.3684406,0
</coordinates>
</LineString>
</Placemark>

<Placemark>
<name>TEK_AZU_Ataturk_Kurucesme_route_1 | Rota 1 | Adım 26 | Travel 291->292</name>
<styleUrl>#travel</styleUrl>
<LineString>
<tessellate>1</tessellate>
<coordinates>
27.1952217,38.3681477,0
27.1950455,38.368509,0
27.1948077,38.3689642,0
27.1946872,38.3692405,0
</coordinates>
</LineString>
</Placemark>

<Placemark>
<name>TEK_AZU_Ataturk_Kurucesme_route_1 | Rota 1 | Adım 26 | Travel 292->293</name>
<styleUrl>#travel</styleUrl>
<LineString>
<tessellate>1</tessellate>
<coordinates>
27.194522,38.3692078,0
27.1946872,38.3692405,0
</coordinates>
</LineString>
</Placemark>

<Placemark>
<name>TEK_AZU_Ataturk_Kurucesme_route_1 | Rota 1 | Adım 26 | Travel 293->294</name>
<styleUrl>#travel</styleUrl>
<LineString>
<tessellate>1</tessellate>
<coordinates>
27.1941147,38.3700212,0
27.1942487,38.3697612,0
27.1944158,38.369446,0
27.194522,38.3692078,0
</coordinates>
</LineString>
</Placemark>

<Placemark>
<name>TEK_AZU_Ataturk_Kurucesme_route_1 | Rota 1 | Adım 26 | Servis Edge 624 (294->220)</name>
<styleUrl>#service</styleUrl>
<LineString>
<tessellate>1</tessellate>
<coordinates>
27.1941147,38.3700212,0
27.1950317,38.3702754,0
27.1953421,38.3703227,0
27.1953673,38.3703091,0
27.1953891,38.3702983,0
27.1954149,38.3702872,0
</coordinates>
</LineString>
</Placemark>

<Placemark>
<name>TEK_AZU_Ataturk_Kurucesme_route_1 | Rota 1 | Adım 27 | Travel 220->219</name>
<styleUrl>#travel</styleUrl>
<LineString>
<tessellate>1</tessellate>
<coordinates>
27.1954149,38.3702872,0
27.1954911,38.3701157,0
27.1956915,38.3698179,0
27.1958565,38.3694769,0
</coordinates>
</LineString>
</Placemark>

<Placemark>
<name>TEK_AZU_Ataturk_Kurucesme_route_1 | Rota 1 | Adım 27 | Travel 219->292</name>
<styleUrl>#travel</styleUrl>
<LineString>
<tessellate>1</tessellate>
<coordinates>
27.1958565,38.3694769,0
27.1946872,38.3692405,0
</coordinates>
</LineString>
</Placemark>

<Placemark>
<name>TEK_AZU_Ataturk_Kurucesme_route_1 | Rota 1 | Adım 27 | Travel 292->293</name>
<styleUrl>#travel</styleUrl>
<LineString>
<tessellate>1</tessellate>
<coordinates>
27.194522,38.3692078,0
27.1946872,38.3692405,0
</coordinates>
</LineString>
</Placemark>

<Placemark>
<name>TEK_AZU_Ataturk_Kurucesme_route_1 | Rota 1 | Adım 27 | Travel 293->378</name>
<styleUrl>#travel</styleUrl>
<LineString>
<tessellate>1</tessellate>
<coordinates>
27.1941069,38.3690691,0
27.194522,38.3692078,0
</coordinates>
</LineString>
</Placemark>

<Placemark>
<name>TEK_AZU_Ataturk_Kurucesme_route_1 | Rota 1 | Adım 27 | Travel 378->377</name>
<styleUrl>#travel</styleUrl>
<LineString>
<tessellate>1</tessellate>
<coordinates>
27.1941069,38.3690691,0
27.1935779,38.3689644,0
</coordinates>
</LineString>
</Placemark>

<Placemark>
<name>TEK_AZU_Ataturk_Kurucesme_route_1 | Rota 1 | Adım 27 | Travel 377->417</name>
<styleUrl>#travel</styleUrl>
<LineString>
<tessellate>1</tessellate>
<coordinates>
27.1934631,38.3689645,0
27.1935779,38.3689644,0
</coordinates>
</LineString>
</Placemark>

<Placemark>
<name>TEK_AZU_Ataturk_Kurucesme_route_1 | Rota 1 | Adım 27 | Travel 417->416</name>
<styleUrl>#travel</styleUrl>
<LineString>
<tessellate>1</tessellate>
<coordinates>
27.1934631,38.3689645,0
27.1934391,38.3689081,0
</coordinates>
</LineString>
</Placemark>

<Placemark>
<name>TEK_AZU_Ataturk_Kurucesme_route_1 | Rota 1 | Adım 27 | Travel 416->418</name>
<styleUrl>#travel</styleUrl>
<LineString>
<tessellate>1</tessellate>
<coordinates>
27.1926278,38.3690486,0
27.1934391,38.3689081,0
</coordinates>
</LineString>
</Placemark>

<Placemark>
<name>TEK_AZU_Ataturk_Kurucesme_route_1 | Rota 1 | Adım 27 | Travel 418->425</name>
<styleUrl>#travel</styleUrl>
<LineString>
<tessellate>1</tessellate>
<coordinates>
27.1925811,38.3688718,0
27.1926278,38.3690486,0
</coordinates>
</LineString>
</Placemark>

<Placemark>
<name>TEK_AZU_Ataturk_Kurucesme_route_1 | Rota 1 | Adım 27 | Travel 425->424</name>
<styleUrl>#travel</styleUrl>
<LineString>
<tessellate>1</tessellate>
<coordinates>
27.1925811,38.3688718,0
27.1919922,38.3689603,0
27.1917682,38.3689834,0
27.1914494,38.3690218,0
27.1907592,38.3690815,0
</coordinates>
</LineString>
</Placemark>

<Placemark>
<name>TEK_AZU_Ataturk_Kurucesme_route_1 | Rota 1 | Adım 27 | Travel 424->423</name>
<styleUrl>#travel</styleUrl>
<LineString>
<tessellate>1</tessellate>
<coordinates>
27.1907592,38.3690815,0
27.1907015,38.3691075,0
</coordinates>
</LineString>
</Placemark>

<Placemark>
<name>TEK_AZU_Ataturk_Kurucesme_route_1 | Rota 1 | Adım 27 | Travel 423->421</name>
<styleUrl>#travel</styleUrl>
<LineString>
<tessellate>1</tessellate>
<coordinates>
27.1907015,38.3691075,0
27.1905834,38.3691305,0
27.1898779,38.3692055,0
</coordinates>
</LineString>
</Placemark>

<Placemark>
<name>TEK_AZU_Ataturk_Kurucesme_route_1 | Rota 1 | Adım 27 | Travel 421->438</name>
<styleUrl>#travel</styleUrl>
<LineString>
<tessellate>1</tessellate>
<coordinates>
27.1898779,38.3692055,0
27.1897909,38.3687934,0
</coordinates>
</LineString>
</Placemark>

<Placemark>
<name>TEK_AZU_Ataturk_Kurucesme_route_1 | Rota 1 | Adım 27 | Servis Edge 651 (438->407)</name>
<styleUrl>#service</styleUrl>
<LineString>
<tessellate>1</tessellate>
<coordinates>
27.1897909,38.3687934,0
27.1881757,38.368877,0
</coordinates>
</LineString>
</Placemark>

<Placemark>
<name>TEK_AZU_Ataturk_Kurucesme_route_1 | Rota 1 | Adım 28 | Travel 407->404</name>
<styleUrl>#travel</styleUrl>
<LineString>
<tessellate>1</tessellate>
<coordinates>
27.1881757,38.368877,0
27.1872732,38.3688782,0
</coordinates>
</LineString>
</Placemark>

<Placemark>
<name>TEK_AZU_Ataturk_Kurucesme_route_1 | Rota 1 | Adım 28 | Travel 404->403</name>
<styleUrl>#travel</styleUrl>
<LineString>
<tessellate>1</tessellate>
<coordinates>
27.1872732,38.3688782,0
27.1872028,38.3688781,0
</coordinates>
</LineString>
</Placemark>

<Placemark>
<name>TEK_AZU_Ataturk_Kurucesme_route_1 | Rota 1 | Adım 28 | Travel 403->343</name>
<styleUrl>#travel</styleUrl>
<LineString>
<tessellate>1</tessellate>
<coordinates>
27.1872028,38.3688781,0
27.1870466,38.3688768,0
27.1853911,38.3687866,0
</coordinates>
</LineString>
</Placemark>

<Placemark>
<name>TEK_AZU_Ataturk_Kurucesme_route_1 | Rota 1 | Adım 28 | Travel 343->337</name>
<styleUrl>#travel</styleUrl>
<LineString>
<tessellate>1</tessellate>
<coordinates>
27.1853911,38.3687866,0
27.1854105,38.3694085,0
27.1853734,38.3697715,0
27.1853692,38.3698712,0
</coordinates>
</LineString>
</Placemark>

<Placemark>
<name>TEK_AZU_Ataturk_Kurucesme_route_1 | Rota 1 | Adım 28 | Servis Edge 670 (337->336)</name>
<styleUrl>#service</styleUrl>
<LineString>
<tessellate>1</tessellate>
<coordinates>
27.1853692,38.3698712,0
27.1856395,38.369926,0
27.186306,38.3700174,0
27.1865109,38.3700343,0
27.1871026,38.3700424,0
</coordinates>
</LineString>
</Placemark>

<Placemark>
<name>TEK_AZU_Ataturk_Kurucesme_route_1 | Rota 1 | Adım 29 | Travel 336->403</name>
<styleUrl>#travel</styleUrl>
<LineString>
<tessellate>1</tessellate>
<coordinates>
27.1871026,38.3700424,0
27.1871381,38.3698517,0
27.187181,38.36951,0
27.187181,38.3691714,0
27.1872028,38.3688781,0
</coordinates>
</LineString>
</Placemark>

<Placemark>
<name>TEK_AZU_Ataturk_Kurucesme_route_1 | Rota 1 | Adım 29 | Travel 403->343</name>
<styleUrl>#travel</styleUrl>
<LineString>
<tessellate>1</tessellate>
<coordinates>
27.1872028,38.3688781,0
27.1870466,38.3688768,0
27.1853911,38.3687866,0
</coordinates>
</LineString>
</Placemark>

<Placemark>
<name>TEK_AZU_Ataturk_Kurucesme_route_1 | Rota 1 | Adım 29 | Travel 343->342</name>
<styleUrl>#travel</styleUrl>
<LineString>
<tessellate>1</tessellate>
<coordinates>
27.1853911,38.3687866,0
27.1840652,38.3687246,0
27.1835355,38.3686804,0
</coordinates>
</LineString>
</Placemark>

<Placemark>
<name>TEK_AZU_Ataturk_Kurucesme_route_1 | Rota 1 | Adım 29 | Travel 342->341</name>
<styleUrl>#travel</styleUrl>
<LineString>
<tessellate>1</tessellate>
<coordinates>
27.1835352,38.3685473,0
27.183538,38.3686288,0
27.1835355,38.3686804,0
</coordinates>
</LineString>
</Placemark>

<Placemark>
<name>TEK_AZU_Ataturk_Kurucesme_route_1 | Rota 1 | Adım 29 | Travel 341->253</name>
<styleUrl>#travel</styleUrl>
<LineString>
<tessellate>1</tessellate>
<coordinates>
27.1835352,38.3685473,0
27.1835749,38.3676875,0
</coordinates>
</LineString>
</Placemark>

<Placemark>
<name>TEK_AZU_Ataturk_Kurucesme_route_1 | Rota 1 | Adım 29 | Travel 253->252</name>
<styleUrl>#travel</styleUrl>
<LineString>
<tessellate>1</tessellate>
<coordinates>
27.1835749,38.3676875,0
27.1832447,38.3676606,0
27.1825753,38.3676263,0
</coordinates>
</LineString>
</Placemark>

<Placemark>
<name>TEK_AZU_Ataturk_Kurucesme_route_1 | Rota 1 | Adım 29 | Servis Edge 682 (252->200)</name>
<styleUrl>#service</styleUrl>
<LineString>
<tessellate>1</tessellate>
<coordinates>
27.1825753,38.3676263,0
27.1825996,38.367557,0
27.1826117,38.3674928,0
27.1826222,38.3672806,0
27.1826973,38.366972,0
27.1827409,38.3668737,0
27.1828545,38.3667282,0
</coordinates>
</LineString>
</Placemark>

<Placemark>
<name>TEK_AZU_Ataturk_Kurucesme_route_1 | Rota 1 | Adım 30 | Travel 200->201</name>
<styleUrl>#travel</styleUrl>
<LineString>
<tessellate>1</tessellate>
<coordinates>
27.1828545,38.3667282,0
27.1833686,38.3663916,0
</coordinates>
</LineString>
</Placemark>

<Placemark>
<name>TEK_AZU_Ataturk_Kurucesme_route_1 | Rota 1 | Adım 30 | Travel 201->255</name>
<styleUrl>#travel</styleUrl>
<LineString>
<tessellate>1</tessellate>
<coordinates>
27.1833686,38.3663916,0
27.1836009,38.3666883,0
27.1837062,38.3669194,0
27.1838011,38.3669392,0
27.184166,38.3670711,0
</coordinates>
</LineString>
</Placemark>

<Placemark>
<name>TEK_AZU_Ataturk_Kurucesme_route_1 | Rota 1 | Adım 30 | Travel 255->254</name>
<styleUrl>#travel</styleUrl>
<LineString>
<tessellate>1</tessellate>
<coordinates>
27.1841114,38.3676887,0
27.1841273,38.3673406,0
27.1841246,38.3672139,0
27.1841366,38.3671508,0
27.184166,38.3670711,0
</coordinates>
</LineString>
</Placemark>

<Placemark>
<name>TEK_AZU_Ataturk_Kurucesme_route_1 | Rota 1 | Adım 30 | Servis Edge 689 (254->344)</name>
<styleUrl>#service</styleUrl>
<LineString>
<tessellate>1</tessellate>
<coordinates>
27.1841114,38.3676887,0
27.1854527,38.3677292,0
</coordinates>
</LineString>
</Placemark>

<Placemark>
<name>TEK_AZU_Ataturk_Kurucesme_route_1 | Rota 1 | Adım 31 | Travel 344->343</name>
<styleUrl>#travel</styleUrl>
<LineString>
<tessellate>1</tessellate>
<coordinates>
27.1854527,38.3677292,0
27.1853911,38.3687866,0
</coordinates>
</LineString>
</Placemark>

<Placemark>
<name>TEK_AZU_Ataturk_Kurucesme_route_1 | Rota 1 | Adım 31 | Servis Edge 693 (343->342)</name>
<styleUrl>#service</styleUrl>
<LineString>
<tessellate>1</tessellate>
<coordinates>
27.1853911,38.3687866,0
27.1840652,38.3687246,0
27.1835355,38.3686804,0
</coordinates>
</LineString>
</Placemark>

<Placemark>
<name>TEK_AZU_Ataturk_Kurucesme_route_1 | Rota 1 | Adım 32 | Travel 342->341</name>
<styleUrl>#travel</styleUrl>
<LineString>
<tessellate>1</tessellate>
<coordinates>
27.1835352,38.3685473,0
27.183538,38.3686288,0
27.1835355,38.3686804,0
</coordinates>
</LineString>
</Placemark>

<Placemark>
<name>TEK_AZU_Ataturk_Kurucesme_route_1 | Rota 1 | Adım 32 | Travel 341->340</name>
<styleUrl>#travel</styleUrl>
<LineString>
<tessellate>1</tessellate>
<coordinates>
27.1835352,38.3685473,0
27.1829332,38.3684797,0
</coordinates>
</LineString>
</Placemark>

<Placemark>
<name>TEK_AZU_Ataturk_Kurucesme_route_1 | Rota 1 | Adım 32 | Travel 340->251</name>
<styleUrl>#travel</styleUrl>
<LineString>
<tessellate>1</tessellate>
<coordinates>
27.1829332,38.3684797,0
27.1828726,38.3684609,0
27.1826281,38.3683349,0
27.1821539,38.368054,0
</coordinates>
</LineString>
</Placemark>

<Placemark>
<name>TEK_AZU_Ataturk_Kurucesme_route_1 | Rota 1 | Adım 32 | Servis Edge 701 (251->250)</name>
<styleUrl>#service</styleUrl>
<LineString>
<tessellate>1</tessellate>
<coordinates>
27.181763,38.3696115,0
27.1817508,38.3695388,0
27.1817198,38.3694325,0
27.1816618,38.3692619,0
27.1816618,38.3690274,0
27.1816819,38.3687109,0
27.18171,38.36861,0
27.1817721,38.3684725,0
27.1818597,38.3682213,0
27.1819517,38.3681845,0
27.1820262,38.3681455,0
27.1821539,38.368054,0
</coordinates>
</LineString>
</Placemark>

<Placemark>
<name>TEK_AZU_Ataturk_Kurucesme_route_1 | Rota 1 | Adım 33 | Travel 250->338</name>
<styleUrl>#travel</styleUrl>
<LineString>
<tessellate>1</tessellate>
<coordinates>
27.181763,38.3696115,0
27.182872,38.3695284,0
</coordinates>
</LineString>
</Placemark>

<Placemark>
<name>TEK_AZU_Ataturk_Kurucesme_route_1 | Rota 1 | Adım 33 | Travel 338->337</name>
<styleUrl>#travel</styleUrl>
<LineString>
<tessellate>1</tessellate>
<coordinates>
27.182872,38.3695284,0
27.1831536,38.3695326,0
27.1832716,38.3695394,0
27.1853692,38.3698712,0
</coordinates>
</LineString>
</Placemark>

<Placemark>
<name>TEK_AZU_Ataturk_Kurucesme_route_1 | Rota 1 | Adım 33 | Travel 337->336</name>
<styleUrl>#travel</styleUrl>
<LineString>
<tessellate>1</tessellate>
<coordinates>
27.1853692,38.3698712,0
27.1856395,38.369926,0
27.186306,38.3700174,0
27.1865109,38.3700343,0
27.1871026,38.3700424,0
</coordinates>
</LineString>
</Placemark>

<Placemark>
<name>TEK_AZU_Ataturk_Kurucesme_route_1 | Rota 1 | Adım 33 | Travel 336->335</name>
<styleUrl>#travel</styleUrl>
<LineString>
<tessellate>1</tessellate>
<coordinates>
27.1871026,38.3700424,0
27.1872105,38.3700447,0
</coordinates>
</LineString>
</Placemark>

<Placemark>
<name>TEK_AZU_Ataturk_Kurucesme_route_1 | Rota 1 | Adım 33 | Servis Edge 702 (335->334)</name>
<styleUrl>#service</styleUrl>
<LineString>
<tessellate>1</tessellate>
<coordinates>
27.1872295,38.3700449,0
27.187251,38.3700439,0
27.1881345,38.3699727,0
</coordinates>
</LineString>
</Placemark>

<Placemark>
<name>TEK_AZU_Ataturk_Kurucesme_route_1 | Rota 1 | Adım 34 | Servis Edge 649 (334->333)</name>
<styleUrl>#service</styleUrl>
<LineString>
<tessellate>1</tessellate>
<coordinates>
27.1881345,38.3699727,0
27.1899871,38.3698061,0
</coordinates>
</LineString>
</Placemark>

<Placemark>
<name>TEK_AZU_Ataturk_Kurucesme_route_1 | Rota 1 | Adım 35 | Travel 333->438</name>
<styleUrl>#travel</styleUrl>
<LineString>
<tessellate>1</tessellate>
<coordinates>
27.1897909,38.3687934,0
27.1899249,38.3693649,0
27.1899329,38.3694364,0
27.1899869,38.3697981,0
</coordinates>
</LineString>
</Placemark>

<Placemark>
<name>TEK_AZU_Ataturk_Kurucesme_route_1 | Rota 1 | Adım 35 | Travel 438->407</name>
<styleUrl>#travel</styleUrl>
<LineString>
<tessellate>1</tessellate>
<coordinates>
27.1897909,38.3687934,0
27.1881757,38.368877,0
</coordinates>
</LineString>
</Placemark>

<Placemark>
<name>TEK_AZU_Ataturk_Kurucesme_route_1 | Rota 1 | Adım 35 | Servis Edge 706 (407->404)</name>
<styleUrl>#service</styleUrl>
<LineString>
<tessellate>1</tessellate>
<coordinates>
27.1881757,38.368877,0
27.1872732,38.3688782,0
</coordinates>
</LineString>
</Placemark>

<Placemark>
<name>TEK_AZU_Ataturk_Kurucesme_route_1 | Rota 1 | Adım 36 | Servis Edge 707 (404->335)</name>
<styleUrl>#service</styleUrl>
<LineString>
<tessellate>1</tessellate>
<coordinates>
27.1872732,38.3688782,0
27.1872476,38.3691622,0
27.1872496,38.3695176,0
27.1872105,38.3700447,0
</coordinates>
</LineString>
</Placemark>

<Placemark>
<name>TEK_AZU_Ataturk_Kurucesme_route_1 | Rota 1 | Adım 37 | Travel 335->248</name>
<styleUrl>#travel</styleUrl>
<LineString>
<tessellate>1</tessellate>
<coordinates>
27.1871977,38.3701313,0
27.1872105,38.3700447,0
</coordinates>
</LineString>
</Placemark>

<Placemark>
<name>TEK_AZU_Ataturk_Kurucesme_route_1 | Rota 1 | Adım 37 | Travel 248->249</name>
<styleUrl>#travel</styleUrl>
<LineString>
<tessellate>1</tessellate>
<coordinates>
27.1870867,38.3701333,0
27.1871977,38.3701313,0
</coordinates>
</LineString>
</Placemark>

<Placemark>
<name>TEK_AZU_Ataturk_Kurucesme_route_1 | Rota 1 | Adım 37 | Travel 249->336</name>
<styleUrl>#travel</styleUrl>
<LineString>
<tessellate>1</tessellate>
<coordinates>
27.1871026,38.3700424,0
27.1870867,38.3701333,0
</coordinates>
</LineString>
</Placemark>

<Placemark>
<name>TEK_AZU_Ataturk_Kurucesme_route_1 | Rota 1 | Adım 37 | Servis Edge 709 (336->403)</name>
<styleUrl>#service</styleUrl>
<LineString>
<tessellate>1</tessellate>
<coordinates>
27.1871026,38.3700424,0
27.1871381,38.3698517,0
27.187181,38.36951,0
27.187181,38.3691714,0
27.1872028,38.3688781,0
</coordinates>
</LineString>
</Placemark>

<Placemark>
<name>TEK_AZU_Ataturk_Kurucesme_route_1 | Rota 1 | Adım 38 | Travel 403->405</name>
<styleUrl>#travel</styleUrl>
<LineString>
<tessellate>1</tessellate>
<coordinates>
27.1872632,38.3679373,0
27.1872728,38.3682454,0
27.1872028,38.3688781,0
</coordinates>
</LineString>
</Placemark>

<Placemark>
<name>TEK_AZU_Ataturk_Kurucesme_route_1 | Rota 1 | Adım 38 | Travel 405->346</name>
<styleUrl>#travel</styleUrl>
<LineString>
<tessellate>1</tessellate>
<coordinates>
27.1870712,38.3677853,0
27.1870771,38.3678188,0
27.1871083,38.3678716,0
27.1871566,38.3679068,0
27.1872632,38.3679373,0
</coordinates>
</LineString>
</Placemark>

<Placemark>
<name>TEK_AZU_Ataturk_Kurucesme_route_1 | Rota 1 | Adım 38 | Servis Edge 710 (346->344)</name>
<styleUrl>#service</styleUrl>
<LineString>
<tessellate>1</tessellate>
<coordinates>
27.1870712,38.3677853,0
27.1854527,38.3677292,0
</coordinates>
</LineString>
</Placemark>

<Placemark>
<name>TEK_AZU_Ataturk_Kurucesme_route_1 | Rota 1 | Adım 39 | Travel 344->346</name>
<styleUrl>#travel</styleUrl>
<LineString>
<tessellate>1</tessellate>
<coordinates>
27.1854527,38.3677292,0
27.1870712,38.3677853,0
</coordinates>
</LineString>
</Placemark>

<Placemark>
<name>TEK_AZU_Ataturk_Kurucesme_route_1 | Rota 1 | Adım 39 | Travel 346->347</name>
<styleUrl>#travel</styleUrl>
<LineString>
<tessellate>1</tessellate>
<coordinates>
27.1870712,38.3677853,0
27.1870717,38.3677604,0
27.1870824,38.3677299,0
27.1870978,38.3677023,0
27.1871216,38.3676758,0
27.1871471,38.3676576,0
27.1871806,38.36764,0
27.1872152,38.3676298,0
27.1872497,38.3676241,0
</coordinates>
</LineString>
</Placemark>

<Placemark>
<name>TEK_AZU_Ataturk_Kurucesme_route_1 | Rota 1 | Adım 39 | Travel 347->348</name>
<styleUrl>#travel</styleUrl>
<LineString>
<tessellate>1</tessellate>
<coordinates>
27.1872497,38.3676241,0
27.1873245,38.3676283,0
</coordinates>
</LineString>
</Placemark>

<Placemark>
<name>TEK_AZU_Ataturk_Kurucesme_route_1 | Rota 1 | Adım 39 | Travel 348->349</name>
<styleUrl>#travel</styleUrl>
<LineString>
<tessellate>1</tessellate>
<coordinates>
27.1873245,38.3676283,0
27.1873931,38.3676557,0
27.187422,38.3676743,0
27.1874458,38.3676983,0
27.1874608,38.3677251,0
27.1874686,38.3677487,0
27.1874741,38.36778,0
</coordinates>
</LineString>
</Placemark>

<Placemark>
<name>TEK_AZU_Ataturk_Kurucesme_route_1 | Rota 1 | Adım 39 | Servis Edge 714 (349->350)</name>
<styleUrl>#service</styleUrl>
<LineString>
<tessellate>1</tessellate>
<coordinates>
27.1874741,38.36778,0
27.1882209,38.3678127,0
</coordinates>
</LineString>
</Placemark>

<Placemark>
<name>TEK_AZU_Ataturk_Kurucesme_route_1 | Rota 1 | Adım 40 | Travel 350->349</name>
<styleUrl>#travel</styleUrl>
<LineString>
<tessellate>1</tessellate>
<coordinates>
27.1882209,38.3678127,0
27.1874741,38.36778,0
</coordinates>
</LineString>
</Placemark>

<Placemark>
<name>TEK_AZU_Ataturk_Kurucesme_route_1 | Rota 1 | Adım 40 | Travel 349->406</name>
<styleUrl>#travel</styleUrl>
<LineString>
<tessellate>1</tessellate>
<coordinates>
27.1873437,38.3679289,0
27.1874041,38.3679017,0
27.1874316,38.3678801,0
27.1874484,38.367857,0
27.1874638,38.3678252,0
27.1874741,38.36778,0
</coordinates>
</LineString>
</Placemark>

<Placemark>
<name>TEK_AZU_Ataturk_Kurucesme_route_1 | Rota 1 | Adım 40 | Servis Edge 719 (406->404)</name>
<styleUrl>#service</styleUrl>
<LineString>
<tessellate>1</tessellate>
<coordinates>
27.1872732,38.3688782,0
27.1873184,38.3682481,0
27.1873437,38.3679289,0
</coordinates>
</LineString>
</Placemark>

<Placemark>
<name>TEK_AZU_Ataturk_Kurucesme_route_1 | Rota 1 | Adım 41 | Travel 404->403</name>
<styleUrl>#travel</styleUrl>
<LineString>
<tessellate>1</tessellate>
<coordinates>
27.1872732,38.3688782,0
27.1872028,38.3688781,0
</coordinates>
</LineString>
</Placemark>

<Placemark>
<name>TEK_AZU_Ataturk_Kurucesme_route_1 | Rota 1 | Adım 41 | Travel 403->343</name>
<styleUrl>#travel</styleUrl>
<LineString>
<tessellate>1</tessellate>
<coordinates>
27.1872028,38.3688781,0
27.1870466,38.3688768,0
27.1853911,38.3687866,0
</coordinates>
</LineString>
</Placemark>

<Placemark>
<name>TEK_AZU_Ataturk_Kurucesme_route_1 | Rota 1 | Adım 41 | Travel 343->342</name>
<styleUrl>#travel</styleUrl>
<LineString>
<tessellate>1</tessellate>
<coordinates>
27.1853911,38.3687866,0
27.1840652,38.3687246,0
27.1835355,38.3686804,0
</coordinates>
</LineString>
</Placemark>

<Placemark>
<name>TEK_AZU_Ataturk_Kurucesme_route_1 | Rota 1 | Adım 41 | Travel 342->339</name>
<styleUrl>#travel</styleUrl>
<LineString>
<tessellate>1</tessellate>
<coordinates>
27.1835355,38.3686804,0
27.1829417,38.3686884,0
</coordinates>
</LineString>
</Placemark>

<Placemark>
<name>TEK_AZU_Ataturk_Kurucesme_route_1 | Rota 1 | Adım 41 | Servis Edge 727 (339->338)</name>
<styleUrl>#service</styleUrl>
<LineString>
<tessellate>1</tessellate>
<coordinates>
27.1829417,38.3686884,0
27.1828693,38.3695281,0
</coordinates>
</LineString>
</Placemark>

<Placemark>
<name>TEK_AZU_Ataturk_Kurucesme_route_1 | Rota 1 | Adım RETURN | Travel 338->339</name>
<styleUrl>#travel</styleUrl>
<LineString>
<tessellate>1</tessellate>
<coordinates>
27.1828693,38.3695281,0
27.1829417,38.3686884,0
</coordinates>
</LineString>
</Placemark>

<Placemark>
<name>TEK_AZU_Ataturk_Kurucesme_route_1 | Rota 1 | Adım RETURN | Travel 339->340</name>
<styleUrl>#travel</styleUrl>
<LineString>
<tessellate>1</tessellate>
<coordinates>
27.1829332,38.3684797,0
27.1829417,38.3686884,0
</coordinates>
</LineString>
</Placemark>

<Placemark>
<name>TEK_AZU_Ataturk_Kurucesme_route_1 | Rota 1 | Adım RETURN | Travel 340->251</name>
<styleUrl>#travel</styleUrl>
<LineString>
<tessellate>1</tessellate>
<coordinates>
27.1829332,38.3684797,0
27.1828726,38.3684609,0
27.1826281,38.3683349,0
27.1821539,38.368054,0
</coordinates>
</LineString>
</Placemark>

<Placemark>
<name>TEK_AZU_Ataturk_Kurucesme_route_1 | Rota 1 | Adım RETURN | Travel 251->252</name>
<styleUrl>#travel</styleUrl>
<LineString>
<tessellate>1</tessellate>
<coordinates>
27.1821539,38.368054,0
27.1824569,38.3677659,0
27.1825753,38.3676263,0
</coordinates>
</LineString>
</Placemark>

<Placemark>
<name>TEK_AZU_Ataturk_Kurucesme_route_1 | Rota 1 | Adım RETURN | Travel 252->200</name>
<styleUrl>#travel</styleUrl>
<LineString>
<tessellate>1</tessellate>
<coordinates>
27.1825753,38.3676263,0
27.1825996,38.367557,0
27.1826117,38.3674928,0
27.1826222,38.3672806,0
27.1826973,38.366972,0
27.1827409,38.3668737,0
27.1828545,38.3667282,0
</coordinates>
</LineString>
</Placemark>

<Placemark>
<name>TEK_AZU_Ataturk_Kurucesme_route_1 | Rota 1 | Adım RETURN | Travel 200->0</name>
<styleUrl>#travel</styleUrl>
<LineString>
<tessellate>1</tessellate>
<coordinates>
27.1828545,38.3667282,0
27.1824768,38.3664713,0
27.1823374,38.3664032,0
27.1821543,38.3663532,0
27.181878,38.3663359,0
27.1812279,38.3663616,0
27.1801155,38.3664494,0
</coordinates>
</LineString>
</Placemark>

</Document>
</kml>
